{"type":"FeatureCollection","features":[{"type":"Feature","properties":{"unitId":1,"unitName":"Hanumasagar PS"},"geometry":{"type":"Polygon","coordinates":[[[76.07016,16.00991],[76.0749,16.00938],[76.07995,16.00975],[76.08203,16.00623],[76.08442,15.99988],[76.08478,15.99612],[76.08102,15.98605],[76.07839,15.97571],[76.07444,15.96984],[76.07307,15.96566],[76.07245,15.96321],[76.07259,15.95846],[76.0721,15.95658],[76.07151,15.95571],[76.07056,15.95536],[76.07059,15.95286],[76.07118,15.95151],[76.07104,15.94817],[76.0647,15.92502],[76.06269,15.92159],[76.06364,15.9158],[76.05917,15.90874],[76.05839,15.90593],[76.06451,15.90487],[76.07095,15.90234],[76.07372,15.90195],[76.08368,15.90102],[76.08638,15.90104],[76.08671,15.90179],[76.09258,15.90131],[76.09503,15.90155],[76.10166,15.90035],[76.10341,15.8956],[76.10364,15.89159],[76.09585,15.88879],[76.08677,15.88775],[76.08478,15.88791],[76.08445,15.88603],[76.08557,15.87855],[76.08506,15.87635],[76.08557,15.87317],[76.08399,15.87028],[76.0846,15.86855],[76.08603,15.86703],[76.08474,15.86298],[76.08405,15.8559],[76.08484,15.85599],[76.08512,15.85059],[76.08688,15.8455],[76.08706,15.84274],[76.08686,15.84001],[76.08506,15.83573],[76.08178,15.83547],[76.07918,15.83375],[76.07669,15.83808],[76.07188,15.84439],[76.06342,15.84592],[76.05944,15.84715],[76.05833,15.83708],[76.0599,15.83416],[76.05927,15.82667],[76.0568,15.82552],[76.04976,15.82506],[76.05071,15.82328],[76.05112,15.8194],[76.04984,15.80941],[76.05396,15.80344],[76.05412,15.80248],[76.05337,15.80239],[76.05135,15.80053],[76.04933,15.7981],[76.04867,15.79634],[76.04897,15.78508],[76.06114,15.78432],[76.0753,15.78515],[76.0823,15.78615],[76.08282,15.77308],[76.08219,15.77033],[76.08039,15.77004],[76.07993,15.76849],[76.07878,15.76798],[76.07645,15.76511],[76.07485,15.76492],[76.07333,15.7607],[76.06736,15.76178],[76.0653,15.76157],[76.06222,15.76024],[76.06246,15.76234],[76.06475,15.76663],[76.06493,15.77248],[76.06027,15.77249],[76.05902,15.77316],[76.04911,15.77391],[76.04896,15.77614],[76.04985,15.78236],[76.04858,15.7828],[76.04268,15.78411],[76.04041,15.78401],[76.0377,15.78297],[76.03766,15.77797],[76.03822,15.77776],[76.03917,15.77602],[76.04144,15.77622],[76.04166,15.77158],[76.03389,15.77004],[76.02404,15.77498],[76.0206,15.77588],[76.01976,15.77567],[76.01952,15.77783],[76.01845,15.77912],[76.01573,15.77887],[76.01548,15.78022],[76.01238,15.7799],[76.01179,15.78184],[76.00994,15.78419],[76.00649,15.78277],[76.00288,15.78282],[75.99968,15.7815],[75.99516,15.78065],[75.9936,15.78095],[75.9934,15.78234],[75.99177,15.78549],[75.99026,15.78592],[75.98941,15.79418],[75.98833,15.79577],[75.98793,15.79849],[75.98845,15.80155],[75.98465,15.8015],[75.98395,15.8022],[75.98275,15.80219],[75.98058,15.80112],[75.97644,15.80072],[75.97291,15.7975],[75.96764,15.79441],[75.96378,15.79522],[75.96329,15.78847],[75.96141,15.78488],[75.94308,15.7889],[75.93822,15.79083],[75.93033,15.79101],[75.92773,15.79167],[75.92141,15.79651],[75.91903,15.79913],[75.91423,15.80203],[75.90864,15.80752],[75.90042,15.8097],[75.89146,15.81502],[75.88358,15.82135],[75.87383,15.82767],[75.8739,15.82812],[75.87093,15.82965],[75.86353,15.83166],[75.85786,15.83445],[75.85245,15.83603],[75.84883,15.83808],[75.84508,15.83817],[75.84623,15.8479],[75.84829,15.85397],[75.84875,15.85765],[75.84949,15.85914],[75.84955,15.86095],[75.84753,15.86191],[75.84818,15.8715],[75.84368,15.87202],[75.83986,15.8717],[75.83786,15.8653],[75.83634,15.86563],[75.83436,15.86497],[75.82989,15.8654],[75.82764,15.86638],[75.83205,15.87571],[75.83212,15.87618],[75.83105,15.87719],[75.83151,15.87856],[75.83379,15.87802],[75.8336,15.87927],[75.83416,15.87955],[75.8354,15.88265],[75.83429,15.88288],[75.83416,15.88498],[75.83334,15.885],[75.83314,15.88675],[75.83085,15.88652],[75.83003,15.88743],[75.82941,15.89043],[75.83003,15.89716],[75.8276,15.89931],[75.82752,15.90028],[75.81143,15.9002],[75.81099,15.89409],[75.80127,15.89628],[75.79998,15.8962],[75.79986,15.89676],[75.78941,15.89749],[75.78714,15.89834],[75.78419,15.89853],[75.78076,15.89699],[75.77887,15.89846],[75.77617,15.9024],[75.77659,15.9032],[75.77944,15.90298],[75.78088,15.90573],[75.78082,15.9087],[75.77904,15.90973],[75.77655,15.91356],[75.77778,15.91808],[75.7771,15.91902],[75.78912,15.92416],[75.78977,15.92246],[75.79627,15.92221],[75.80569,15.92403],[75.81213,15.92265],[75.81092,15.925],[75.82763,15.92716],[75.83018,15.92467],[75.83636,15.92475],[75.83649,15.92773],[75.83912,15.92938],[75.84044,15.93094],[75.84367,15.93101],[75.84823,15.93365],[75.85533,15.93434],[75.85473,15.93569],[75.8667,15.93154],[75.87306,15.93179],[75.87526,15.93119],[75.87901,15.93125],[75.88335,15.92391],[75.88815,15.91918],[75.89198,15.9169],[75.89718,15.91681],[75.89797,15.9177],[75.90315,15.91884],[75.90222,15.9229],[75.91426,15.91304],[75.92256,15.90372],[75.92719,15.89774],[75.9269,15.88966],[75.92634,15.88615],[75.92786,15.88705],[75.92937,15.88104],[75.92836,15.87511],[75.94166,15.87395],[75.94449,15.86606],[75.95175,15.86594],[75.95638,15.86536],[75.96267,15.8655],[75.96546,15.85877],[75.9746,15.86183],[75.97497,15.86411],[75.97618,15.8663],[75.97783,15.86784],[75.9791,15.87086],[75.97935,15.88277],[75.97732,15.895],[75.97577,15.89732],[75.97448,15.89793],[75.97569,15.89969],[75.97538,15.91281],[75.97349,15.92254],[75.97628,15.92854],[75.97677,15.93129],[75.97613,15.9458],[75.97695,15.94961],[75.97663,15.95018],[75.97736,15.95208],[75.97423,15.95247],[75.97378,15.95427],[75.97423,15.95425],[75.97542,15.95749],[75.97572,15.96046],[75.97374,15.98638],[75.97517,15.98764],[75.97581,15.98938],[75.97909,15.99099],[75.98174,15.99144],[75.98264,15.99275],[75.9867,15.99479],[75.9871,15.99691],[75.98928,15.99866],[75.9895,16.00481],[76.00811,16.00276],[76.01114,16.00211],[76.01071,16.0015],[76.01126,16.00114],[76.01258,16.00175],[76.01305,16.00153],[76.01336,16.00228],[76.01469,16.00158],[76.01657,16.00194],[76.02002,16.00753],[76.02114,16.00739],[76.02324,16.00852],[76.0262,16.00755],[76.04065,16.00494],[76.05148,16.00351],[76.05217,16.00609],[76.05655,16.00572],[76.05642,16.01147],[76.07016,16.00991]]]}},{"type":"Feature","properties":{"unitId":2,"unitName":"Badami PS"},"geometry":{"type":"Polygon","coordinates":[[[75.65369,16.03003],[75.66252,16.02861],[75.66272,16.02733],[75.66447,16.02731],[75.66461,16.02647],[75.66716,16.02697],[75.66789,16.0249],[75.66978,16.02511],[75.67208,16.01235],[75.67268,15.9994],[75.67472,15.99826],[75.67777,15.99556],[75.67972,15.99555],[75.68341,15.99706],[75.68628,15.99463],[75.68786,15.99656],[75.68871,15.99896],[75.69265,16.00323],[75.69833,16.00433],[75.69846,16.00345],[75.69946,16.00223],[75.7044,16.00086],[75.70941,15.99739],[75.71,15.99606],[75.71099,15.99624],[75.71145,15.99564],[75.7124,15.99361],[75.71218,15.98557],[75.71859,15.98546],[75.73462,15.9871],[75.73686,15.98663],[75.73738,15.98127],[75.73943,15.9779],[75.74482,15.97683],[75.74759,15.97569],[75.76031,15.9742],[75.76429,15.97287],[75.76606,15.97501],[75.77037,15.97452],[75.78282,15.97652],[75.78541,15.97647],[75.79171,15.98028],[75.79034,15.98228],[75.78975,15.98414],[75.7989,15.98389],[75.79939,15.98078],[75.80085,15.97956],[75.80218,15.98009],[75.8038,15.98171],[75.80611,15.98203],[75.80666,15.97943],[75.80438,15.97765],[75.80141,15.97663],[75.80166,15.97533],[75.80323,15.97492],[75.80561,15.97509],[75.8069,15.97569],[75.80668,15.97669],[75.80821,15.97697],[75.80716,15.97888],[75.81075,15.98012],[75.81301,15.98143],[75.81831,15.98138],[75.81768,15.97248],[75.81835,15.96684],[75.818,15.96453],[75.82201,15.96251],[75.8249,15.96297],[75.82806,15.96499],[75.82998,15.9583],[75.83236,15.94644],[75.83779,15.94107],[75.83912,15.92938],[75.83649,15.92773],[75.83636,15.92475],[75.83018,15.92467],[75.82763,15.92716],[75.81092,15.925],[75.81213,15.92265],[75.80569,15.92403],[75.79627,15.92221],[75.78977,15.92246],[75.78912,15.92416],[75.7771,15.91902],[75.77778,15.91808],[75.77655,15.91356],[75.77904,15.90973],[75.78082,15.9087],[75.78088,15.90573],[75.77944,15.90298],[75.77659,15.9032],[75.77615,15.90248],[75.77887,15.89846],[75.78076,15.89699],[75.78419,15.89853],[75.78714,15.89834],[75.78941,15.89749],[75.79986,15.89676],[75.79998,15.8962],[75.80127,15.89628],[75.81099,15.89409],[75.81143,15.9002],[75.82752,15.90028],[75.8276,15.89931],[75.83003,15.89716],[75.82941,15.89043],[75.83003,15.88743],[75.83085,15.88652],[75.83314,15.88675],[75.83334,15.885],[75.83416,15.88498],[75.83429,15.88288],[75.8354,15.88265],[75.83416,15.87955],[75.8336,15.87927],[75.83379,15.87802],[75.83151,15.87856],[75.83105,15.87719],[75.83212,15.87618],[75.83205,15.87571],[75.82764,15.86638],[75.82989,15.8654],[75.83436,15.86497],[75.83634,15.86563],[75.83786,15.8653],[75.83986,15.8717],[75.84368,15.87202],[75.84818,15.8715],[75.84753,15.86191],[75.84955,15.86095],[75.84949,15.85914],[75.84875,15.85765],[75.84829,15.85397],[75.84623,15.8479],[75.84508,15.83817],[75.84247,15.83751],[75.82934,15.83937],[75.82542,15.83848],[75.82658,15.84226],[75.82071,15.84543],[75.82017,15.84735],[75.82,15.85124],[75.81201,15.84723],[75.8096,15.85117],[75.80487,15.85113],[75.79689,15.84752],[75.79383,15.84945],[75.78727,15.84869],[75.78247,15.8509],[75.7801,15.85318],[75.77691,15.84917],[75.77632,15.84771],[75.77599,15.83403],[75.77495,15.82952],[75.77453,15.82952],[75.77411,15.82801],[75.77723,15.82753],[75.77765,15.82141],[75.77912,15.82053],[75.77954,15.8177],[75.77761,15.81726],[75.76081,15.81662],[75.75148,15.81571],[75.74749,15.81481],[75.74751,15.81444],[75.74494,15.81307],[75.74365,15.81287],[75.73578,15.81394],[75.73603,15.81648],[75.72926,15.81647],[75.72924,15.81718],[75.7214,15.81822],[75.71496,15.8274],[75.71144,15.82741],[75.71132,15.82804],[75.70851,15.82804],[75.70849,15.82891],[75.70686,15.82904],[75.70691,15.82947],[75.70565,15.82726],[75.70152,15.8269],[75.70063,15.82614],[75.6958,15.82487],[75.6912,15.82691],[75.68861,15.8302],[75.68748,15.83084],[75.68106,15.82987],[75.68025,15.82908],[75.68078,15.82812],[75.68154,15.828],[75.68103,15.82805],[75.68107,15.82682],[75.68182,15.82678],[75.68036,15.82257],[75.67946,15.82181],[75.67935,15.82262],[75.67647,15.82213],[75.67488,15.82291],[75.67438,15.82382],[75.67435,15.82603],[75.67561,15.83013],[75.67422,15.83029],[75.67389,15.83233],[75.67182,15.83591],[75.67196,15.83647],[75.66919,15.83746],[75.66613,15.83773],[75.66359,15.83704],[75.65973,15.83223],[75.65787,15.8289],[75.65795,15.82831],[75.65744,15.82932],[75.65531,15.82805],[75.64988,15.83155],[75.64764,15.83191],[75.64553,15.83129],[75.64224,15.83332],[75.64263,15.83622],[75.64329,15.83619],[75.64383,15.84175],[75.63679,15.8419],[75.63541,15.83755],[75.63472,15.83348],[75.63133,15.83192],[75.63199,15.83434],[75.62899,15.83474],[75.62678,15.83286],[75.62436,15.83498],[75.62073,15.83596],[75.61948,15.82193],[75.61862,15.82135],[75.6159,15.82135],[75.61554,15.82385],[75.61238,15.82476],[75.60612,15.82542],[75.60608,15.82588],[75.60861,15.82769],[75.60833,15.82893],[75.60886,15.82898],[75.60885,15.8295],[75.60736,15.82949],[75.60647,15.83112],[75.60339,15.82891],[75.60282,15.82955],[75.59952,15.82918],[75.59477,15.82969],[75.59127,15.83113],[75.59081,15.83399],[75.59005,15.83387],[75.59022,15.8327],[75.58979,15.83223],[75.5889,15.83331],[75.58618,15.8347],[75.58603,15.83375],[75.58651,15.83361],[75.58521,15.83291],[75.58109,15.82843],[75.57928,15.82563],[75.57678,15.82426],[75.57524,15.82524],[75.57637,15.83041],[75.56915,15.83117],[75.5649,15.83102],[75.56503,15.83185],[75.56615,15.83192],[75.56624,15.83383],[75.56959,15.83382],[75.57016,15.83531],[75.57,15.83618],[75.56692,15.83588],[75.56379,15.83735],[75.56242,15.8373],[75.56019,15.83568],[75.55896,15.83113],[75.55996,15.83072],[75.55978,15.83006],[75.55514,15.82684],[75.55496,15.82583],[75.55374,15.82487],[75.552,15.82459],[75.55105,15.82517],[75.55073,15.82599],[75.55113,15.82748],[75.55452,15.82937],[75.55503,15.83197],[75.55589,15.8331],[75.55368,15.83453],[75.54887,15.83514],[75.54689,15.83654],[75.54044,15.83639],[75.53795,15.83587],[75.53499,15.83652],[75.53489,15.83521],[75.52913,15.83549],[75.53157,15.84116],[75.53099,15.84177],[75.52653,15.84297],[75.5237,15.84104],[75.52158,15.84186],[75.5208,15.84303],[75.5212,15.84657],[75.51671,15.84772],[75.51299,15.85034],[75.51314,15.85105],[75.51426,15.85089],[75.5141,15.85194],[75.51453,15.85287],[75.51604,15.85307],[75.51832,15.85195],[75.52081,15.85311],[75.5191,15.85847],[75.51801,15.85813],[75.51537,15.8585],[75.51263,15.85952],[75.50823,15.86021],[75.50816,15.86059],[75.50746,15.86044],[75.50683,15.85644],[75.50229,15.85803],[75.50218,15.86],[75.50277,15.86139],[75.50389,15.8626],[75.50454,15.86249],[75.50467,15.86319],[75.50177,15.8666],[75.49984,15.86783],[75.49679,15.87084],[75.49606,15.87293],[75.49166,15.87384],[75.4896,15.87477],[75.4888,15.87628],[75.48804,15.87644],[75.48758,15.87579],[75.48646,15.8761],[75.4849,15.87536],[75.48327,15.87341],[75.48255,15.87431],[75.4821,15.87641],[75.48052,15.87671],[75.47991,15.8766],[75.4788,15.87478],[75.48158,15.87196],[75.47903,15.87105],[75.47742,15.87256],[75.47499,15.87255],[75.474,15.87455],[75.47579,15.87505],[75.476,15.87568],[75.47047,15.87735],[75.46895,15.87685],[75.46911,15.87626],[75.46751,15.87629],[75.46699,15.87694],[75.46627,15.87694],[75.46728,15.88018],[75.46613,15.88107],[75.46486,15.88141],[75.46365,15.88092],[75.46299,15.87908],[75.46083,15.87953],[75.45998,15.88062],[75.45934,15.88376],[75.46012,15.88504],[75.46175,15.88564],[75.46205,15.88808],[75.4601,15.88729],[75.45263,15.88656],[75.45057,15.88726],[75.44523,15.88648],[75.44425,15.88701],[75.44316,15.89015],[75.44605,15.89051],[75.44696,15.8916],[75.44637,15.8933],[75.44453,15.89412],[75.45494,15.91988],[75.44249,15.92662],[75.44224,15.92266],[75.44055,15.91827],[75.4248,15.92199],[75.43052,15.93479],[75.42845,15.93736],[75.43113,15.94379],[75.43306,15.94502],[75.43973,15.96595],[75.44482,15.96106],[75.46,15.95627],[75.46459,15.95278],[75.46887,15.95146],[75.47092,15.94758],[75.47411,15.9491],[75.47634,15.95133],[75.47912,15.95084],[75.47969,15.94816],[75.48118,15.94585],[75.48094,15.94491],[75.4815,15.94293],[75.48595,15.94006],[75.49174,15.93919],[75.49178,15.93555],[75.49532,15.9324],[75.49852,15.93098],[75.50101,15.92858],[75.50471,15.9271],[75.5063,15.92568],[75.51104,15.92414],[75.51271,15.92703],[75.53313,15.92439],[75.53415,15.93396],[75.53691,15.94688],[75.5462,15.94842],[75.55127,15.94569],[75.55621,15.94494],[75.55622,15.94231],[75.56421,15.94235],[75.5705,15.94311],[75.57061,15.93948],[75.5817,15.94305],[75.58248,15.94658],[75.58823,15.9473],[75.60276,15.94394],[75.61386,15.94307],[75.61294,15.94697],[75.62052,15.95589],[75.62001,15.9574],[75.61837,15.97321],[75.62244,15.97191],[75.62417,15.97485],[75.62441,15.97689],[75.62315,15.98254],[75.62422,15.98681],[75.62199,15.99034],[75.62542,16.01158],[75.62581,16.01523],[75.62554,16.01759],[75.63288,16.01924],[75.63312,16.02322],[75.63786,16.02496],[75.63751,16.02894],[75.6388,16.02939],[75.64399,16.02929],[75.65369,16.03003]]]}},{"type":"Feature","properties":{"unitId":3,"unitName":"Guledagudda PS"},"geometry":{"type":"Polygon","coordinates":[[[75.71401,16.11215],[75.71951,16.11215],[75.73179,16.11093],[75.73234,16.09558],[75.73469,16.08901],[75.73539,16.08476],[75.73883,16.08519],[75.74081,16.08479],[75.75501,16.08486],[75.75775,16.08551],[75.76444,16.08418],[75.76554,16.08089],[75.76731,16.06847],[75.77228,16.06505],[75.78094,16.0664],[75.7871,16.07468],[75.78984,16.07486],[75.78938,16.0758],[75.79127,16.0763],[75.79251,16.0813],[75.79676,16.08411],[75.7965,16.08499],[75.79385,16.08652],[75.78839,16.08803],[75.79457,16.09093],[75.80512,16.0929],[75.82176,16.09329],[75.83318,16.09092],[75.8394,16.09231],[75.84677,16.08905],[75.85977,16.07721],[75.85837,16.07525],[75.85816,16.07363],[75.85455,16.07003],[75.85271,16.06466],[75.85167,16.06395],[75.85384,16.05952],[75.85539,16.05492],[75.85679,16.05255],[75.85635,16.04954],[75.85281,16.04541],[75.84935,16.04511],[75.84823,16.04467],[75.84787,16.04393],[75.84879,16.04186],[75.85316,16.03839],[75.85148,16.03613],[75.84861,16.03419],[75.84255,16.03243],[75.84272,16.03125],[75.84379,16.02961],[75.85158,16.02236],[75.85447,16.02162],[75.86252,16.02121],[75.86528,16.02039],[75.86981,16.01837],[75.87392,16.01534],[75.87931,16.01336],[75.87679,16.00831],[75.87833,16.00691],[75.87875,16.00544],[75.87709,16.00256],[75.8747,16.00105],[75.87388,15.99931],[75.87329,15.996],[75.87416,15.99275],[75.87347,15.99178],[75.86838,15.9885],[75.85127,15.9867],[75.84906,15.98484],[75.84875,15.98132],[75.85041,15.981],[75.85116,15.97849],[75.85181,15.9783],[75.85532,15.97924],[75.85641,15.9785],[75.85585,15.97723],[75.85422,15.9763],[75.85475,15.97517],[75.85656,15.9735],[75.85621,15.97107],[75.85767,15.96876],[75.85868,15.96798],[75.86038,15.96449],[75.86024,15.96281],[75.85868,15.96149],[75.85629,15.9604],[75.85581,15.9588],[75.85649,15.95728],[75.8583,15.95652],[75.85858,15.95506],[75.85679,15.95359],[75.85378,15.95324],[75.85265,15.95254],[75.85247,15.95053],[75.85372,15.94983],[75.85436,15.94845],[75.85353,15.94754],[75.85376,15.94643],[75.85152,15.94466],[75.85054,15.9419],[75.8509,15.94025],[75.85369,15.93807],[75.85533,15.93434],[75.84823,15.93365],[75.84367,15.93101],[75.84044,15.93094],[75.83912,15.92938],[75.83779,15.94107],[75.83236,15.94644],[75.82998,15.9583],[75.82806,15.96499],[75.8249,15.96297],[75.82201,15.96251],[75.818,15.96453],[75.81835,15.96684],[75.81768,15.97248],[75.81831,15.98138],[75.81301,15.98143],[75.81075,15.98012],[75.80716,15.97888],[75.80821,15.97697],[75.80668,15.97669],[75.8069,15.97569],[75.80561,15.97509],[75.80323,15.97492],[75.80166,15.97533],[75.80141,15.97663],[75.80438,15.97765],[75.80666,15.97943],[75.80611,15.98203],[75.8038,15.98171],[75.80218,15.98009],[75.80085,15.97956],[75.79939,15.98078],[75.7989,15.98389],[75.78975,15.98414],[75.79034,15.98228],[75.79171,15.98028],[75.78541,15.97647],[75.78282,15.97652],[75.77037,15.97452],[75.76606,15.97501],[75.76429,15.97287],[75.76031,15.9742],[75.74759,15.97569],[75.74482,15.97683],[75.73943,15.9779],[75.73738,15.98127],[75.73686,15.98663],[75.73462,15.9871],[75.71859,15.98546],[75.71218,15.98557],[75.7124,15.99361],[75.71145,15.99564],[75.71099,15.99624],[75.71,15.99606],[75.70941,15.99739],[75.7044,16.00086],[75.69946,16.00223],[75.69846,16.00345],[75.69833,16.00433],[75.69265,16.00323],[75.68871,15.99896],[75.68786,15.99656],[75.68628,15.99463],[75.68341,15.99706],[75.67972,15.99555],[75.67777,15.99556],[75.67472,15.99826],[75.67268,15.9994],[75.67208,16.01235],[75.66978,16.02511],[75.67279,16.02649],[75.67697,16.0296],[75.67666,16.03135],[75.67855,16.03216],[75.67968,16.03333],[75.68033,16.03519],[75.67972,16.03541],[75.67956,16.0362],[75.68139,16.03922],[75.67623,16.04002],[75.668,16.04012],[75.66949,16.06073],[75.66964,16.06864],[75.67072,16.07608],[75.67449,16.07798],[75.68013,16.08176],[75.67956,16.0835],[75.68239,16.08558],[75.68718,16.08676],[75.68617,16.09245],[75.68775,16.09916],[75.68775,16.10903],[75.6945,16.10934],[75.70652,16.11101],[75.71027,16.11209],[75.71401,16.11215]]]}},{"type":"Feature","properties":{"unitId":4,"unitName":"Kerur PS"},"geometry":{"type":"MultiPolygon","coordinates":[[[[75.44523,16.15615],[75.45678,16.15522],[75.48285,16.15125],[75.50002,16.14515],[75.50223,16.14492],[75.50433,16.14142],[75.50583,16.14128],[75.50821,16.13945],[75.50794,16.13719],[75.50939,16.1353],[75.51045,16.13579],[75.51162,16.13533],[75.52203,16.13624],[75.52632,16.13723],[75.53757,16.13704],[75.54248,16.13651],[75.54478,16.13514],[75.55315,16.1334],[75.55545,16.13337],[75.5559,16.13597],[75.56016,16.14375],[75.56229,16.14517],[75.56579,16.1465],[75.56902,16.14647],[75.57249,16.15103],[75.58313,16.15157],[75.59298,16.1446],[75.59538,16.15242],[75.60552,16.14816],[75.619,16.14703],[75.6306,16.14456],[75.64162,16.14491],[75.64225,16.13278],[75.64337,16.12994],[75.6584,16.12919],[75.6622,16.12804],[75.67854,16.12659],[75.67903,16.12049],[75.67817,16.11465],[75.67879,16.11164],[75.68474,16.10951],[75.68775,16.10911],[75.68775,16.09916],[75.68617,16.09245],[75.68718,16.08676],[75.68239,16.08558],[75.67956,16.0835],[75.68013,16.08176],[75.67449,16.07798],[75.67072,16.07608],[75.66964,16.06864],[75.66949,16.06073],[75.668,16.04012],[75.67623,16.04002],[75.68139,16.03922],[75.67956,16.0362],[75.68031,16.03485],[75.67968,16.03333],[75.67855,16.03216],[75.67666,16.03135],[75.67712,16.0299],[75.67583,16.02841],[75.66967,16.02505],[75.66789,16.0249],[75.66716,16.02697],[75.66461,16.02647],[75.66447,16.02731],[75.66272,16.02733],[75.66252,16.02861],[75.6534,16.03017],[75.64399,16.02929],[75.6388,16.02939],[75.63732,16.02874],[75.63786,16.02496],[75.63312,16.02322],[75.63288,16.01924],[75.62554,16.01759],[75.62581,16.01523],[75.62542,16.01158],[75.62199,15.99034],[75.62422,15.98681],[75.62315,15.98254],[75.62441,15.97689],[75.62417,15.97485],[75.62244,15.97191],[75.61837,15.97321],[75.62001,15.9574],[75.62052,15.95589],[75.61294,15.94697],[75.61386,15.94307],[75.60276,15.94394],[75.58823,15.9473],[75.58248,15.94658],[75.5817,15.94305],[75.57061,15.93948],[75.5705,15.94311],[75.56421,15.94235],[75.55622,15.94231],[75.55621,15.94494],[75.55127,15.94569],[75.5462,15.94842],[75.53691,15.94688],[75.53415,15.93396],[75.53313,15.92439],[75.51271,15.92703],[75.51104,15.92414],[75.5063,15.92568],[75.50471,15.9271],[75.50101,15.92858],[75.49852,15.93098],[75.49532,15.9324],[75.49178,15.93555],[75.49174,15.93919],[75.48595,15.94006],[75.4815,15.94293],[75.48094,15.94491],[75.48118,15.94585],[75.47969,15.94816],[75.47912,15.95084],[75.47634,15.95133],[75.47411,15.9491],[75.47092,15.94758],[75.46887,15.95146],[75.46459,15.95278],[75.46,15.95627],[75.44482,15.96106],[75.43979,15.96612],[75.43082,15.97067],[75.43153,15.97407],[75.43348,15.97808],[75.4363,15.98894],[75.43707,15.9965],[75.43807,16.00077],[75.43777,16.00105],[75.43894,16.00413],[75.43356,16.00717],[75.42677,16.00771],[75.42545,16.019],[75.42311,16.03259],[75.4205,16.03226],[75.41602,16.03253],[75.41638,16.03529],[75.41629,16.05309],[75.41708,16.05364],[75.41866,16.05641],[75.4211,16.05714],[75.42128,16.05682],[75.42226,16.05765],[75.42744,16.05787],[75.42792,16.06788],[75.42912,16.0704],[75.42974,16.0774],[75.43048,16.08043],[75.42895,16.08583],[75.42759,16.09353],[75.42865,16.09526],[75.42928,16.09526],[75.42957,16.09686],[75.42242,16.09937],[75.41888,16.10006],[75.41197,16.13053],[75.41266,16.13168],[75.41286,16.13386],[75.41788,16.13491],[75.41929,16.13745],[75.42133,16.13913],[75.4221,16.14062],[75.42368,16.14075],[75.42365,16.14173],[75.42521,16.14528],[75.42758,16.14785],[75.42959,16.15139],[75.43089,16.15169],[75.43508,16.15614],[75.44523,16.15615]]],[[[75.44466,15.89443],[75.44228,15.89434],[75.44016,15.89345],[75.4369,15.89362],[75.43888,15.91202],[75.44224,15.92266],[75.44249,15.92662],[75.45494,15.91988],[75.44466,15.89443]]]]}},{"type":"Feature","properties":{"unitId":5,"unitName":"Bagalkot Rural PS"},"geometry":{"type":"MultiPolygon","coordinates":[[[[75.87888,16.34036],[75.88448,16.33255],[75.89289,16.3281],[75.89822,16.32465],[75.90494,16.32304],[75.91264,16.32187],[75.92407,16.31768],[75.92539,16.31537],[75.93408,16.31175],[75.94087,16.30808],[75.95184,16.29846],[75.95744,16.29677],[75.96586,16.29874],[75.97359,16.29993],[75.98461,16.30069],[75.99037,16.29929],[75.99506,16.30002],[75.99813,16.3012],[75.99963,16.30249],[76.00224,16.30362],[76.00737,16.30397],[76.00834,16.30247],[76.01242,16.30204],[76.01315,16.30352],[76.02512,16.30087],[76.02834,16.29866],[76.02964,16.29683],[76.03351,16.28747],[76.03564,16.28536],[76.03844,16.28379],[76.04272,16.28028],[76.0539,16.27365],[76.05565,16.27214],[76.04939,16.26588],[76.03471,16.25307],[76.01987,16.24255],[76.01866,16.24093],[76.0076,16.23976],[76.00302,16.23107],[75.99822,16.22023],[75.99625,16.21986],[75.99611,16.21588],[75.9585,16.22071],[75.95848,16.22015],[75.95146,16.22037],[75.94695,16.20337],[75.9442,16.19641],[75.94065,16.18074],[75.93954,16.17074],[75.93178,16.17204],[75.91948,16.1728],[75.91845,16.17118],[75.91818,16.16955],[75.91038,16.16971],[75.91004,16.16831],[75.90811,16.16719],[75.90475,16.16209],[75.90512,16.16095],[75.90498,16.15696],[75.88966,16.15688],[75.8858,16.15712],[75.88572,16.15933],[75.88397,16.16306],[75.88307,16.16729],[75.87974,16.16767],[75.87892,16.16961],[75.87473,16.17036],[75.87518,16.17294],[75.87384,16.17276],[75.87183,16.17377],[75.87049,16.16192],[75.86743,16.15347],[75.87235,16.15145],[75.87079,16.14915],[75.87071,16.14795],[75.86979,16.14732],[75.87034,16.1456],[75.87006,16.14373],[75.87078,16.14187],[75.87259,16.14154],[75.8734,16.13953],[75.87641,16.13732],[75.87773,16.13213],[75.87978,16.13129],[75.88183,16.1285],[75.88327,16.12781],[75.88298,16.1266],[75.88501,16.12369],[75.88839,16.11964],[75.89027,16.11885],[75.88933,16.11745],[75.88836,16.11433],[75.8882,16.11161],[75.8874,16.11079],[75.88367,16.11064],[75.87754,16.11234],[75.87643,16.11138],[75.87814,16.1175],[75.86816,16.12322],[75.86946,16.12929],[75.86928,16.13498],[75.87029,16.14176],[75.86761,16.14166],[75.86691,16.14286],[75.86618,16.1432],[75.86441,16.14246],[75.8637,16.14366],[75.86322,16.14584],[75.8645,16.15255],[75.85892,16.15306],[75.85915,16.15584],[75.84231,16.15702],[75.8377,16.13989],[75.8457,16.13584],[75.8412,16.12901],[75.84119,16.11972],[75.83844,16.1057],[75.83643,16.10045],[75.83033,16.09143],[75.82176,16.09329],[75.81065,16.0932],[75.79957,16.09206],[75.7935,16.09049],[75.78839,16.08803],[75.79385,16.08652],[75.7965,16.08499],[75.79676,16.08411],[75.79251,16.0813],[75.79127,16.0763],[75.78938,16.0758],[75.78984,16.07486],[75.7871,16.07468],[75.78094,16.0664],[75.77228,16.06505],[75.76731,16.06847],[75.76554,16.08089],[75.76444,16.08418],[75.75775,16.08551],[75.75501,16.08486],[75.74081,16.08479],[75.73883,16.08519],[75.73539,16.08476],[75.73469,16.08901],[75.73234,16.09558],[75.73179,16.11093],[75.71951,16.11215],[75.71182,16.11226],[75.70652,16.11101],[75.6945,16.10934],[75.68775,16.10903],[75.68474,16.10951],[75.67879,16.11164],[75.67853,16.11219],[75.67817,16.11465],[75.67903,16.12049],[75.67854,16.12659],[75.6622,16.12804],[75.6584,16.12919],[75.64337,16.12994],[75.64225,16.13278],[75.64162,16.14491],[75.6306,16.14456],[75.62043,16.14682],[75.60721,16.14812],[75.61143,16.169],[75.61457,16.1795],[75.61754,16.18321],[75.61866,16.18615],[75.6209,16.19686],[75.62044,16.19701],[75.62136,16.19684],[75.62301,16.19747],[75.62532,16.19724],[75.62792,16.19627],[75.63695,16.19483],[75.63506,16.182],[75.6357,16.17429],[75.63393,16.16458],[75.64586,16.16279],[75.64648,16.16865],[75.6597,16.16915],[75.66039,16.17195],[75.6658,16.17015],[75.66618,16.17075],[75.66664,16.16976],[75.66854,16.16982],[75.67249,16.16901],[75.67198,16.16431],[75.67509,16.15938],[75.67728,16.15748],[75.68064,16.15572],[75.68321,16.15517],[75.68545,16.15366],[75.69278,16.15257],[75.6945,16.15492],[75.69845,16.16748],[75.7097,16.16586],[75.71035,16.16702],[75.71176,16.16728],[75.71391,16.17108],[75.71402,16.17285],[75.71465,16.17405],[75.71761,16.1747],[75.71847,16.17583],[75.71806,16.17734],[75.71898,16.17804],[75.72086,16.1817],[75.72137,16.18517],[75.7218,16.18564],[75.72137,16.18799],[75.7235,16.19579],[75.72309,16.19698],[75.7213,16.19853],[75.71725,16.20043],[75.71807,16.20149],[75.72313,16.20504],[75.72812,16.21027],[75.7289,16.21286],[75.73293,16.22029],[75.73206,16.22102],[75.72655,16.22281],[75.71694,16.22382],[75.70787,16.22621],[75.69964,16.22768],[75.70044,16.23112],[75.70164,16.23373],[75.70536,16.23734],[75.70575,16.24024],[75.70823,16.24002],[75.70938,16.2413],[75.71102,16.24128],[75.7116,16.24207],[75.71373,16.24195],[75.71449,16.24278],[75.71881,16.24373],[75.72217,16.24648],[75.72168,16.24917],[75.72306,16.25199],[75.72093,16.25622],[75.72093,16.25781],[75.72178,16.26002],[75.72571,16.26147],[75.72834,16.26327],[75.73297,16.26539],[75.73344,16.26688],[75.7359,16.26918],[75.73732,16.27314],[75.73326,16.28587],[75.73294,16.28778],[75.73332,16.28925],[75.73538,16.29105],[75.73798,16.29199],[75.74187,16.29203],[75.74923,16.29363],[75.75054,16.29421],[75.75311,16.29683],[75.75368,16.29919],[75.75353,16.30057],[75.75227,16.30304],[75.75201,16.30572],[75.74945,16.30912],[75.74845,16.31177],[75.7484,16.31469],[75.74998,16.31741],[75.75703,16.31819],[75.76276,16.31689],[75.76454,16.31611],[75.7671,16.31312],[75.77249,16.30933],[75.78153,16.3069],[75.78441,16.30685],[75.78539,16.30801],[75.78726,16.31504],[75.78683,16.31659],[75.78453,16.31792],[75.77835,16.32464],[75.77736,16.3289],[75.7773,16.33142],[75.77846,16.33369],[75.77931,16.33427],[75.78393,16.33417],[75.78501,16.33296],[75.78841,16.33215],[75.79301,16.33007],[75.80642,16.33129],[75.80872,16.33239],[75.80981,16.33392],[75.81255,16.33546],[75.81313,16.33631],[75.81214,16.33656],[75.816,16.33757],[75.81997,16.33933],[75.82488,16.34485],[75.82927,16.34864],[75.83212,16.3497],[75.83738,16.35001],[75.84185,16.3485],[75.85289,16.3474],[75.86262,16.34703],[75.86986,16.34588],[75.87888,16.34036]]],[[[75.68197,16.2306],[75.68594,16.22801],[75.68656,16.22831],[75.6979,16.22365],[75.70132,16.22152],[75.70339,16.21889],[75.70838,16.2162],[75.70691,16.2102],[75.70385,16.21137],[75.6987,16.20072],[75.69095,16.20707],[75.68727,16.20766],[75.67927,16.20639],[75.67699,16.20694],[75.68062,16.22559],[75.68067,16.23051],[75.68197,16.2306]]],[[[75.65493,16.24663],[75.65374,16.24372],[75.65891,16.23965],[75.65848,16.23716],[75.65218,16.21487],[75.65071,16.21126],[75.64716,16.21166],[75.64693,16.21116],[75.64429,16.21273],[75.64328,16.21418],[75.64181,16.21872],[75.6395,16.22281],[75.63957,16.22572],[75.64816,16.24519],[75.64894,16.24474],[75.65119,16.24471],[75.65596,16.24898],[75.65493,16.24663]]]]}},{"type":"Feature","properties":{"unitId":6,"unitName":"Kaladagi PS"},"geometry":{"type":"MultiPolygon","coordinates":[[[[75.46775,16.23576],[75.46931,16.23578],[75.4796,16.24236],[75.48254,16.24305],[75.48316,16.24276],[75.48458,16.23955],[75.48583,16.23019],[75.48695,16.22909],[75.49084,16.22691],[75.49117,16.22888],[75.49352,16.22935],[75.49402,16.22827],[75.49368,16.22536],[75.49667,16.22437],[75.49675,16.22381],[75.49746,16.22378],[75.49818,16.22446],[75.50398,16.22238],[75.51394,16.22105],[75.51905,16.22567],[75.52033,16.22755],[75.52347,16.23783],[75.52619,16.24183],[75.52749,16.24234],[75.53189,16.24108],[75.5327,16.24129],[75.53485,16.24011],[75.53803,16.23982],[75.54076,16.23885],[75.54341,16.23448],[75.54262,16.23415],[75.54333,16.23344],[75.5433,16.23219],[75.54384,16.23115],[75.54566,16.22938],[75.54669,16.22906],[75.5486,16.23001],[75.54866,16.22965],[75.5514,16.23277],[75.55657,16.23603],[75.56093,16.23768],[75.56762,16.23916],[75.57328,16.2379],[75.57921,16.23744],[75.58334,16.23616],[75.5848,16.23552],[75.5888,16.23234],[75.59863,16.22916],[75.60675,16.22927],[75.6147,16.23183],[75.61792,16.23206],[75.61993,16.23026],[75.61871,16.22878],[75.61875,16.22778],[75.61715,16.2235],[75.61709,16.2222],[75.61748,16.22198],[75.61706,16.22171],[75.61772,16.22147],[75.61727,16.22036],[75.61682,16.22046],[75.61719,16.21954],[75.61661,16.21963],[75.61654,16.21927],[75.61746,16.21748],[75.61709,16.21753],[75.61677,16.21662],[75.61726,16.21539],[75.61691,16.21484],[75.61819,16.21443],[75.61992,16.21555],[75.62163,16.21464],[75.62269,16.21466],[75.62499,16.2149],[75.62857,16.21693],[75.63086,16.22028],[75.62732,16.22191],[75.62839,16.23249],[75.63147,16.24778],[75.64713,16.24579],[75.64816,16.24519],[75.63957,16.22572],[75.6395,16.22281],[75.64181,16.21872],[75.64328,16.21418],[75.64429,16.21273],[75.64693,16.21116],[75.64716,16.21166],[75.65071,16.21126],[75.65549,16.22595],[75.65891,16.23965],[75.66604,16.23569],[75.67066,16.23234],[75.68076,16.23076],[75.68062,16.22559],[75.67736,16.20766],[75.67699,16.20694],[75.675,16.2082],[75.67426,16.20568],[75.67434,16.20282],[75.67178,16.18902],[75.67125,16.1885],[75.67111,16.18502],[75.66921,16.1826],[75.66884,16.17883],[75.66731,16.17609],[75.66703,16.17229],[75.6658,16.17015],[75.66033,16.17196],[75.6597,16.16915],[75.64648,16.16865],[75.64586,16.16279],[75.63393,16.16458],[75.6357,16.17429],[75.63506,16.182],[75.63695,16.19483],[75.62792,16.19627],[75.62532,16.19724],[75.62301,16.19747],[75.62136,16.19684],[75.62033,16.19698],[75.6209,16.19686],[75.61866,16.18615],[75.61754,16.18321],[75.61457,16.1795],[75.61284,16.17417],[75.60694,16.14794],[75.60552,16.14816],[75.59538,16.15242],[75.59298,16.1446],[75.58313,16.15157],[75.57249,16.15103],[75.56902,16.14647],[75.56579,16.1465],[75.56229,16.14517],[75.56016,16.14375],[75.5559,16.13597],[75.55545,16.13337],[75.55315,16.1334],[75.54478,16.13514],[75.54248,16.13651],[75.53757,16.13704],[75.52632,16.13723],[75.52203,16.13624],[75.51162,16.13533],[75.51045,16.13579],[75.50939,16.1353],[75.50794,16.13719],[75.50821,16.13945],[75.50583,16.14128],[75.50433,16.14142],[75.50223,16.14492],[75.50002,16.14515],[75.48285,16.15125],[75.44835,16.15613],[75.43508,16.15614],[75.43494,16.15915],[75.43791,16.16018],[75.43844,16.16239],[75.44044,16.16561],[75.44108,16.16805],[75.44283,16.16898],[75.44296,16.16977],[75.44384,16.17055],[75.44532,16.17097],[75.44598,16.17381],[75.44599,16.17646],[75.44484,16.18131],[75.4454,16.18258],[75.44797,16.18341],[75.4479,16.19444],[75.44652,16.20502],[75.44621,16.21818],[75.44381,16.23018],[75.44339,16.23506],[75.44386,16.24895],[75.44794,16.24781],[75.45208,16.24588],[75.45345,16.24467],[75.45492,16.24159],[75.45821,16.23858],[75.46775,16.23576]]],[[[75.72627,16.20816],[75.72313,16.20504],[75.7201,16.20587],[75.71757,16.20589],[75.71635,16.20426],[75.7166,16.20092],[75.71579,16.1989],[75.71382,16.19682],[75.70833,16.19548],[75.7037,16.19722],[75.70838,16.2162],[75.70339,16.21889],[75.70132,16.22152],[75.69838,16.22338],[75.69975,16.22692],[75.69964,16.22768],[75.70787,16.22621],[75.71694,16.22382],[75.72655,16.22281],[75.73206,16.22102],[75.73293,16.22029],[75.7289,16.21286],[75.72812,16.21027],[75.72627,16.20816]]]]}},{"type":"Feature","properties":{"unitId":7,"unitName":"Amengad PS"},"geometry":{"type":"Polygon","coordinates":[[[75.87184,16.17377],[75.87384,16.17276],[75.87518,16.17294],[75.87473,16.17036],[75.87892,16.16961],[75.87974,16.16767],[75.88307,16.16729],[75.88397,16.16306],[75.88572,16.15933],[75.8858,16.15712],[75.88966,16.15688],[75.90498,16.15696],[75.90512,16.16095],[75.90475,16.16209],[75.90811,16.16719],[75.91004,16.16831],[75.91038,16.16971],[75.91818,16.16955],[75.91845,16.17118],[75.91948,16.1728],[75.93178,16.17204],[75.94207,16.1703],[75.9433,16.15556],[75.94342,16.14533],[75.94473,16.13976],[75.94662,16.1253],[75.94718,16.11351],[75.94805,16.1123],[75.94873,16.11305],[75.95176,16.11376],[75.95679,16.11351],[75.95602,16.11314],[75.95583,16.1124],[75.95456,16.10384],[75.9538,16.09288],[75.95468,16.08744],[75.96362,16.08874],[75.97772,16.08863],[75.98149,16.08786],[75.98825,16.08499],[75.99953,16.08199],[75.99609,16.06431],[75.99574,16.05988],[75.99339,16.06068],[75.98929,16.05426],[75.98826,16.05027],[75.98018,16.04939],[75.98045,16.04811],[75.97643,16.04764],[75.97455,16.04947],[75.97399,16.04952],[75.97276,16.05228],[75.97101,16.05264],[75.97021,16.05374],[75.97057,16.05406],[75.96888,16.05424],[75.96875,16.05677],[75.96349,16.05689],[75.95683,16.05563],[75.95407,16.05589],[75.95418,16.05255],[75.9526,16.05129],[75.95133,16.04924],[75.96211,16.04557],[75.96875,16.04378],[75.97201,16.0436],[75.97264,16.02932],[75.9741,16.02245],[75.97385,16.01665],[75.97228,16.01636],[75.9726,16.00273],[75.97352,15.99538],[75.97338,15.99274],[75.98188,15.9918],[75.97581,15.98938],[75.97538,15.98794],[75.97364,15.98606],[75.97572,15.96046],[75.97542,15.95749],[75.97423,15.95425],[75.97378,15.95427],[75.97423,15.95247],[75.97736,15.95208],[75.97663,15.95018],[75.97695,15.94961],[75.97613,15.9458],[75.97677,15.93129],[75.97628,15.92854],[75.97349,15.92254],[75.97538,15.91281],[75.97569,15.89969],[75.97448,15.89793],[75.97577,15.89732],[75.97732,15.895],[75.97789,15.8917],[75.97935,15.88307],[75.9791,15.87086],[75.97783,15.86784],[75.97618,15.8663],[75.97497,15.86411],[75.9746,15.86183],[75.96546,15.85877],[75.96267,15.8655],[75.95638,15.86536],[75.95175,15.86594],[75.94449,15.86606],[75.94166,15.87395],[75.92836,15.87511],[75.92937,15.88104],[75.92786,15.88705],[75.92634,15.88615],[75.9269,15.88966],[75.92719,15.89774],[75.92256,15.90372],[75.91426,15.91304],[75.90222,15.9229],[75.90315,15.91884],[75.89797,15.9177],[75.89718,15.91681],[75.89198,15.9169],[75.88815,15.91918],[75.88335,15.92391],[75.87901,15.93125],[75.87526,15.93119],[75.87306,15.93179],[75.8667,15.93154],[75.85473,15.93569],[75.85369,15.93807],[75.8509,15.94025],[75.85054,15.9419],[75.85152,15.94466],[75.85376,15.94643],[75.85353,15.94754],[75.85436,15.94845],[75.85372,15.94983],[75.85247,15.95053],[75.85265,15.95254],[75.85378,15.95324],[75.85679,15.95359],[75.85858,15.95506],[75.8583,15.95652],[75.85649,15.95728],[75.85581,15.9588],[75.85629,15.9604],[75.85976,15.96237],[75.86041,15.96389],[75.85868,15.96798],[75.85767,15.96876],[75.85621,15.97107],[75.85656,15.9735],[75.85475,15.97517],[75.85422,15.9763],[75.85585,15.97723],[75.85641,15.9785],[75.85532,15.97924],[75.85181,15.9783],[75.85116,15.97849],[75.85041,15.981],[75.84875,15.98132],[75.84906,15.98484],[75.85127,15.9867],[75.86838,15.9885],[75.87347,15.99178],[75.87416,15.99275],[75.87329,15.996],[75.87388,15.99931],[75.8747,16.00105],[75.87709,16.00256],[75.87875,16.00544],[75.87833,16.00691],[75.87679,16.00831],[75.87931,16.01336],[75.87392,16.01534],[75.86981,16.01837],[75.86528,16.02039],[75.86252,16.02121],[75.85447,16.02162],[75.85158,16.02236],[75.8431,16.03046],[75.84255,16.03243],[75.84861,16.03419],[75.85148,16.03613],[75.85316,16.03839],[75.84879,16.04186],[75.84787,16.04393],[75.84823,16.04467],[75.84935,16.04511],[75.85281,16.04541],[75.85635,16.04954],[75.85679,16.05255],[75.85539,16.05492],[75.85384,16.05952],[75.85167,16.06395],[75.85271,16.06466],[75.85455,16.07003],[75.85816,16.07363],[75.85837,16.07525],[75.85977,16.07721],[75.84677,16.08905],[75.8394,16.09231],[75.83318,16.09092],[75.83033,16.09143],[75.83643,16.10045],[75.83844,16.1057],[75.84119,16.11972],[75.8412,16.12901],[75.8457,16.13584],[75.8377,16.13989],[75.84231,16.15702],[75.85915,16.15584],[75.85892,16.15306],[75.8645,16.15255],[75.86322,16.14584],[75.8637,16.14366],[75.86441,16.14246],[75.86618,16.1432],[75.86691,16.14286],[75.86761,16.14166],[75.87029,16.14176],[75.86928,16.13498],[75.86946,16.12929],[75.86816,16.12322],[75.87814,16.1175],[75.87643,16.11138],[75.87754,16.11234],[75.88553,16.11044],[75.8874,16.11079],[75.8882,16.11161],[75.88836,16.11433],[75.88933,16.11745],[75.89027,16.11885],[75.88839,16.11964],[75.88501,16.12369],[75.88298,16.1266],[75.88327,16.12781],[75.88183,16.1285],[75.87978,16.13129],[75.87773,16.13213],[75.87641,16.13732],[75.8734,16.13953],[75.87259,16.14154],[75.87078,16.14187],[75.87006,16.14373],[75.87034,16.1456],[75.86979,16.14732],[75.87071,16.14795],[75.87079,16.14915],[75.87235,16.15145],[75.86743,16.15347],[75.87049,16.16192],[75.87184,16.17377]],[[75.97127,16.07104],[75.94892,16.06995],[75.94669,16.0665],[75.94955,16.06347],[75.95413,16.06455],[75.9594,16.06303],[75.96322,16.06264],[75.96617,16.06343],[75.9697,16.06547],[75.97316,16.06604],[75.97303,16.06722],[75.98392,16.06916],[75.98347,16.07149],[75.9816,16.07298],[75.97642,16.07162],[75.97127,16.07104]]]}},{"type":"Feature","properties":{"unitId":8,"unitName":"Hungunda PS"},"geometry":{"type":"MultiPolygon","coordinates":[[[[76.06631,16.24131],[76.06152,16.236],[76.06097,16.23435],[76.05977,16.22645],[76.06023,16.22172],[76.06243,16.21572],[76.07106,16.20906],[76.07507,16.20765],[76.08104,16.20644],[76.09494,16.19979],[76.09863,16.19652],[76.10348,16.19104],[76.10659,16.18946],[76.11117,16.18901],[76.11496,16.1892],[76.12584,16.18793],[76.13098,16.18383],[76.13679,16.18081],[76.14224,16.18036],[76.15133,16.18424],[76.15605,16.18481],[76.17036,16.18369],[76.1754,16.18296],[76.20161,16.17675],[76.21895,16.17189],[76.21399,16.15927],[76.21224,16.15334],[76.2119,16.15011],[76.20805,16.15058],[76.2044,16.14986],[76.19967,16.15182],[76.19553,16.15288],[76.19433,16.15255],[76.19362,16.15148],[76.19211,16.1491],[76.19046,16.14498],[76.17896,16.14766],[76.1782,16.14575],[76.16828,16.1448],[76.16207,16.14512],[76.16097,16.14126],[76.15704,16.13296],[76.15628,16.12979],[76.14655,16.12938],[76.14732,16.11987],[76.1497,16.1119],[76.15087,16.11071],[76.15164,16.11062],[76.15119,16.10913],[76.15349,16.10795],[76.1562,16.10378],[76.1594,16.09394],[76.15834,16.09405],[76.1566,16.0864],[76.14772,16.08759],[76.1447,16.08754],[76.14303,16.08701],[76.14214,16.08487],[76.14171,16.08218],[76.14021,16.07952],[76.1382,16.07119],[76.13749,16.07123],[76.1363,16.06703],[76.13551,16.06646],[76.13177,16.06026],[76.13125,16.05807],[76.13031,16.05702],[76.12892,16.05285],[76.12936,16.05165],[76.12691,16.0463],[76.12499,16.04598],[76.12409,16.04384],[76.12108,16.04254],[76.11895,16.04335],[76.11724,16.03804],[76.1131,16.03658],[76.10599,16.03492],[76.10096,16.03617],[76.09889,16.03746],[76.0981,16.03285],[76.09831,16.028],[76.09591,16.01695],[76.09554,16.01087],[76.09198,16.01094],[76.09184,16.00962],[76.09129,16.00945],[76.07838,16.0098],[76.0749,16.00938],[76.05642,16.01147],[76.05655,16.00572],[76.05217,16.00609],[76.05148,16.00351],[76.04065,16.00494],[76.0262,16.00755],[76.02324,16.00852],[76.02114,16.00739],[76.02002,16.00753],[76.01657,16.00194],[76.01469,16.00158],[76.01336,16.00228],[76.01305,16.00153],[76.01258,16.00175],[76.01126,16.00114],[76.01071,16.0015],[76.01114,16.00211],[76.00811,16.00276],[75.9895,16.00481],[75.98928,15.99866],[75.9871,15.99691],[75.9867,15.99479],[75.98443,15.99393],[75.9817,15.99176],[75.97338,15.99274],[75.97352,15.99538],[75.9726,16.00273],[75.97228,16.01636],[75.97385,16.01665],[75.9741,16.02245],[75.97264,16.02932],[75.97201,16.0436],[75.96875,16.04378],[75.96211,16.04557],[75.95133,16.04924],[75.9526,16.05129],[75.95418,16.05255],[75.95407,16.05589],[75.95683,16.05563],[75.96349,16.05689],[75.96875,16.05677],[75.96888,16.05424],[75.97057,16.05406],[75.97021,16.05374],[75.97101,16.05264],[75.97276,16.05228],[75.97399,16.04952],[75.97455,16.04947],[75.97643,16.04764],[75.98045,16.04811],[75.98018,16.04939],[75.98826,16.05027],[75.98929,16.05426],[75.99339,16.06068],[75.99574,16.05988],[75.99609,16.06431],[75.99953,16.08199],[75.98825,16.08499],[75.98149,16.08786],[75.97772,16.08863],[75.96362,16.08874],[75.95468,16.08744],[75.9538,16.09288],[75.95456,16.10384],[75.95583,16.1124],[75.95602,16.11314],[75.95679,16.11351],[75.95176,16.11376],[75.94873,16.11305],[75.94805,16.1123],[75.94718,16.11351],[75.94662,16.1253],[75.94473,16.13976],[75.94342,16.14533],[75.9433,16.15556],[75.94208,16.1702],[75.93954,16.17082],[75.94065,16.18074],[75.9442,16.19641],[75.94695,16.20337],[75.95146,16.22037],[75.95848,16.22015],[75.9585,16.22071],[75.99611,16.21588],[75.99625,16.21986],[75.99822,16.22023],[76.00302,16.23107],[76.0076,16.23976],[76.01866,16.24093],[76.01987,16.24255],[76.03471,16.25307],[76.04939,16.26588],[76.05565,16.27214],[76.06441,16.26316],[76.06563,16.2611],[76.06728,16.25986],[76.06977,16.25586],[76.07006,16.25221],[76.06866,16.24468],[76.06631,16.24131]]],[[[75.98352,16.07127],[75.98392,16.06916],[75.97303,16.06722],[75.97316,16.06604],[75.9697,16.06547],[75.96617,16.06343],[75.96322,16.06264],[75.9594,16.06303],[75.95413,16.06455],[75.94955,16.06347],[75.94669,16.0665],[75.94892,16.06995],[75.94984,16.0701],[75.97193,16.07107],[75.97642,16.07162],[75.9816,16.07298],[75.98352,16.07127]]]]}},{"type":"Feature","properties":{"unitId":9,"unitName":"Ilakal Town PS"},"geometry":{"type":"Polygon","coordinates":[[[76.22132,16.17127],[76.23951,16.16478],[76.2385,16.1636],[76.23642,16.15323],[76.2363,16.14669],[76.23503,16.13956],[76.23423,16.13042],[76.24642,16.12804],[76.24688,16.12685],[76.24642,16.1267],[76.24753,16.12625],[76.24601,16.1244],[76.24582,16.12306],[76.24513,16.12215],[76.24552,16.11949],[76.24507,16.1183],[76.24514,16.11599],[76.24465,16.11524],[76.24471,16.11319],[76.24529,16.11375],[76.24511,16.11314],[76.24822,16.1114],[76.25435,16.10945],[76.25342,16.10699],[76.25334,16.10409],[76.25432,16.09932],[76.25611,16.0992],[76.25599,16.0973],[76.26218,16.09717],[76.26215,16.099],[76.26333,16.10095],[76.26395,16.10317],[76.2677,16.10966],[76.27661,16.10695],[76.28441,16.10633],[76.29066,16.10434],[76.30419,16.10163],[76.30745,16.10054],[76.31213,16.09755],[76.31694,16.09571],[76.32049,16.09355],[76.32599,16.09212],[76.33273,16.09116],[76.33014,16.08247],[76.32753,16.07732],[76.3062,16.08379],[76.3022,16.08432],[76.29868,16.0842],[76.29802,16.0856],[76.29656,16.08704],[76.29383,16.08896],[76.28434,16.08896],[76.25914,16.09126],[76.26053,16.07398],[76.26807,16.07403],[76.27371,16.07499],[76.28378,16.07514],[76.30396,16.07357],[76.30391,16.07002],[76.30324,16.0674],[76.30585,16.06678],[76.30712,16.06595],[76.30451,16.05422],[76.3033,16.03917],[76.30416,16.03704],[76.30448,16.03173],[76.30568,16.02539],[76.31117,16.01384],[76.31116,16.00972],[76.3108,16.00891],[76.31096,16.00674],[76.31135,16.00673],[76.3116,16.00424],[76.31202,16.00418],[76.3118,16.00039],[76.30815,16.0003],[76.30654,15.99975],[76.30309,15.99993],[76.29806,15.99918],[76.29645,15.99652],[76.29652,15.99254],[76.29819,15.98924],[76.29988,15.97664],[76.30415,15.96894],[76.30508,15.96584],[76.30917,15.95699],[76.31624,15.95694],[76.32246,15.95598],[76.32759,15.93901],[76.32832,15.93484],[76.32893,15.93472],[76.32855,15.93232],[76.32018,15.93129],[76.313,15.92907],[76.31343,15.92493],[76.31259,15.92197],[76.31216,15.92196],[76.3122,15.92252],[76.30265,15.92387],[76.30194,15.93049],[76.28549,15.93037],[76.28437,15.91759],[76.28536,15.90248],[76.2797,15.90284],[76.27595,15.90362],[76.27741,15.90934],[76.27404,15.91042],[76.27176,15.90458],[76.26185,15.90669],[76.26092,15.91478],[76.25685,15.91527],[76.25679,15.92287],[76.2523,15.92353],[76.24086,15.92295],[76.23012,15.92333],[76.22661,15.93873],[76.22649,15.9409],[76.20869,15.9422],[76.20049,15.94393],[76.2006,15.94472],[76.20006,15.94462],[76.19997,15.94089],[76.20094,15.93847],[76.2003,15.93787],[76.20035,15.93668],[76.19976,15.93567],[76.19656,15.93462],[76.19471,15.93237],[76.18077,15.93121],[76.17186,15.93171],[76.1719,15.92499],[76.16493,15.92179],[76.15998,15.9213],[76.15834,15.91799],[76.1568,15.91637],[76.15395,15.91508],[76.15217,15.90979],[76.1493,15.90517],[76.14563,15.8974],[76.1453,15.89528],[76.14016,15.89453],[76.13437,15.89554],[76.12541,15.89416],[76.12308,15.89025],[76.12046,15.88875],[76.11743,15.88601],[76.10604,15.89346],[76.10337,15.89388],[76.10341,15.8956],[76.10166,15.90035],[76.09503,15.90155],[76.09258,15.90131],[76.08671,15.90179],[76.08638,15.90104],[76.08368,15.90102],[76.07372,15.90195],[76.07095,15.90234],[76.06451,15.90487],[76.05839,15.90593],[76.05917,15.90874],[76.06364,15.9158],[76.06269,15.92159],[76.0647,15.92502],[76.07104,15.94817],[76.07118,15.95151],[76.07059,15.95286],[76.07056,15.95536],[76.07151,15.95571],[76.0721,15.95658],[76.07259,15.95846],[76.07245,15.96321],[76.07307,15.96566],[76.07444,15.96984],[76.07839,15.97571],[76.08102,15.98605],[76.08478,15.99612],[76.08442,15.99988],[76.08203,16.00623],[76.07995,16.00975],[76.09129,16.00945],[76.09184,16.00962],[76.09198,16.01094],[76.09554,16.01087],[76.09591,16.01695],[76.09831,16.028],[76.0981,16.03285],[76.09889,16.03746],[76.10096,16.03617],[76.10599,16.03492],[76.1131,16.03658],[76.11724,16.03804],[76.11895,16.04335],[76.12108,16.04254],[76.12409,16.04384],[76.12499,16.04598],[76.12691,16.0463],[76.12936,16.05165],[76.12892,16.05285],[76.13031,16.05702],[76.13125,16.05807],[76.13177,16.06026],[76.13551,16.06646],[76.1363,16.06703],[76.13749,16.07123],[76.1382,16.07119],[76.14021,16.07952],[76.14171,16.08218],[76.14214,16.08487],[76.14303,16.08701],[76.1447,16.08754],[76.14772,16.08759],[76.1566,16.0864],[76.15834,16.09405],[76.1594,16.09394],[76.1562,16.10378],[76.15349,16.10795],[76.15119,16.10913],[76.15164,16.11062],[76.15087,16.11071],[76.1497,16.1119],[76.14732,16.11987],[76.14655,16.12938],[76.15628,16.12979],[76.15704,16.13296],[76.16097,16.14126],[76.16207,16.14512],[76.16828,16.1448],[76.1782,16.14575],[76.17896,16.14766],[76.19046,16.14498],[76.19211,16.1491],[76.19362,16.15148],[76.19433,16.15255],[76.19553,16.15288],[76.19967,16.15182],[76.2044,16.14986],[76.20805,16.15058],[76.2119,16.15011],[76.21224,16.15334],[76.21399,16.15927],[76.21824,16.17057],[76.2187,16.17052],[76.21895,16.17189],[76.22132,16.17127]]]}},{"type":"Feature","properties":{"unitId":10,"unitName":"Banahatti PS"},"geometry":{"type":"Polygon","coordinates":[[[75.1577,16.50783],[75.1651,16.5073],[75.17386,16.50764],[75.17416,16.5057],[75.18893,16.50505],[75.20083,16.50363],[75.20512,16.50387],[75.2068,16.49326],[75.21034,16.47943],[75.21037,16.47257],[75.2125,16.45929],[75.21279,16.45086],[75.21184,16.43688],[75.21293,16.43027],[75.20717,16.42898],[75.19245,16.42282],[75.18141,16.42026],[75.17822,16.42053],[75.17224,16.42302],[75.1697,16.42328],[75.16727,16.42284],[75.16305,16.42422],[75.15676,16.42134],[75.15217,16.42067],[75.15102,16.41812],[75.14957,16.41843],[75.12446,16.41388],[75.12117,16.40946],[75.11415,16.40836],[75.10699,16.40813],[75.09829,16.40705],[75.08695,16.40896],[75.08359,16.4097],[75.08358,16.4102],[75.07355,16.41104],[75.07388,16.41852],[75.07523,16.42914],[75.07739,16.43762],[75.0605,16.43671],[75.06145,16.44711],[75.05972,16.45579],[75.06616,16.45659],[75.06655,16.45921],[75.07996,16.4592],[75.08577,16.46113],[75.08737,16.46125],[75.09234,16.4528],[75.09276,16.45288],[75.09649,16.45821],[75.09763,16.45882],[75.09821,16.46103],[75.10089,16.4648],[75.10458,16.46762],[75.10587,16.47049],[75.10791,16.47206],[75.10985,16.47272],[75.11141,16.47256],[75.11231,16.47427],[75.11456,16.47624],[75.11482,16.47799],[75.11452,16.47886],[75.11307,16.47981],[75.11233,16.48294],[75.1132,16.48505],[75.1119,16.48742],[75.11399,16.48863],[75.11427,16.48985],[75.11364,16.49164],[75.11464,16.49315],[75.12415,16.4913],[75.12557,16.49215],[75.13258,16.49231],[75.13465,16.48983],[75.13809,16.48761],[75.14211,16.48708],[75.14618,16.48695],[75.15083,16.48799],[75.1552,16.48827],[75.15651,16.49035],[75.15611,16.49579],[75.15829,16.49708],[75.15898,16.4999],[75.15312,16.50037],[75.15171,16.50416],[75.15073,16.50407],[75.15017,16.50456],[75.15021,16.50656],[75.15236,16.5078],[75.1577,16.50783]]]}},{"type":"Feature","properties":{"unitId":11,"unitName":"Teradal PS"},"geometry":{"type":"Polygon","coordinates":[[[75.08896,16.53939],[75.09052,16.5364],[75.09269,16.53361],[75.09823,16.52881],[75.0993,16.52723],[75.10127,16.52131],[75.10271,16.514],[75.10438,16.51085],[75.10691,16.50824],[75.11225,16.50559],[75.11546,16.50515],[75.12011,16.50662],[75.1246,16.50996],[75.12779,16.51395],[75.12964,16.51782],[75.13223,16.52143],[75.13431,16.5225],[75.13507,16.52194],[75.13492,16.52124],[75.1334,16.51917],[75.13422,16.51837],[75.13663,16.51831],[75.13646,16.51658],[75.13727,16.51588],[75.13883,16.51618],[75.13963,16.51332],[75.14132,16.51484],[75.14271,16.51496],[75.14411,16.51617],[75.14656,16.51618],[75.14694,16.50764],[75.14767,16.50752],[75.14804,16.50622],[75.14874,16.5066],[75.15018,16.50594],[75.15017,16.50456],[75.15073,16.50407],[75.15171,16.50416],[75.15312,16.50037],[75.15898,16.4999],[75.15829,16.49708],[75.15611,16.49579],[75.15651,16.49035],[75.1552,16.48827],[75.15083,16.48799],[75.14618,16.48695],[75.14211,16.48708],[75.13809,16.48761],[75.13465,16.48983],[75.13258,16.49231],[75.12557,16.49215],[75.12415,16.4913],[75.11464,16.49315],[75.11364,16.49164],[75.11427,16.48985],[75.11399,16.48863],[75.1119,16.48742],[75.1132,16.48505],[75.11233,16.48294],[75.11307,16.47981],[75.11452,16.47886],[75.11482,16.47799],[75.11456,16.47624],[75.11231,16.47427],[75.11141,16.47256],[75.10985,16.47272],[75.10791,16.47206],[75.10587,16.47049],[75.10458,16.46762],[75.10089,16.4648],[75.09821,16.46103],[75.09763,16.45882],[75.09649,16.45821],[75.09276,16.45288],[75.09234,16.4528],[75.08737,16.46125],[75.08577,16.46113],[75.07996,16.4592],[75.06655,16.45921],[75.06616,16.45659],[75.05972,16.45579],[75.06145,16.44711],[75.0605,16.43671],[75.05056,16.43509],[75.03484,16.43459],[75.0285,16.43301],[75.0232,16.43528],[75.02313,16.43987],[75.01752,16.43939],[75.01559,16.4483],[75.01537,16.45084],[75.01569,16.45099],[75.01489,16.45236],[75.01598,16.45637],[75.01585,16.4586],[75.00228,16.45798],[75.00004,16.45645],[74.99903,16.45461],[74.98848,16.45334],[74.98932,16.45714],[74.9915,16.459],[74.9909,16.46255],[74.98628,16.46286],[74.98597,16.46625],[74.98633,16.4704],[74.9879,16.47087],[74.98846,16.47282],[74.98897,16.4782],[74.98831,16.48327],[74.98807,16.49173],[74.98845,16.49189],[74.98864,16.49448],[74.98806,16.49524],[74.98826,16.50038],[74.99136,16.50956],[74.99325,16.51178],[74.99512,16.51658],[74.99645,16.51713],[74.99765,16.51699],[74.998,16.51744],[74.99813,16.5217],[74.99847,16.52268],[74.99949,16.52303],[74.99953,16.52522],[75.00077,16.53017],[75.00129,16.53006],[75.00157,16.53086],[75.00387,16.53133],[75.00419,16.53393],[75.00642,16.53376],[75.00731,16.5382],[75.01725,16.53864],[75.02948,16.53823],[75.03693,16.53921],[75.04741,16.53957],[75.06445,16.53966],[75.06731,16.53906],[75.06708,16.54369],[75.06757,16.55036],[75.06952,16.56128],[75.07167,16.56674],[75.07885,16.5632],[75.08177,16.56065],[75.08626,16.55422],[75.08753,16.54952],[75.08896,16.53939]],[[75.039,16.45083],[75.03742,16.43922],[75.04123,16.43887],[75.04184,16.45409],[75.03903,16.453],[75.039,16.45083]]]}},{"type":"Feature","properties":{"unitId":12,"unitName":"Bilagi PS"},"geometry":{"type":"Polygon","coordinates":[[[75.45508,16.50522],[75.45607,16.50321],[75.45743,16.50351],[75.4583,16.50064],[75.4606,16.48622],[75.46221,16.48237],[75.46395,16.48059],[75.46515,16.47819],[75.46557,16.47545],[75.46525,16.47258],[75.46415,16.47014],[75.46324,16.47008],[75.45318,16.45794],[75.44331,16.44745],[75.44219,16.44856],[75.43392,16.44071],[75.43314,16.43941],[75.43256,16.43547],[75.43414,16.42873],[75.43613,16.42627],[75.44575,16.41684],[75.44996,16.41407],[75.45206,16.41355],[75.45802,16.41366],[75.46103,16.41513],[75.46232,16.41789],[75.47008,16.41805],[75.47589,16.41625],[75.48094,16.41611],[75.48383,16.41655],[75.48775,16.41833],[75.49129,16.42047],[75.49448,16.42318],[75.49882,16.43192],[75.49891,16.43477],[75.49659,16.44393],[75.49648,16.44693],[75.49712,16.45049],[75.49944,16.45409],[75.51368,16.45913],[75.5265,16.46495],[75.53319,16.46639],[75.53884,16.46615],[75.54467,16.46395],[75.54779,16.46143],[75.55191,16.4554],[75.55386,16.44937],[75.55382,16.44795],[75.55254,16.44556],[75.5524,16.44375],[75.55457,16.43172],[75.55398,16.43115],[75.55525,16.42661],[75.55549,16.42616],[75.55673,16.42677],[75.56085,16.41819],[75.5635,16.41436],[75.56632,16.41282],[75.57319,16.41183],[75.57553,16.41314],[75.57684,16.41519],[75.57888,16.42329],[75.58503,16.43419],[75.58902,16.43811],[75.60135,16.44759],[75.60434,16.44782],[75.61629,16.44695],[75.61571,16.44814],[75.62338,16.448],[75.63278,16.44647],[75.64345,16.44219],[75.64273,16.4404],[75.66642,16.42696],[75.67116,16.42357],[75.67171,16.42503],[75.67204,16.4247],[75.67269,16.42505],[75.6741,16.42494],[75.67376,16.42439],[75.67411,16.42419],[75.67696,16.42366],[75.68074,16.41971],[75.67894,16.41737],[75.68474,16.41433],[75.68999,16.41072],[75.70188,16.4071],[75.70603,16.40532],[75.70791,16.40296],[75.70855,16.40021],[75.71379,16.39429],[75.71891,16.38964],[75.76284,16.38347],[75.76896,16.38222],[75.78427,16.37691],[75.79579,16.37172],[75.80203,16.37058],[75.81002,16.37022],[75.81265,16.36963],[75.81306,16.37043],[75.82756,16.36142],[75.83028,16.35901],[75.83555,16.35158],[75.83738,16.35001],[75.83212,16.3497],[75.82927,16.34864],[75.82488,16.34485],[75.81997,16.33933],[75.816,16.33757],[75.81214,16.33656],[75.81313,16.33631],[75.81255,16.33546],[75.80981,16.33392],[75.80872,16.33239],[75.80642,16.33129],[75.79301,16.33007],[75.78841,16.33215],[75.78501,16.33296],[75.78393,16.33417],[75.77931,16.33427],[75.77846,16.33369],[75.7773,16.33142],[75.77736,16.3289],[75.77835,16.32464],[75.78453,16.31792],[75.78683,16.31659],[75.78726,16.31504],[75.78539,16.30801],[75.78441,16.30685],[75.78153,16.3069],[75.77249,16.30933],[75.7671,16.31312],[75.76454,16.31611],[75.76276,16.31689],[75.75703,16.31819],[75.74998,16.31741],[75.7484,16.31469],[75.74845,16.31177],[75.74945,16.30912],[75.75201,16.30572],[75.75227,16.30304],[75.75353,16.30057],[75.75368,16.29919],[75.75311,16.29683],[75.75054,16.29421],[75.74923,16.29363],[75.74187,16.29203],[75.73798,16.29199],[75.73538,16.29105],[75.73332,16.28925],[75.73294,16.28778],[75.73326,16.28587],[75.73732,16.27314],[75.7359,16.26918],[75.73344,16.26688],[75.73297,16.26539],[75.72834,16.26327],[75.72571,16.26147],[75.72178,16.26002],[75.72093,16.25781],[75.72093,16.25622],[75.72306,16.25199],[75.72168,16.24917],[75.72217,16.24648],[75.71881,16.24373],[75.71449,16.24278],[75.71373,16.24195],[75.7116,16.24207],[75.71102,16.24128],[75.70938,16.2413],[75.70823,16.24002],[75.70575,16.24024],[75.70536,16.23734],[75.70164,16.23373],[75.70044,16.23112],[75.69975,16.22692],[75.69838,16.22338],[75.69227,16.22622],[75.68656,16.22831],[75.68594,16.22801],[75.68197,16.2306],[75.6719,16.2319],[75.66782,16.23405],[75.66604,16.23569],[75.65891,16.23965],[75.65374,16.24372],[75.65596,16.24898],[75.65098,16.24469],[75.64894,16.24474],[75.64713,16.24579],[75.63147,16.24778],[75.62839,16.23249],[75.62732,16.22191],[75.63086,16.22028],[75.63043,16.21914],[75.62857,16.21693],[75.62499,16.2149],[75.62163,16.21464],[75.61992,16.21555],[75.61759,16.21435],[75.61691,16.21484],[75.61726,16.21539],[75.61677,16.21662],[75.61709,16.21753],[75.61746,16.21748],[75.61654,16.21927],[75.61661,16.21963],[75.61719,16.21954],[75.61682,16.22046],[75.61727,16.22036],[75.61772,16.22147],[75.61706,16.22171],[75.61748,16.22198],[75.61709,16.2222],[75.61715,16.2235],[75.61875,16.22778],[75.61871,16.22878],[75.61993,16.23026],[75.61792,16.23206],[75.6147,16.23183],[75.60675,16.22927],[75.59863,16.22916],[75.5888,16.23234],[75.5848,16.23552],[75.58334,16.23616],[75.57921,16.23744],[75.57328,16.2379],[75.56762,16.23916],[75.56093,16.23768],[75.55657,16.23603],[75.5514,16.23277],[75.54866,16.22965],[75.5486,16.23001],[75.54669,16.22906],[75.54566,16.22938],[75.54384,16.23115],[75.5433,16.23219],[75.54333,16.23344],[75.54262,16.23415],[75.54341,16.23448],[75.54076,16.23885],[75.53803,16.23982],[75.53485,16.24011],[75.5327,16.24129],[75.53189,16.24108],[75.52749,16.24234],[75.52619,16.24183],[75.52347,16.23783],[75.52033,16.22755],[75.51905,16.22567],[75.51394,16.22105],[75.50398,16.22238],[75.49818,16.22446],[75.49746,16.22378],[75.49675,16.22381],[75.49667,16.22437],[75.49368,16.22536],[75.49402,16.22827],[75.49352,16.22935],[75.49117,16.22888],[75.49084,16.22691],[75.48695,16.22909],[75.48583,16.23019],[75.48458,16.23955],[75.48316,16.24276],[75.48254,16.24305],[75.4796,16.24236],[75.46931,16.23578],[75.46775,16.23576],[75.46405,16.23709],[75.45923,16.23808],[75.45675,16.23962],[75.45492,16.24159],[75.45345,16.24467],[75.45208,16.24588],[75.44794,16.24781],[75.43732,16.25127],[75.43372,16.25332],[75.43379,16.2555],[75.43431,16.25635],[75.43319,16.25803],[75.43311,16.2617],[75.43064,16.26585],[75.4296,16.26866],[75.42832,16.26957],[75.42831,16.27168],[75.42967,16.27584],[75.42994,16.27824],[75.42962,16.281],[75.42985,16.30382],[75.43556,16.30064],[75.44734,16.29579],[75.45691,16.29033],[75.46304,16.28821],[75.46914,16.28503],[75.47107,16.28456],[75.47719,16.28014],[75.4823,16.29736],[75.48189,16.29839],[75.48276,16.3043],[75.48455,16.31057],[75.49414,16.33908],[75.49394,16.34102],[75.49186,16.34565],[75.49566,16.34768],[75.49666,16.35285],[75.49328,16.35205],[75.46949,16.35978],[75.46645,16.36121],[75.46493,16.36306],[75.45931,16.36578],[75.43045,16.37194],[75.42519,16.372],[75.41333,16.37721],[75.40403,16.37516],[75.3993,16.37997],[75.39645,16.38209],[75.39264,16.39162],[75.39214,16.39545],[75.39022,16.40132],[75.39381,16.40299],[75.39871,16.4044],[75.4085,16.40569],[75.40758,16.4199],[75.40821,16.42667],[75.40688,16.4279],[75.40822,16.42929],[75.40487,16.43054],[75.40537,16.43459],[75.40055,16.43509],[75.40025,16.44102],[75.39821,16.4502],[75.39393,16.46256],[75.40248,16.46549],[75.40699,16.4665],[75.41285,16.46674],[75.4087,16.4792],[75.40732,16.4928],[75.4147,16.49447],[75.41557,16.49984],[75.41924,16.51348],[75.42371,16.52433],[75.42497,16.52936],[75.42555,16.5301],[75.42893,16.53006],[75.43365,16.52917],[75.44142,16.5247],[75.44824,16.51871],[75.4544,16.51046],[75.45537,16.50748],[75.45508,16.50522]]]}},{"type":"Feature","properties":{"unitId":13,"unitName":"Jamakhandi Rural PS"},"geometry":{"type":"Polygon","coordinates":[[[75.25162,16.60475],[75.25231,16.60465],[75.25357,16.60588],[75.25614,16.60688],[75.25955,16.60722],[75.26518,16.60607],[75.26666,16.60499],[75.2699,16.60011],[75.26999,16.5978],[75.27137,16.59249],[75.27223,16.59166],[75.27117,16.58875],[75.27114,16.58715],[75.27372,16.58347],[75.27817,16.58021],[75.28824,16.5851],[75.28981,16.5878],[75.29304,16.59047],[75.29522,16.5911],[75.29747,16.59099],[75.30064,16.58988],[75.30279,16.58822],[75.30569,16.58303],[75.30614,16.58026],[75.30585,16.5759],[75.3064,16.57309],[75.31005,16.56949],[75.30371,16.56223],[75.29905,16.5629],[75.29345,16.56255],[75.27802,16.56271],[75.27802,16.55287],[75.27294,16.55252],[75.27328,16.552],[75.2733,16.54775],[75.26114,16.54686],[75.25477,16.54701],[75.26259,16.53383],[75.26015,16.53376],[75.26031,16.52791],[75.25988,16.52414],[75.25474,16.52722],[75.25559,16.53487],[75.2513,16.53597],[75.24969,16.52986],[75.24639,16.53153],[75.24507,16.52662],[75.24425,16.52289],[75.2478,16.52195],[75.24655,16.51732],[75.25173,16.51516],[75.25537,16.51244],[75.25543,16.51392],[75.25666,16.51415],[75.25697,16.51463],[75.26109,16.52339],[75.26817,16.5203],[75.27251,16.51745],[75.27275,16.51573],[75.27214,16.50956],[75.27501,16.50959],[75.27341,16.49292],[75.28372,16.48217],[75.28928,16.48103],[75.30431,16.48321],[75.31448,16.48277],[75.31638,16.48367],[75.33235,16.48768],[75.34447,16.48254],[75.34676,16.48285],[75.34476,16.48858],[75.34426,16.49434],[75.3467,16.50017],[75.32763,16.49722],[75.3289,16.50488],[75.31825,16.50714],[75.31764,16.50786],[75.31593,16.5079],[75.31491,16.50706],[75.31179,16.50645],[75.31192,16.50596],[75.30901,16.50453],[75.30889,16.50375],[75.3049,16.50168],[75.30476,16.50208],[75.30345,16.50215],[75.30209,16.50566],[75.30747,16.50647],[75.31376,16.50937],[75.31279,16.51145],[75.31319,16.51469],[75.31448,16.51534],[75.31556,16.51759],[75.31646,16.51802],[75.31704,16.52015],[75.32052,16.52504],[75.31976,16.52839],[75.31877,16.52839],[75.31829,16.53025],[75.31901,16.53205],[75.3231,16.53579],[75.32274,16.5391],[75.3274,16.53789],[75.32875,16.53851],[75.33109,16.54085],[75.33183,16.54791],[75.32796,16.54824],[75.32806,16.55061],[75.32759,16.55071],[75.32711,16.55262],[75.32606,16.55253],[75.32518,16.55671],[75.32354,16.55941],[75.32359,16.56068],[75.32247,16.56213],[75.32154,16.56208],[75.32179,16.56332],[75.32228,16.56416],[75.32419,16.56408],[75.324,16.56687],[75.32578,16.56751],[75.33354,16.57226],[75.33718,16.57666],[75.34042,16.57963],[75.34558,16.58634],[75.3472,16.58983],[75.3487,16.59159],[75.35068,16.59245],[75.36199,16.59313],[75.36933,16.59254],[75.37589,16.58998],[75.38495,16.5825],[75.3886,16.57705],[75.38762,16.57166],[75.38801,16.5697],[75.38535,16.56429],[75.38466,16.56188],[75.38552,16.55394],[75.38488,16.54084],[75.38513,16.53722],[75.38663,16.53432],[75.39147,16.52979],[75.39495,16.5276],[75.39695,16.52729],[75.40108,16.52779],[75.41202,16.52707],[75.41883,16.52866],[75.42497,16.52936],[75.42371,16.52433],[75.41924,16.51348],[75.41557,16.49984],[75.4147,16.49447],[75.40732,16.4928],[75.4087,16.4792],[75.41285,16.46674],[75.40699,16.4665],[75.40248,16.46549],[75.39393,16.46256],[75.39821,16.4502],[75.40025,16.44102],[75.40055,16.43509],[75.40537,16.43459],[75.40487,16.43054],[75.40822,16.42929],[75.40688,16.4279],[75.40821,16.42667],[75.40758,16.4199],[75.4085,16.40569],[75.39871,16.4044],[75.39381,16.40299],[75.39022,16.40132],[75.38907,16.40522],[75.38959,16.40735],[75.37895,16.40764],[75.35441,16.40313],[75.33852,16.40696],[75.33875,16.40456],[75.33815,16.40223],[75.33632,16.4022],[75.3379,16.40688],[75.33594,16.40706],[75.33567,16.40761],[75.33413,16.4061],[75.33435,16.4073],[75.3334,16.4078],[75.33425,16.40866],[75.33386,16.40897],[75.33399,16.40981],[75.33303,16.40993],[75.33097,16.40848],[75.33115,16.41073],[75.33053,16.4102],[75.33015,16.40853],[75.3295,16.40846],[75.32917,16.4108],[75.32777,16.41165],[75.32695,16.41109],[75.3266,16.41196],[75.32599,16.41186],[75.3255,16.40965],[75.32406,16.40925],[75.32397,16.41069],[75.31967,16.41067],[75.30836,16.41336],[75.30479,16.4132],[75.30298,16.41579],[75.29733,16.41827],[75.29753,16.42055],[75.28995,16.42108],[75.28652,16.42259],[75.28107,16.42406],[75.27739,16.42451],[75.27211,16.42615],[75.26992,16.42637],[75.26366,16.4292],[75.26142,16.42957],[75.24718,16.43486],[75.23985,16.43491],[75.22955,16.43221],[75.22022,16.43174],[75.21418,16.43019],[75.21293,16.43027],[75.21184,16.43688],[75.21279,16.45086],[75.2125,16.45929],[75.21037,16.47257],[75.21034,16.47943],[75.2068,16.49326],[75.20512,16.50387],[75.20083,16.50363],[75.18893,16.50505],[75.17416,16.5057],[75.17386,16.50764],[75.1651,16.5073],[75.15236,16.5078],[75.15021,16.50656],[75.15018,16.50594],[75.14874,16.5066],[75.14804,16.50622],[75.14767,16.50752],[75.14694,16.50764],[75.14681,16.51598],[75.14411,16.51617],[75.14271,16.51496],[75.14132,16.51484],[75.13963,16.51332],[75.13883,16.51618],[75.13727,16.51588],[75.13646,16.51658],[75.13663,16.51831],[75.13422,16.51837],[75.1336,16.51883],[75.1334,16.51917],[75.13507,16.52194],[75.13431,16.5225],[75.13513,16.52293],[75.14161,16.52461],[75.14812,16.52489],[75.15544,16.52722],[75.15829,16.52886],[75.16281,16.53322],[75.16715,16.54495],[75.16636,16.55422],[75.16557,16.55491],[75.15908,16.56649],[75.15809,16.57176],[75.15869,16.58572],[75.15916,16.58736],[75.16684,16.59603],[75.17084,16.59898],[75.17598,16.60227],[75.18006,16.6039],[75.18515,16.60483],[75.18514,16.60427],[75.20154,16.60824],[75.21718,16.61508],[75.22431,16.61582],[75.23252,16.61436],[75.23651,16.61125],[75.24385,16.6074],[75.25162,16.60475]],[[75.23837,16.53938],[75.23719,16.53466],[75.23731,16.53065],[75.24236,16.53076],[75.24261,16.53265],[75.24572,16.5317],[75.24734,16.53899],[75.24637,16.53913],[75.24637,16.5408],[75.23878,16.54194],[75.23837,16.53938]],[[75.24032,16.51976],[75.24197,16.51926],[75.24225,16.52277],[75.23752,16.523],[75.2375,16.52046],[75.24032,16.51976]]]}},{"type":"Feature","properties":{"unitId":14,"unitName":"Jamakhandi Town PS"},"geometry":{"type":"MultiPolygon","coordinates":[[[[75.3157,16.56635],[75.3202,16.56587],[75.324,16.56687],[75.32419,16.56408],[75.32228,16.56416],[75.32154,16.56208],[75.32247,16.56213],[75.32359,16.56068],[75.32354,16.55941],[75.32518,16.55671],[75.32593,16.55441],[75.32606,16.55253],[75.32711,16.55262],[75.32759,16.55071],[75.32806,16.55061],[75.32796,16.54824],[75.33183,16.54791],[75.33129,16.54166],[75.33018,16.53978],[75.32758,16.53793],[75.32274,16.5391],[75.3231,16.53579],[75.31901,16.53205],[75.31829,16.53025],[75.31877,16.52839],[75.31976,16.52839],[75.32052,16.52504],[75.31704,16.52015],[75.31646,16.51802],[75.31556,16.51759],[75.31448,16.51534],[75.31319,16.51469],[75.31279,16.51145],[75.31376,16.50937],[75.30747,16.50647],[75.30213,16.50555],[75.30345,16.50215],[75.30476,16.50208],[75.3049,16.50168],[75.30889,16.50375],[75.30901,16.50453],[75.31192,16.50596],[75.31179,16.50645],[75.31491,16.50706],[75.31593,16.5079],[75.31764,16.50786],[75.31825,16.50714],[75.3289,16.50488],[75.32763,16.49722],[75.3467,16.50017],[75.34426,16.49434],[75.34476,16.48858],[75.34676,16.48285],[75.34447,16.48254],[75.33235,16.48768],[75.31638,16.48367],[75.31448,16.48277],[75.30431,16.48321],[75.28928,16.48103],[75.28372,16.48217],[75.27341,16.49292],[75.27501,16.50938],[75.27214,16.50956],[75.2726,16.51733],[75.26817,16.5203],[75.26109,16.52339],[75.25697,16.51463],[75.25666,16.51415],[75.25543,16.51392],[75.25537,16.51244],[75.25173,16.51516],[75.24655,16.51732],[75.2478,16.52195],[75.24425,16.52289],[75.24618,16.5312],[75.24677,16.53144],[75.24969,16.52986],[75.2513,16.53597],[75.25559,16.53487],[75.25474,16.52722],[75.25988,16.52414],[75.26031,16.52791],[75.26015,16.53376],[75.26259,16.53383],[75.25477,16.54701],[75.26114,16.54686],[75.2733,16.54775],[75.27328,16.552],[75.27294,16.55252],[75.27802,16.55287],[75.27802,16.56271],[75.29345,16.56255],[75.29905,16.5629],[75.30371,16.56223],[75.31005,16.56949],[75.3157,16.56635]]],[[[75.24734,16.53899],[75.24572,16.5317],[75.24261,16.53265],[75.24236,16.53076],[75.23731,16.53065],[75.23719,16.53466],[75.23878,16.54194],[75.24637,16.5408],[75.24637,16.53913],[75.24734,16.53899]]],[[[75.24199,16.5194],[75.2375,16.52046],[75.23752,16.523],[75.24225,16.52277],[75.24199,16.5194]]]]}},{"type":"Feature","properties":{"unitId":15,"unitName":"Savalgi PS"},"geometry":{"type":"Polygon","coordinates":[[[75.42114,16.76778],[75.42262,16.76774],[75.42406,16.76835],[75.42516,16.76784],[75.42714,16.76791],[75.42962,16.76652],[75.43234,16.76604],[75.43317,16.76505],[75.43361,16.7633],[75.43446,16.76265],[75.43596,16.76239],[75.43708,16.76281],[75.43816,16.76243],[75.43949,16.76064],[75.44269,16.75806],[75.44252,16.75725],[75.44442,16.75731],[75.44664,16.75548],[75.45604,16.75477],[75.46729,16.75459],[75.46815,16.754],[75.46923,16.75193],[75.47234,16.7511],[75.47381,16.74946],[75.47684,16.74802],[75.47816,16.74824],[75.48174,16.74691],[75.48259,16.74731],[75.49257,16.74595],[75.49202,16.74548],[75.49237,16.7454],[75.49204,16.72727],[75.48809,16.6947],[75.47908,16.69653],[75.47299,16.69719],[75.46313,16.6995],[75.44898,16.69925],[75.44538,16.69978],[75.44252,16.6995],[75.43758,16.6978],[75.4475,16.66538],[75.45191,16.66542],[75.45457,16.66429],[75.45435,16.66254],[75.45558,16.65403],[75.45604,16.65343],[75.45759,16.64565],[75.46113,16.63524],[75.46226,16.62598],[75.46178,16.6221],[75.47437,16.61166],[75.47947,16.60984],[75.48343,16.60662],[75.48504,16.60632],[75.49131,16.59948],[75.49219,16.59533],[75.49321,16.59313],[75.49283,16.59186],[75.49357,16.59177],[75.49295,16.59068],[75.49199,16.58483],[75.48549,16.58061],[75.485,16.57932],[75.48575,16.57747],[75.48583,16.57531],[75.48413,16.57243],[75.47951,16.56843],[75.47561,16.56694],[75.47305,16.56663],[75.47226,16.56366],[75.48088,16.56086],[75.47944,16.55713],[75.48426,16.55698],[75.48429,16.5548],[75.48816,16.55487],[75.48876,16.54833],[75.48893,16.5296],[75.49076,16.52916],[75.49086,16.52385],[75.49046,16.52382],[75.49017,16.52004],[75.4889,16.51986],[75.48518,16.50722],[75.47572,16.50749],[75.46249,16.50666],[75.45633,16.50571],[75.45623,16.50507],[75.45743,16.50351],[75.45607,16.50321],[75.45508,16.50522],[75.45537,16.50748],[75.4544,16.51046],[75.44824,16.51871],[75.44142,16.5247],[75.43365,16.52917],[75.42893,16.53006],[75.42555,16.5301],[75.42497,16.52936],[75.41883,16.52866],[75.41202,16.52707],[75.40108,16.52779],[75.39695,16.52729],[75.39495,16.5276],[75.39147,16.52979],[75.38663,16.53432],[75.38513,16.53722],[75.38488,16.54084],[75.38552,16.55394],[75.38466,16.56188],[75.38535,16.56429],[75.38801,16.5697],[75.38762,16.57166],[75.3886,16.57705],[75.38495,16.5825],[75.37589,16.58998],[75.37253,16.59154],[75.36933,16.59254],[75.36199,16.59313],[75.35068,16.59245],[75.3487,16.59159],[75.3472,16.58983],[75.34558,16.58634],[75.34042,16.57963],[75.33718,16.57666],[75.33354,16.57226],[75.32578,16.56751],[75.3202,16.56587],[75.31809,16.56581],[75.3157,16.56635],[75.31193,16.56813],[75.30868,16.57065],[75.3064,16.57309],[75.30585,16.5759],[75.30614,16.58026],[75.30569,16.58303],[75.30279,16.58822],[75.29918,16.59064],[75.29522,16.5911],[75.29304,16.59047],[75.28981,16.5878],[75.28824,16.5851],[75.28269,16.58268],[75.2788,16.58026],[75.27817,16.58021],[75.27588,16.58156],[75.27372,16.58347],[75.27114,16.58715],[75.27117,16.58875],[75.27223,16.59166],[75.27137,16.59249],[75.26999,16.5978],[75.2699,16.60011],[75.2687,16.60139],[75.26809,16.60303],[75.26666,16.60499],[75.26518,16.60607],[75.25955,16.60722],[75.2598,16.60754],[75.258,16.60813],[75.25661,16.60955],[75.25798,16.61099],[75.2585,16.61248],[75.25564,16.61638],[75.25556,16.6186],[75.25685,16.61958],[75.25962,16.6193],[75.26191,16.61996],[75.26256,16.62409],[75.26624,16.63346],[75.26812,16.64094],[75.2662,16.65813],[75.26585,16.66647],[75.2628,16.68041],[75.26368,16.68804],[75.26492,16.69258],[75.26544,16.6925],[75.26502,16.69276],[75.27645,16.70185],[75.28789,16.71436],[75.28923,16.71497],[75.29689,16.71558],[75.30114,16.71722],[75.31675,16.71854],[75.32329,16.71839],[75.32977,16.71713],[75.32993,16.71672],[75.34695,16.71591],[75.36251,16.71433],[75.36492,16.71736],[75.36481,16.7186],[75.36359,16.72013],[75.36425,16.72146],[75.36547,16.72251],[75.3638,16.7249],[75.36428,16.7262],[75.36403,16.72727],[75.36255,16.7277],[75.36338,16.72891],[75.36241,16.73011],[75.363,16.73056],[75.36276,16.73154],[75.36423,16.73487],[75.36366,16.73771],[75.36436,16.73821],[75.3665,16.7434],[75.36611,16.74327],[75.36563,16.74678],[75.3665,16.75982],[75.37945,16.76232],[75.38356,16.76235],[75.38515,16.76144],[75.38548,16.76279],[75.38665,16.76096],[75.38772,16.7619],[75.39167,16.76247],[75.3927,16.76222],[75.39128,16.76144],[75.39137,16.76099],[75.39251,16.76091],[75.3927,16.75995],[75.40681,16.76157],[75.40675,16.7635],[75.41251,16.76638],[75.41311,16.76542],[75.41383,16.76551],[75.41696,16.76623],[75.41824,16.76809],[75.41903,16.76838],[75.42114,16.76778]]]}},{"type":"Feature","properties":{"unitId":16,"unitName":"Lokapur PS"},"geometry":{"type":"Polygon","coordinates":[[[75.27936,16.3272],[75.28063,16.32504],[75.28114,16.32303],[75.28121,16.31901],[75.28194,16.31629],[75.28567,16.31079],[75.28592,16.30932],[75.28477,16.30778],[75.28463,16.30679],[75.28529,16.30422],[75.28301,16.29907],[75.28329,16.29617],[75.28611,16.29535],[75.2889,16.2954],[75.2914,16.29323],[75.2959,16.29246],[75.29866,16.29338],[75.30174,16.29602],[75.30174,16.29652],[75.30417,16.29634],[75.30576,16.29555],[75.30782,16.29189],[75.30835,16.28719],[75.30793,16.28139],[75.30948,16.27836],[75.3095,16.27684],[75.31015,16.27583],[75.30919,16.27148],[75.31051,16.27032],[75.31289,16.27021],[75.31259,16.27298],[75.31611,16.27374],[75.3168,16.27312],[75.31859,16.27332],[75.32184,16.27203],[75.32549,16.27137],[75.32825,16.26981],[75.32931,16.26987],[75.33356,16.27228],[75.34038,16.27907],[75.34482,16.28512],[75.3457,16.28714],[75.34522,16.28723],[75.34432,16.29054],[75.34553,16.2939],[75.34745,16.29344],[75.34762,16.29301],[75.34968,16.29449],[75.3519,16.29339],[75.35295,16.29147],[75.35319,16.28768],[75.35471,16.28531],[75.35602,16.28411],[75.36125,16.28249],[75.36154,16.28008],[75.36071,16.27569],[75.36227,16.27274],[75.36092,16.27049],[75.35858,16.26896],[75.35779,16.26697],[75.35633,16.26182],[75.35601,16.25569],[75.35626,16.25483],[75.35745,16.25375],[75.3639,16.25062],[75.36443,16.24919],[75.36423,16.24495],[75.36131,16.2431],[75.35708,16.23884],[75.35355,16.23674],[75.35212,16.23495],[75.35186,16.23248],[75.35251,16.23138],[75.35379,16.23087],[75.3579,16.23044],[75.36502,16.22773],[75.36673,16.22522],[75.36672,16.22319],[75.36758,16.21991],[75.36805,16.21919],[75.37191,16.2169],[75.37318,16.21671],[75.37635,16.21774],[75.37782,16.21666],[75.37895,16.2165],[75.38583,16.21829],[75.38921,16.22148],[75.39225,16.22527],[75.39509,16.22724],[75.40021,16.22931],[75.40207,16.22931],[75.4058,16.22804],[75.41315,16.22297],[75.42082,16.22514],[75.42639,16.22857],[75.42955,16.23381],[75.42947,16.23545],[75.42759,16.24029],[75.4278,16.25122],[75.42873,16.25322],[75.43217,16.25403],[75.43732,16.25127],[75.44386,16.24895],[75.44342,16.23452],[75.44395,16.22937],[75.44621,16.21818],[75.44652,16.20502],[75.4479,16.19444],[75.44797,16.18341],[75.4454,16.18258],[75.44484,16.18131],[75.44599,16.17646],[75.44598,16.17381],[75.44532,16.17097],[75.44384,16.17055],[75.44296,16.16977],[75.44283,16.16898],[75.44108,16.16805],[75.44044,16.16561],[75.43844,16.16239],[75.43791,16.16018],[75.43494,16.15915],[75.43508,16.15614],[75.43089,16.15169],[75.42959,16.15139],[75.42758,16.14785],[75.42521,16.14528],[75.42365,16.14173],[75.42368,16.14075],[75.4221,16.14062],[75.42133,16.13913],[75.41929,16.13745],[75.41788,16.13491],[75.41286,16.13386],[75.41206,16.13035],[75.40951,16.1287],[75.40711,16.12541],[75.40715,16.12355],[75.40559,16.12095],[75.4056,16.11879],[75.40452,16.11651],[75.40444,16.11368],[75.39055,16.11299],[75.37374,16.11423],[75.35783,16.1145],[75.35524,16.11499],[75.35546,16.11548],[75.35346,16.11647],[75.35425,16.11767],[75.35355,16.11914],[75.35476,16.12429],[75.35366,16.12658],[75.35396,16.12804],[75.35349,16.12823],[75.35175,16.12694],[75.3495,16.12613],[75.34811,16.12422],[75.34625,16.12319],[75.34297,16.12404],[75.34175,16.1248],[75.33951,16.12259],[75.33874,16.12101],[75.33681,16.12078],[75.3352,16.11922],[75.33295,16.11851],[75.33225,16.11744],[75.32953,16.11708],[75.32766,16.11596],[75.32767,16.11545],[75.32467,16.11642],[75.32233,16.11559],[75.32028,16.11586],[75.31814,16.11551],[75.30537,16.11728],[75.29371,16.11805],[75.28798,16.11927],[75.28026,16.1193],[75.27574,16.12041],[75.27839,16.12942],[75.28744,16.15182],[75.29259,16.17241],[75.28467,16.17674],[75.28547,16.17777],[75.28591,16.18063],[75.28631,16.18459],[75.28601,16.18761],[75.28635,16.18878],[75.28833,16.1906],[75.28885,16.19183],[75.28681,16.19735],[75.28699,16.19937],[75.28657,16.20113],[75.28588,16.2022],[75.28531,16.20154],[75.28294,16.20137],[75.28247,16.20027],[75.28071,16.19998],[75.2799,16.20147],[75.27949,16.20119],[75.27505,16.20396],[75.27292,16.20613],[75.27029,16.20754],[75.26764,16.2077],[75.26279,16.20651],[75.25313,16.20538],[75.25311,16.20432],[75.24928,16.20433],[75.24745,16.20454],[75.24092,16.20716],[75.23238,16.20964],[75.23363,16.21237],[75.23308,16.21873],[75.23202,16.21976],[75.23025,16.22457],[75.2307,16.22632],[75.23123,16.22633],[75.23129,16.22745],[75.22994,16.23073],[75.23004,16.23185],[75.23108,16.23568],[75.23385,16.23778],[75.23424,16.24227],[75.23487,16.24403],[75.23678,16.24671],[75.2376,16.24924],[75.23948,16.25105],[75.23904,16.25141],[75.23465,16.25112],[75.23229,16.25022],[75.23413,16.25963],[75.22838,16.26081],[75.22456,16.26241],[75.22269,16.264],[75.22632,16.27239],[75.228,16.27171],[75.22897,16.2721],[75.2299,16.2792],[75.23823,16.31001],[75.23948,16.31749],[75.24151,16.32552],[75.24247,16.32589],[75.24319,16.32327],[75.2449,16.32204],[75.24962,16.32199],[75.25226,16.32217],[75.25571,16.32326],[75.26228,16.32716],[75.26623,16.32769],[75.2728,16.32709],[75.27512,16.32722],[75.27701,16.32793],[75.27936,16.3272]]]}},{"type":"Feature","properties":{"unitId":17,"unitName":"Mahalingapur PS"},"geometry":{"type":"Polygon","coordinates":[[[75.20639,16.42026],[75.20761,16.41759],[75.20926,16.41141],[75.21199,16.40723],[75.21308,16.38993],[75.21282,16.38514],[75.22286,16.38346],[75.22297,16.38104],[75.22516,16.37505],[75.2271,16.37144],[75.22611,16.36822],[75.22633,16.36617],[75.22734,16.36504],[75.2301,16.36491],[75.23002,16.36401],[75.2294,16.3637],[75.21417,16.36443],[75.20616,16.36347],[75.17916,16.36444],[75.17798,16.36092],[75.17862,16.36],[75.17983,16.35988],[75.18159,16.35694],[75.18303,16.35646],[75.1831,16.35557],[75.1843,16.35522],[75.18455,16.35434],[75.18627,16.35253],[75.18607,16.35172],[75.18717,16.34982],[75.18803,16.34938],[75.18911,16.3468],[75.19049,16.3457],[75.19172,16.34378],[75.19117,16.34246],[75.19132,16.33939],[75.1907,16.33859],[75.19126,16.33752],[75.19078,16.33699],[75.19262,16.3347],[75.19367,16.33438],[75.19422,16.33306],[75.19002,16.33373],[75.18877,16.33346],[75.18416,16.32882],[75.17748,16.32772],[75.16714,16.32501],[75.16432,16.32382],[75.15973,16.32078],[75.15682,16.32006],[75.15453,16.32178],[75.15286,16.32158],[75.14839,16.31873],[75.14759,16.31762],[75.14749,16.31625],[75.14507,16.31774],[75.13817,16.32513],[75.13836,16.32596],[75.13499,16.32776],[75.13105,16.33127],[75.12668,16.33173],[75.12376,16.33126],[75.12172,16.33034],[75.11588,16.32653],[75.11329,16.32831],[75.11124,16.32811],[75.10936,16.32879],[75.10816,16.32871],[75.10049,16.32669],[75.09564,16.32489],[75.09439,16.32506],[75.08828,16.33006],[75.08405,16.33092],[75.08059,16.33088],[75.07769,16.33207],[75.07541,16.33191],[75.07468,16.33162],[75.07467,16.33097],[75.07247,16.33064],[75.0694,16.32799],[75.06577,16.3262],[75.06312,16.3262],[75.06191,16.3266],[75.06192,16.32716],[75.0621,16.32766],[75.06255,16.32725],[75.06325,16.32799],[75.06014,16.33037],[75.05765,16.33146],[75.05545,16.33058],[75.05376,16.3292],[75.05153,16.32593],[75.0482,16.32425],[75.04366,16.31959],[75.03579,16.33438],[75.03423,16.33835],[75.03363,16.34815],[75.03274,16.35404],[75.03265,16.35887],[75.03393,16.37011],[75.03369,16.38077],[75.03442,16.38495],[75.03687,16.39182],[75.03867,16.39492],[75.03862,16.3964],[75.03916,16.3976],[75.04076,16.39778],[75.04096,16.39585],[75.04837,16.39594],[75.04859,16.399],[75.05019,16.39993],[75.07174,16.40396],[75.07355,16.41104],[75.08358,16.4102],[75.08359,16.4097],[75.08695,16.40896],[75.09829,16.40705],[75.10699,16.40813],[75.11415,16.40836],[75.12117,16.40946],[75.12446,16.41388],[75.14957,16.41843],[75.15102,16.41812],[75.15217,16.42067],[75.15676,16.42134],[75.16305,16.42422],[75.16727,16.42284],[75.1697,16.42328],[75.17224,16.42302],[75.17822,16.42053],[75.18141,16.42026],[75.19245,16.42282],[75.20449,16.42789],[75.20532,16.42327],[75.20639,16.42026]]]}},{"type":"Feature","properties":{"unitId":18,"unitName":"Mudhol PS"},"geometry":{"type":"Polygon","coordinates":[[[75.24781,16.43463],[75.26142,16.42957],[75.26366,16.4292],[75.26992,16.42637],[75.27211,16.42615],[75.27739,16.42451],[75.28107,16.42406],[75.28652,16.42259],[75.28995,16.42108],[75.29753,16.42055],[75.29733,16.41827],[75.30298,16.41579],[75.30479,16.4132],[75.30836,16.41336],[75.31967,16.41067],[75.32397,16.41069],[75.32406,16.40925],[75.3255,16.40965],[75.32599,16.41186],[75.3266,16.41196],[75.32695,16.41109],[75.32777,16.41165],[75.32917,16.4108],[75.3295,16.40846],[75.33015,16.40853],[75.33053,16.4102],[75.33115,16.41073],[75.33097,16.40848],[75.33303,16.40993],[75.33399,16.40981],[75.33386,16.40897],[75.33425,16.40866],[75.3334,16.4078],[75.33435,16.4073],[75.33413,16.4061],[75.33567,16.40761],[75.33594,16.40706],[75.3379,16.40688],[75.33632,16.4022],[75.33815,16.40223],[75.33875,16.40456],[75.33852,16.40696],[75.35441,16.40313],[75.37895,16.40764],[75.38959,16.40735],[75.38907,16.40522],[75.39214,16.39545],[75.39264,16.39162],[75.39496,16.38523],[75.39645,16.38209],[75.3993,16.37997],[75.40403,16.37516],[75.41333,16.37721],[75.42519,16.372],[75.43045,16.37194],[75.45931,16.36578],[75.46493,16.36306],[75.46645,16.36121],[75.46949,16.35978],[75.49328,16.35205],[75.49666,16.35285],[75.49566,16.34768],[75.49186,16.34565],[75.49394,16.34102],[75.49414,16.33908],[75.48455,16.31057],[75.48276,16.3043],[75.48189,16.29839],[75.4823,16.29736],[75.47719,16.28014],[75.47107,16.28456],[75.46914,16.28503],[75.46304,16.28821],[75.45691,16.29033],[75.44734,16.29579],[75.43556,16.30064],[75.42985,16.30382],[75.42962,16.281],[75.42994,16.27824],[75.42967,16.27584],[75.42831,16.27168],[75.42832,16.26957],[75.4296,16.26866],[75.43064,16.26585],[75.43281,16.26239],[75.43339,16.26031],[75.43319,16.25803],[75.43431,16.25635],[75.43379,16.2555],[75.43372,16.25332],[75.43217,16.25403],[75.43003,16.25378],[75.42873,16.25322],[75.4278,16.25122],[75.42759,16.24029],[75.42957,16.23466],[75.42839,16.23141],[75.42639,16.22857],[75.42468,16.22716],[75.42082,16.22514],[75.41391,16.22299],[75.41248,16.22328],[75.4058,16.22804],[75.40207,16.22931],[75.40021,16.22931],[75.39509,16.22724],[75.39225,16.22527],[75.38921,16.22148],[75.38583,16.21829],[75.38223,16.21707],[75.37847,16.21649],[75.37635,16.21774],[75.37318,16.21671],[75.37106,16.21733],[75.36758,16.21991],[75.36672,16.22319],[75.36673,16.22522],[75.36502,16.22773],[75.3579,16.23044],[75.35379,16.23087],[75.35251,16.23138],[75.35186,16.23248],[75.35212,16.23495],[75.35355,16.23674],[75.35708,16.23884],[75.36131,16.2431],[75.36406,16.2447],[75.36443,16.24919],[75.3639,16.25062],[75.35745,16.25375],[75.35626,16.25483],[75.35601,16.25569],[75.35633,16.26182],[75.35779,16.26697],[75.35858,16.26896],[75.36092,16.27049],[75.36227,16.27274],[75.36071,16.27569],[75.36154,16.28008],[75.36125,16.28249],[75.35602,16.28411],[75.35471,16.28531],[75.35319,16.28768],[75.35295,16.29147],[75.35204,16.29324],[75.34968,16.29449],[75.34762,16.29301],[75.34745,16.29344],[75.34553,16.2939],[75.34432,16.29054],[75.34522,16.28723],[75.3457,16.28714],[75.34482,16.28512],[75.34038,16.27907],[75.33439,16.2729],[75.33187,16.27117],[75.32931,16.26987],[75.32825,16.26981],[75.32549,16.27137],[75.32184,16.27203],[75.31859,16.27332],[75.3168,16.27312],[75.31648,16.27377],[75.31259,16.27298],[75.31289,16.27021],[75.31051,16.27032],[75.30919,16.27148],[75.31015,16.27583],[75.3095,16.27684],[75.30948,16.27836],[75.30793,16.28139],[75.30835,16.28719],[75.30782,16.29189],[75.30576,16.29555],[75.30417,16.29634],[75.30174,16.29652],[75.30174,16.29602],[75.29866,16.29338],[75.2959,16.29246],[75.2914,16.29323],[75.2889,16.2954],[75.28611,16.29535],[75.28329,16.29617],[75.28301,16.29907],[75.28529,16.30422],[75.28463,16.30679],[75.28477,16.30778],[75.28592,16.30932],[75.28567,16.31079],[75.28194,16.31629],[75.28121,16.31901],[75.28114,16.32303],[75.28063,16.32504],[75.27936,16.3272],[75.27811,16.32789],[75.2728,16.32709],[75.26623,16.32769],[75.26228,16.32716],[75.25571,16.32326],[75.25226,16.32217],[75.24962,16.32199],[75.2449,16.32204],[75.24319,16.32327],[75.24247,16.32589],[75.24151,16.32552],[75.23948,16.31749],[75.23823,16.31001],[75.2299,16.2792],[75.22897,16.2721],[75.228,16.27171],[75.22632,16.27239],[75.22269,16.264],[75.22091,16.26552],[75.22018,16.26562],[75.21765,16.2686],[75.20494,16.27245],[75.19511,16.2744],[75.18418,16.27564],[75.17841,16.27501],[75.17456,16.27609],[75.17122,16.27865],[75.17018,16.28036],[75.16665,16.27967],[75.15597,16.28054],[75.14163,16.28368],[75.13855,16.28481],[75.13622,16.28479],[75.1296,16.28696],[75.12916,16.28841],[75.13036,16.29465],[75.12907,16.29478],[75.12911,16.2962],[75.1304,16.29954],[75.1319,16.30089],[75.13242,16.30281],[75.13208,16.30272],[75.13162,16.30423],[75.13817,16.32513],[75.14507,16.31774],[75.14749,16.31625],[75.14759,16.31762],[75.14839,16.31873],[75.15286,16.32158],[75.15453,16.32178],[75.15682,16.32006],[75.15973,16.32078],[75.16432,16.32382],[75.16714,16.32501],[75.17748,16.32772],[75.18416,16.32882],[75.18877,16.33346],[75.19002,16.33373],[75.19422,16.33306],[75.19367,16.33438],[75.19262,16.3347],[75.19078,16.33699],[75.19126,16.33752],[75.1907,16.33859],[75.19132,16.33939],[75.19117,16.34246],[75.19172,16.34378],[75.19049,16.3457],[75.18911,16.3468],[75.18803,16.34938],[75.18717,16.34982],[75.18607,16.35172],[75.18627,16.35253],[75.18455,16.35434],[75.1843,16.35522],[75.1831,16.35557],[75.18303,16.35646],[75.18159,16.35694],[75.17983,16.35988],[75.17862,16.36],[75.17798,16.36092],[75.17916,16.36444],[75.20616,16.36347],[75.21417,16.36443],[75.2294,16.3637],[75.23002,16.36401],[75.2301,16.36491],[75.22734,16.36504],[75.22633,16.36617],[75.22611,16.36822],[75.2271,16.37144],[75.22516,16.37505],[75.22297,16.38104],[75.22286,16.38346],[75.21282,16.38514],[75.21308,16.38993],[75.21199,16.40723],[75.20926,16.41141],[75.20761,16.41759],[75.20532,16.42327],[75.20449,16.42789],[75.21032,16.42996],[75.21418,16.43019],[75.22022,16.43174],[75.22955,16.43221],[75.23985,16.43491],[75.24057,16.43463],[75.2452,16.43511],[75.24781,16.43463]]]}},{"type":"Feature","properties":{"unitId":19,"unitName":"Bagalkot Town PS"},"geometry":{"type":"Polygon","coordinates":[[[75.70504,16.20246],[75.7037,16.19722],[75.70833,16.19548],[75.71382,16.19682],[75.71513,16.19791],[75.7166,16.20092],[75.71635,16.20426],[75.71757,16.20589],[75.7201,16.20587],[75.72313,16.20504],[75.71807,16.20149],[75.71725,16.20043],[75.7204,16.19916],[75.72355,16.19634],[75.72258,16.19345],[75.72267,16.19172],[75.72201,16.19089],[75.72137,16.18799],[75.7218,16.18564],[75.72137,16.18517],[75.72086,16.1817],[75.71898,16.17804],[75.71806,16.17734],[75.71847,16.17583],[75.71761,16.1747],[75.71465,16.17405],[75.7128,16.1686],[75.71176,16.16728],[75.71035,16.16702],[75.7097,16.16586],[75.69845,16.16748],[75.6945,16.15492],[75.69278,16.15257],[75.68545,16.15366],[75.68321,16.15517],[75.68064,16.15572],[75.67728,16.15748],[75.67509,16.15938],[75.67198,16.16431],[75.67249,16.16901],[75.66854,16.16982],[75.66664,16.16976],[75.66618,16.17075],[75.66703,16.17229],[75.66706,16.17534],[75.66884,16.17883],[75.66921,16.1826],[75.67111,16.18502],[75.67125,16.1885],[75.67178,16.18902],[75.67434,16.20282],[75.67426,16.20568],[75.675,16.2082],[75.67677,16.20701],[75.67927,16.20639],[75.68727,16.20766],[75.69095,16.20707],[75.6987,16.20072],[75.70385,16.21137],[75.70691,16.2102],[75.70504,16.20246]]]}}]}