{"type":"FeatureCollection","features":[{"type":"Feature","properties":{"unitId":373,"unitName":"Davanagere Extention PS"},"geometry":{"type":"Polygon","coordinates":[[[75.92466,14.46702],[75.92164,14.46435],[75.91997,14.46018],[75.92013,14.44793],[75.92077,14.44586],[75.91739,14.44477],[75.91717,14.44838],[75.91396,14.44822],[75.90858,14.44928],[75.90908,14.45126],[75.90335,14.45093],[75.90717,14.45681],[75.9046,14.45713],[75.90235,14.45621],[75.90271,14.46536],[75.90453,14.47413],[75.91429,14.4695],[75.92466,14.46702]]]}},{"type":"Feature","properties":{"unitId":374,"unitName":"K.T.J Nagar PS"},"geometry":{"type":"Polygon","coordinates":[[[75.93234,14.46247],[75.93502,14.45882],[75.94656,14.43562],[75.93056,14.42984],[75.92892,14.42966],[75.9237,14.43217],[75.92325,14.4334],[75.92259,14.43368],[75.923,14.43458],[75.92262,14.43679],[75.92308,14.43929],[75.9202,14.44738],[75.91992,14.45988],[75.92164,14.46435],[75.92458,14.46697],[75.92875,14.46586],[75.93234,14.46247]]]}},{"type":"Feature","properties":{"unitId":375,"unitName":"Vidyanagar PS"},"geometry":{"type":"Polygon","coordinates":[[[75.89399,14.4723],[75.90383,14.47022],[75.90271,14.46536],[75.90235,14.45621],[75.9046,14.45713],[75.90717,14.45681],[75.90335,14.45093],[75.90908,14.45126],[75.90858,14.44928],[75.91396,14.44822],[75.91717,14.44838],[75.91739,14.44477],[75.92077,14.44586],[75.92308,14.43929],[75.92262,14.43679],[75.923,14.43458],[75.92259,14.43368],[75.92325,14.4334],[75.9237,14.43217],[75.92892,14.42966],[75.93056,14.42984],[75.95257,14.4379],[75.9541,14.43824],[75.95581,14.43797],[75.96706,14.43012],[75.96541,14.42664],[75.96609,14.42536],[75.96442,14.42467],[75.96386,14.42527],[75.96111,14.42448],[75.96258,14.42137],[75.95516,14.41896],[75.95333,14.4225],[75.95006,14.42117],[75.94342,14.41953],[75.94094,14.41809],[75.93416,14.41956],[75.93133,14.41926],[75.92686,14.42029],[75.92441,14.42273],[75.92552,14.4266],[75.92541,14.42788],[75.92421,14.429],[75.9233,14.42796],[75.91991,14.42731],[75.91887,14.42729],[75.91802,14.42792],[75.91488,14.4268],[75.91334,14.42683],[75.91349,14.42765],[75.89923,14.42603],[75.89617,14.42601],[75.89224,14.42681],[75.88785,14.4284],[75.88219,14.4322],[75.88217,14.43439],[75.88029,14.43579],[75.87752,14.43762],[75.8755,14.43791],[75.87423,14.43913],[75.871,14.44047],[75.87024,14.44128],[75.86967,14.4471],[75.86881,14.44856],[75.86617,14.45015],[75.86541,14.45259],[75.86258,14.45193],[75.85958,14.45058],[75.85647,14.45021],[75.84982,14.45494],[75.85255,14.45928],[75.85316,14.4616],[75.859,14.45905],[75.85899,14.46131],[75.85653,14.46363],[75.85809,14.46599],[75.86372,14.46621],[75.86683,14.46474],[75.86923,14.46443],[75.86974,14.46614],[75.87137,14.46756],[75.87163,14.46887],[75.87607,14.469],[75.875,14.47749],[75.88536,14.47425],[75.89399,14.4723]]]}},{"type":"Feature","properties":{"unitId":376,"unitName":"Azad Nagar PS"},"geometry":{"type":"Polygon","coordinates":[[[75.92303,14.4941],[75.92548,14.49241],[75.9293,14.49158],[75.93069,14.49031],[75.93232,14.49048],[75.93272,14.48921],[75.93407,14.48954],[75.93451,14.4891],[75.93364,14.4878],[75.93375,14.48663],[75.93467,14.48524],[75.9336,14.48267],[75.934,14.48184],[75.92833,14.47826],[75.93025,14.4699],[75.92697,14.46876],[75.92545,14.46864],[75.92569,14.47608],[75.92046,14.4756],[75.92014,14.48365],[75.91825,14.48387],[75.91881,14.48436],[75.91885,14.48597],[75.91879,14.48836],[75.91824,14.48949],[75.91843,14.49027],[75.91927,14.49051],[75.91968,14.49221],[75.91941,14.49395],[75.91801,14.4945],[75.91798,14.49546],[75.91753,14.49567],[75.91952,14.4964],[75.92037,14.49774],[75.92188,14.49667],[75.92192,14.49601],[75.92297,14.4955],[75.92303,14.4941]]]}},{"type":"Feature","properties":{"unitId":377,"unitName":"Basavanagara PS"},"geometry":{"type":"Polygon","coordinates":[[[75.91634,14.47232],[75.91898,14.4723],[75.91933,14.47548],[75.92569,14.47608],[75.92545,14.46864],[75.92697,14.46876],[75.92724,14.46646],[75.91429,14.4695],[75.90453,14.47413],[75.90683,14.47949],[75.91183,14.47674],[75.91192,14.4757],[75.91451,14.47422],[75.91634,14.47232]]]}},{"type":"Feature","properties":{"unitId":378,"unitName":"Gandhi Nagar PS"},"geometry":{"type":"Polygon","coordinates":[[[75.89745,14.50052],[75.89745,14.49952],[75.90389,14.49848],[75.90369,14.49778],[75.91215,14.49759],[75.91401,14.49832],[75.91521,14.49811],[75.91533,14.49869],[75.91645,14.49857],[75.91671,14.49703],[75.91581,14.49594],[75.91655,14.4952],[75.91788,14.49558],[75.91801,14.4945],[75.91941,14.49395],[75.91968,14.49221],[75.91927,14.49051],[75.91843,14.49027],[75.91824,14.48949],[75.91879,14.48836],[75.91885,14.48597],[75.91881,14.48436],[75.91825,14.48387],[75.92014,14.48365],[75.92046,14.4756],[75.91933,14.47548],[75.91898,14.4723],[75.91634,14.47232],[75.91451,14.47422],[75.91192,14.4757],[75.91183,14.47674],[75.90683,14.47949],[75.90468,14.47499],[75.90368,14.47025],[75.88398,14.47465],[75.88491,14.4841],[75.88955,14.48436],[75.88984,14.4869],[75.88978,14.4881],[75.88881,14.48988],[75.88853,14.49327],[75.88776,14.49404],[75.88677,14.49726],[75.88706,14.4984],[75.88654,14.50024],[75.89018,14.50115],[75.89745,14.50052]]]}},{"type":"Feature","properties":{"unitId":379,"unitName":"Davanagere RMC Yard PS"},"geometry":{"type":"Polygon","coordinates":[[[75.9372,14.48167],[75.93777,14.48016],[75.93737,14.47784],[75.93935,14.47571],[75.94046,14.47546],[75.94102,14.47361],[75.94265,14.47302],[75.94495,14.47351],[75.94699,14.47132],[75.94693,14.47032],[75.94869,14.47046],[75.9479,14.468],[75.94866,14.46723],[75.94829,14.46091],[75.94992,14.46057],[75.94997,14.45776],[75.95043,14.45704],[75.9517,14.4567],[75.95132,14.45214],[75.95219,14.45048],[75.95207,14.4495],[75.95328,14.44974],[75.95406,14.44761],[75.95563,14.4472],[75.95614,14.44513],[75.95747,14.44575],[75.95851,14.44527],[75.95941,14.44255],[75.95895,14.4407],[75.96035,14.44038],[75.96062,14.43949],[75.96296,14.4383],[75.96293,14.43532],[75.96368,14.43523],[75.96545,14.43343],[75.9663,14.43325],[75.96611,14.43267],[75.96671,14.43203],[75.9677,14.43187],[75.96706,14.43012],[75.95581,14.43797],[75.9541,14.43824],[75.95257,14.4379],[75.94656,14.43562],[75.93502,14.45882],[75.93117,14.46397],[75.92962,14.46533],[75.92724,14.46646],[75.92696,14.46884],[75.93025,14.4699],[75.92833,14.47826],[75.93292,14.48146],[75.934,14.48184],[75.93435,14.48156],[75.9366,14.48271],[75.9372,14.48167]]]}},{"type":"Feature","properties":{"unitId":380,"unitName":"Basavapatna PS"},"geometry":{"type":"Polygon","coordinates":[[[75.87081,14.3238],[75.87183,14.32263],[75.8749,14.32099],[75.87811,14.31998],[75.87826,14.31919],[75.87572,14.29671],[75.87507,14.28539],[75.87926,14.27492],[75.8799,14.27497],[75.88371,14.27181],[75.88921,14.27064],[75.89551,14.26259],[75.89736,14.25797],[75.90102,14.25959],[75.90263,14.25726],[75.89952,14.25439],[75.89947,14.25084],[75.89878,14.24905],[75.89879,14.24438],[75.89702,14.23893],[75.89667,14.23552],[75.89695,14.23369],[75.89607,14.22814],[75.89775,14.22689],[75.89642,14.2183],[75.89647,14.21726],[75.89707,14.21727],[75.89724,14.21453],[75.89672,14.20746],[75.89825,14.20671],[75.89711,14.20369],[75.89482,14.20086],[75.89237,14.19893],[75.89318,14.19273],[75.89448,14.19071],[75.89427,14.1875],[75.88978,14.18549],[75.89102,14.18208],[75.89233,14.18029],[75.89464,14.175],[75.88754,14.17232],[75.88607,14.17069],[75.8864,14.16824],[75.88536,14.1667],[75.88858,14.16516],[75.90018,14.1618],[75.8995,14.15867],[75.89974,14.14912],[75.89871,14.1447],[75.89914,14.14269],[75.89757,14.14133],[75.89661,14.14119],[75.89608,14.14279],[75.89802,14.14693],[75.89378,14.14761],[75.89384,14.14827],[75.89267,14.149],[75.89289,14.13193],[75.86616,14.13291],[75.86587,14.1328],[75.86742,14.13016],[75.85738,14.12751],[75.85354,14.12505],[75.85579,14.1175],[75.85115,14.11761],[75.84849,14.11586],[75.84302,14.11611],[75.84393,14.11548],[75.84371,14.11412],[75.84061,14.11487],[75.83986,14.11615],[75.838,14.11626],[75.83736,14.11548],[75.83092,14.11582],[75.83094,14.12235],[75.82702,14.12254],[75.82525,14.12322],[75.82216,14.12282],[75.81691,14.12313],[75.80203,14.11942],[75.80034,14.13716],[75.79962,14.13964],[75.79759,14.14296],[75.79322,14.14738],[75.77818,14.16037],[75.76935,14.16608],[75.75965,14.16981],[75.75592,14.16842],[75.75147,14.17177],[75.74354,14.18226],[75.73425,14.19294],[75.73624,14.20634],[75.73781,14.20682],[75.75419,14.20441],[75.75496,14.21293],[75.75016,14.22088],[75.74971,14.22547],[75.75044,14.23132],[75.76071,14.2398],[75.76227,14.24052],[75.76858,14.2416],[75.76891,14.2408],[75.78042,14.24215],[75.78347,14.24423],[75.79261,14.24704],[75.79829,14.24747],[75.8045,14.24883],[75.80947,14.24913],[75.80993,14.25455],[75.80945,14.25927],[75.81016,14.26177],[75.81187,14.26448],[75.81241,14.26889],[75.8125,14.2735],[75.81135,14.27755],[75.81118,14.28311],[75.8123,14.28633],[75.81403,14.30133],[75.82156,14.30096],[75.82628,14.30124],[75.82861,14.29887],[75.83603,14.29881],[75.83629,14.30049],[75.84236,14.30022],[75.84219,14.30102],[75.84283,14.30236],[75.84391,14.30275],[75.84331,14.30376],[75.84202,14.30435],[75.84121,14.30697],[75.84235,14.30815],[75.84379,14.30778],[75.84464,14.30887],[75.84449,14.30994],[75.84588,14.30988],[75.84629,14.3135],[75.84845,14.31548],[75.84909,14.31713],[75.84652,14.3195],[75.84562,14.32248],[75.84637,14.32381],[75.84829,14.32386],[75.84846,14.32306],[75.85647,14.32395],[75.86143,14.32374],[75.8696,14.3252],[75.87081,14.3238]]]}},{"type":"Feature","properties":{"unitId":381,"unitName":"Channagiri PS"},"geometry":{"type":"Polygon","coordinates":[[[75.95779,14.1184],[75.95948,14.11819],[75.96113,14.11916],[75.96481,14.11764],[75.97059,14.11786],[75.97314,14.11997],[75.97563,14.12117],[75.97594,14.12159],[75.97563,14.12329],[75.97858,14.12535],[75.97975,14.12487],[75.97849,14.12227],[75.98076,14.11834],[75.98306,14.1184],[75.98587,14.11613],[75.98716,14.11661],[75.98831,14.11783],[75.9901,14.11789],[75.99041,14.11826],[75.99013,14.11981],[75.99061,14.12073],[75.99367,14.12201],[75.99425,14.12156],[75.99421,14.12066],[75.99605,14.12081],[75.99648,14.12135],[75.99781,14.12031],[75.99934,14.1203],[76.00093,14.119],[76.00017,14.1156],[76.00247,14.11695],[76.00393,14.11861],[76.00741,14.12025],[76.00888,14.12051],[76.01092,14.11978],[76.01346,14.1199],[76.01399,14.11888],[76.01346,14.1181],[76.0149,14.11737],[76.01673,14.11812],[76.01808,14.11802],[76.01852,14.11609],[76.02147,14.11626],[76.02251,14.11494],[76.02226,14.11402],[76.02544,14.11343],[76.02634,14.10446],[76.02547,14.10036],[76.03493,14.09988],[76.03415,14.09587],[76.03272,14.09558],[76.03274,14.09468],[76.03378,14.09333],[76.03402,14.09085],[76.03473,14.09046],[76.03695,14.09059],[76.0412,14.09454],[76.04723,14.09722],[76.04769,14.09721],[76.0502,14.09435],[76.05227,14.09401],[76.0527,14.09232],[76.05485,14.08924],[76.05356,14.0818],[76.05437,14.07518],[76.05568,14.07263],[76.05416,14.06704],[76.05405,14.06171],[76.05172,14.06057],[76.05143,14.05691],[76.04978,14.05494],[76.04848,14.04485],[76.04829,14.03808],[76.05116,14.03785],[76.05115,14.03008],[76.04805,14.01264],[76.04593,14.01317],[76.04311,13.99027],[76.04418,13.99008],[76.04363,13.98724],[76.04731,13.98249],[76.04987,13.98343],[76.05118,13.97875],[76.07238,13.98215],[76.07119,13.97451],[76.06922,13.96759],[76.06853,13.95432],[76.06884,13.94783],[76.06723,13.94567],[76.06596,13.94135],[76.0466,13.94076],[76.0448,13.94206],[76.03824,13.93066],[76.03241,13.92178],[76.02925,13.9204],[76.02851,13.89876],[76.03468,13.89753],[76.03318,13.88144],[76.03211,13.88142],[76.02996,13.87501],[76.02902,13.87545],[76.02737,13.87499],[76.02753,13.8719],[76.02911,13.87088],[76.03002,13.87102],[76.03126,13.86861],[76.03084,13.86869],[76.03044,13.86743],[76.02645,13.86805],[76.02652,13.86679],[76.02606,13.86683],[76.02492,13.86474],[76.02436,13.86482],[76.02343,13.86327],[76.02229,13.86343],[76.02222,13.86268],[76.02088,13.86225],[76.01711,13.86477],[76.0159,13.87054],[76.01002,13.86516],[76.00598,13.86688],[76.00293,13.86308],[76.00274,13.86084],[75.99384,13.85035],[75.99245,13.84918],[75.98834,13.84781],[75.9842,13.84757],[75.98305,13.84839],[75.98091,13.84793],[75.97711,13.84868],[75.97509,13.85258],[75.97177,13.85282],[75.96985,13.85399],[75.96923,13.85347],[75.96907,13.85498],[75.96379,13.84554],[75.96145,13.84502],[75.96154,13.84413],[75.95842,13.84294],[75.95871,13.8425],[75.95806,13.84155],[75.95849,13.8413],[75.95836,13.84026],[75.95762,13.83977],[75.95673,13.84013],[75.95689,13.83974],[75.95641,13.83957],[75.95577,13.83997],[75.95527,13.83944],[75.95514,13.83745],[75.95295,13.83708],[75.95337,13.83646],[75.95293,13.83562],[75.95247,13.83512],[75.95167,13.83519],[75.9479,13.83072],[75.9489,13.82599],[75.95041,13.8249],[75.94993,13.82122],[75.94933,13.82013],[75.95295,13.8181],[75.95215,13.81602],[75.94951,13.81635],[75.94708,13.81725],[75.9461,13.81413],[75.93997,13.8127],[75.93567,13.81263],[75.93143,13.8142],[75.92783,13.81391],[75.92666,13.81349],[75.92024,13.80726],[75.90702,13.80674],[75.90644,13.8083],[75.90209,13.81259],[75.89915,13.8115],[75.89415,13.81107],[75.89327,13.80704],[75.89021,13.80841],[75.88629,13.80921],[75.87713,13.80916],[75.87266,13.83246],[75.86897,13.83989],[75.86604,13.85592],[75.86509,13.87259],[75.86994,13.90372],[75.86385,13.90641],[75.85121,13.93233],[75.84171,13.94925],[75.8331,13.96704],[75.83274,13.96682],[75.83093,13.97488],[75.83201,13.98967],[75.82462,14.00643],[75.82535,14.0082],[75.82465,14.01794],[75.82166,14.01798],[75.80877,14.02405],[75.8031,14.02321],[75.79905,14.03351],[75.80211,14.04287],[75.81309,14.04757],[75.81234,14.04773],[75.8137,14.05014],[75.81465,14.05076],[75.82101,14.06364],[75.82019,14.07037],[75.82275,14.074],[75.81968,14.0838],[75.81361,14.09505],[75.81293,14.10376],[75.815,14.10521],[75.81431,14.1055],[75.81458,14.10576],[75.80466,14.10976],[75.80203,14.11942],[75.81691,14.12313],[75.82216,14.12282],[75.82525,14.12322],[75.82702,14.12254],[75.83094,14.12235],[75.83092,14.11582],[75.83736,14.11548],[75.838,14.11626],[75.83986,14.11615],[75.84061,14.11487],[75.84371,14.11412],[75.84393,14.11548],[75.84302,14.11611],[75.84849,14.11586],[75.85115,14.11761],[75.85579,14.1175],[75.85354,14.12505],[75.85738,14.12751],[75.86742,14.13016],[75.86587,14.1328],[75.86616,14.13291],[75.92129,14.13088],[75.94734,14.12589],[75.9543,14.1226],[75.95397,14.12236],[75.95511,14.1212],[75.95612,14.12113],[75.95779,14.1184]]]}},{"type":"Feature","properties":{"unitId":382,"unitName":"Santhebennur PS"},"geometry":{"type":"Polygon","coordinates":[[[75.90639,14.27347],[75.9098,14.26494],[75.91407,14.25605],[75.919,14.25156],[75.92969,14.25068],[75.93012,14.25137],[75.93145,14.25069],[75.93558,14.25088],[75.93533,14.2543],[75.94429,14.25461],[75.94429,14.2482],[75.9461,14.24623],[75.95039,14.24416],[75.95893,14.23838],[75.95989,14.23587],[75.96073,14.23501],[75.96674,14.23536],[75.97277,14.23799],[75.97457,14.23977],[75.97808,14.24552],[75.97915,14.24893],[75.97897,14.25231],[75.97994,14.25645],[75.98203,14.25851],[75.99097,14.26023],[75.99379,14.26004],[75.99394,14.25872],[76.00889,14.25926],[76.0095,14.25411],[76.0112,14.25402],[76.01383,14.24794],[76.01437,14.24755],[76.01641,14.24887],[76.0178,14.24909],[76.01843,14.24865],[76.01939,14.24579],[76.01996,14.24538],[76.02464,14.24645],[76.03078,14.24603],[76.03059,14.24436],[76.03377,14.24345],[76.03761,14.24356],[76.03776,14.24237],[76.04049,14.24003],[76.04812,14.23988],[76.04901,14.24191],[76.05373,14.24133],[76.05499,14.23202],[76.05432,14.22479],[76.06097,14.22241],[76.06406,14.21593],[76.06495,14.20959],[76.06596,14.20631],[76.06427,14.20659],[76.06343,14.20561],[76.06318,14.20372],[76.06024,14.20316],[76.06009,14.20238],[76.05801,14.20265],[76.05669,14.19912],[76.05639,14.19545],[76.05744,14.18126],[76.06624,14.18149],[76.06502,14.17774],[76.06558,14.17516],[76.06572,14.1706],[76.06423,14.17144],[76.06345,14.16903],[76.06385,14.15996],[76.04574,14.15549],[76.04667,14.1503],[76.04662,14.14523],[76.04029,14.14338],[76.03568,14.1356],[76.03266,14.13444],[76.03361,14.125],[76.03333,14.12405],[76.03245,14.12427],[76.03218,14.12391],[76.03199,14.12165],[76.0331,14.12027],[76.03028,14.12006],[76.02958,14.12059],[76.02782,14.11972],[76.02773,14.11857],[76.02674,14.11801],[76.02699,14.11719],[76.02634,14.11423],[76.02544,14.11343],[76.02226,14.11402],[76.02251,14.11494],[76.02147,14.11626],[76.01852,14.11609],[76.01808,14.11802],[76.01673,14.11812],[76.0149,14.11737],[76.01346,14.1181],[76.01399,14.11888],[76.01346,14.1199],[76.01092,14.11978],[76.00888,14.12051],[76.00393,14.11861],[76.00247,14.11695],[76.00017,14.1156],[76.00093,14.119],[75.99934,14.1203],[75.99781,14.12031],[75.99648,14.12135],[75.99605,14.12081],[75.99421,14.12066],[75.99425,14.12156],[75.99367,14.12201],[75.99061,14.12073],[75.99013,14.11981],[75.99041,14.11826],[75.9901,14.11789],[75.98831,14.11783],[75.98716,14.11661],[75.98587,14.11613],[75.98306,14.1184],[75.98076,14.11834],[75.97849,14.12227],[75.97968,14.12437],[75.97935,14.12531],[75.978,14.12523],[75.97653,14.12417],[75.97563,14.12329],[75.97594,14.12159],[75.97563,14.12117],[75.97314,14.11997],[75.97059,14.11786],[75.96481,14.11764],[75.96113,14.11916],[75.9583,14.11804],[75.95612,14.12113],[75.95511,14.1212],[75.95397,14.12236],[75.9543,14.1226],[75.94734,14.12589],[75.92129,14.13088],[75.89289,14.13193],[75.89267,14.149],[75.89384,14.14827],[75.89378,14.14761],[75.89802,14.14693],[75.89608,14.14279],[75.89661,14.14119],[75.89757,14.14133],[75.89914,14.14269],[75.89871,14.1447],[75.89974,14.14912],[75.8995,14.15867],[75.90018,14.1618],[75.88858,14.16516],[75.88536,14.1667],[75.8864,14.16824],[75.88607,14.17069],[75.88754,14.17232],[75.89464,14.175],[75.89233,14.18029],[75.89102,14.18208],[75.88978,14.18549],[75.89427,14.1875],[75.89448,14.19071],[75.89318,14.19273],[75.89237,14.19893],[75.89482,14.20086],[75.89711,14.20369],[75.89825,14.20671],[75.89672,14.20746],[75.89724,14.21453],[75.89707,14.21727],[75.89647,14.21726],[75.89642,14.2183],[75.89775,14.22689],[75.89607,14.22814],[75.89695,14.23369],[75.89667,14.23552],[75.89702,14.23893],[75.89879,14.24438],[75.89878,14.24905],[75.89947,14.25084],[75.89952,14.25439],[75.90263,14.25726],[75.90102,14.25959],[75.89736,14.25797],[75.89551,14.26259],[75.88928,14.27055],[75.8908,14.27094],[75.89546,14.2736],[75.89952,14.27295],[75.90639,14.27347]]]}},{"type":"Feature","properties":{"unitId":383,"unitName":"Davanagere Rural PS"},"geometry":{"type":"MultiPolygon","coordinates":[[[[75.92294,14.5636],[75.92463,14.56191],[75.9325,14.56165],[75.9366,14.56065],[75.93933,14.56055],[75.94208,14.5518],[75.94181,14.54208],[75.94301,14.5408],[75.94456,14.54072],[75.94411,14.53789],[75.94471,14.53257],[75.94569,14.53261],[75.94784,14.5275],[75.94795,14.5252],[75.94685,14.52377],[75.95448,14.52147],[75.96814,14.51964],[75.97767,14.5199],[75.99602,14.5177],[76.00537,14.5183],[76.00606,14.51774],[76.01551,14.52167],[76.01886,14.52246],[76.02127,14.52226],[76.02254,14.52299],[76.02323,14.52247],[76.02583,14.52264],[76.02769,14.52444],[76.02905,14.52322],[76.0296,14.52143],[76.03289,14.52214],[76.03708,14.52133],[76.03795,14.51926],[76.04891,14.51456],[76.05118,14.51286],[76.05111,14.5102],[76.05275,14.50549],[76.05761,14.50797],[76.06685,14.51125],[76.08844,14.51523],[76.08829,14.51827],[76.09704,14.5226],[76.09716,14.52361],[76.10726,14.5238],[76.11974,14.52679],[76.12655,14.52711],[76.1265,14.52745],[76.12884,14.52715],[76.1288,14.52788],[76.13057,14.52706],[76.13068,14.52626],[76.12992,14.52497],[76.12982,14.52303],[76.13025,14.52188],[76.12956,14.52108],[76.12824,14.52209],[76.12784,14.52081],[76.12927,14.51868],[76.13004,14.51554],[76.13047,14.51479],[76.1327,14.51362],[76.13391,14.51152],[76.13566,14.51051],[76.13752,14.51086],[76.13848,14.50877],[76.13698,14.49806],[76.13498,14.49008],[76.13482,14.48542],[76.12722,14.48111],[76.12872,14.47275],[76.12837,14.47048],[76.1264,14.46931],[76.1233,14.46598],[76.12154,14.46199],[76.12344,14.44752],[76.12352,14.44313],[76.1254,14.44034],[76.12647,14.43557],[76.12966,14.43307],[76.12953,14.43052],[76.13669,14.42609],[76.14025,14.42113],[76.14165,14.41825],[76.14131,14.41748],[76.1427,14.41142],[76.14877,14.40803],[76.15076,14.40236],[76.15357,14.39714],[76.15349,14.39297],[76.15401,14.39005],[76.15379,14.38329],[76.15538,14.37753],[76.15196,14.3777],[76.15063,14.3764],[76.15128,14.36484],[76.15038,14.36472],[76.14905,14.36555],[76.14526,14.36564],[76.14317,14.36617],[76.13694,14.36527],[76.13485,14.36243],[76.13022,14.36282],[76.1296,14.35938],[76.12505,14.35648],[76.12256,14.35755],[76.12231,14.35465],[76.11448,14.35213],[76.11167,14.35533],[76.10449,14.35937],[76.0902,14.36385],[76.08928,14.36568],[76.08755,14.36669],[76.0859,14.36629],[76.08547,14.3673],[76.08384,14.36744],[76.08381,14.36896],[76.0819,14.36931],[76.08172,14.36993],[76.08089,14.36989],[76.0798,14.3681],[76.07648,14.36949],[76.07696,14.37225],[76.07628,14.37637],[76.07415,14.37784],[76.07081,14.37927],[76.06485,14.37343],[76.05856,14.37493],[76.05689,14.37939],[76.05557,14.38015],[76.05248,14.38045],[76.04267,14.37902],[76.03654,14.37878],[76.03649,14.37555],[76.01828,14.37355],[76.01002,14.37957],[76.00247,14.38019],[75.99909,14.37977],[75.99853,14.38406],[75.99482,14.39107],[75.98464,14.38943],[75.98221,14.38985],[75.97923,14.38933],[75.97624,14.39773],[75.96742,14.39654],[75.96045,14.39661],[75.95159,14.39554],[75.95081,14.40171],[75.95245,14.40784],[75.95371,14.4102],[75.95452,14.41572],[75.95531,14.41738],[75.95734,14.41837],[75.95809,14.41985],[75.96258,14.42137],[75.96111,14.42448],[75.96386,14.42527],[75.96442,14.42467],[75.96609,14.42536],[75.96541,14.42664],[75.9677,14.43187],[75.96671,14.43203],[75.96611,14.43267],[75.9663,14.43325],[75.96545,14.43343],[75.96368,14.43523],[75.96293,14.43532],[75.96267,14.43638],[75.96305,14.43782],[75.96269,14.43862],[75.96062,14.43949],[75.96035,14.44038],[75.95895,14.4407],[75.95941,14.44255],[75.95851,14.44527],[75.95747,14.44575],[75.95614,14.44513],[75.95563,14.4472],[75.95406,14.44761],[75.95328,14.44974],[75.9521,14.44942],[75.95219,14.45048],[75.95132,14.45214],[75.9517,14.4567],[75.95043,14.45704],[75.94997,14.45776],[75.94992,14.46057],[75.94829,14.46091],[75.94866,14.46723],[75.9479,14.468],[75.94869,14.47046],[75.94693,14.47032],[75.94699,14.47132],[75.94495,14.47351],[75.94265,14.47302],[75.94102,14.47361],[75.94046,14.47546],[75.93935,14.47571],[75.93737,14.47784],[75.93777,14.48016],[75.93692,14.48264],[75.93435,14.48156],[75.93365,14.48221],[75.93465,14.48477],[75.93464,14.48557],[75.93362,14.48716],[75.93448,14.48882],[75.93407,14.48954],[75.93272,14.48921],[75.93232,14.49048],[75.93069,14.49031],[75.9293,14.49158],[75.92548,14.49241],[75.92351,14.49342],[75.92299,14.49411],[75.92329,14.49429],[75.92297,14.4955],[75.92192,14.49601],[75.92188,14.49667],[75.92037,14.49774],[75.91952,14.4964],[75.91655,14.4952],[75.91578,14.49606],[75.91671,14.49703],[75.91639,14.4986],[75.91533,14.49869],[75.91521,14.49811],[75.91401,14.49832],[75.91215,14.49759],[75.90745,14.49753],[75.907,14.49787],[75.90369,14.49778],[75.90389,14.49848],[75.89745,14.49952],[75.89746,14.50054],[75.89618,14.50077],[75.89018,14.50115],[75.88654,14.50024],[75.88706,14.4984],[75.88677,14.49726],[75.88776,14.49404],[75.88853,14.49327],[75.88881,14.48988],[75.88978,14.4881],[75.88984,14.4869],[75.88955,14.48436],[75.88491,14.4841],[75.88398,14.47465],[75.875,14.47749],[75.87607,14.469],[75.87163,14.46887],[75.87137,14.46756],[75.86974,14.46614],[75.86923,14.46443],[75.86683,14.46474],[75.86372,14.46621],[75.85809,14.46599],[75.85653,14.46363],[75.85899,14.46131],[75.859,14.45905],[75.85316,14.4616],[75.85138,14.45712],[75.84447,14.44828],[75.84357,14.44829],[75.83957,14.45472],[75.83449,14.45936],[75.83215,14.46038],[75.82598,14.46067],[75.82132,14.4623],[75.81956,14.46667],[75.81858,14.46783],[75.81826,14.4695],[75.81526,14.47304],[75.8164,14.47989],[75.816,14.48793],[75.82891,14.48731],[75.82898,14.48768],[75.83003,14.48761],[75.83076,14.49411],[75.83019,14.49495],[75.8317,14.50079],[75.83744,14.50009],[75.84216,14.49872],[75.8541,14.49943],[75.86667,14.49785],[75.87725,14.49787],[75.87459,14.4998],[75.87465,14.50027],[75.86882,14.50563],[75.86603,14.50655],[75.86601,14.50834],[75.86505,14.50949],[75.86492,14.51132],[75.86446,14.51125],[75.86401,14.51242],[75.86282,14.5127],[75.86245,14.51399],[75.85518,14.51595],[75.84985,14.51605],[75.84567,14.51549],[75.84145,14.5158],[75.84032,14.51705],[75.84019,14.51828],[75.83851,14.51833],[75.8383,14.52013],[75.83633,14.52472],[75.83594,14.52946],[75.83509,14.53092],[75.83488,14.53745],[75.83848,14.53839],[75.84585,14.53937],[75.85627,14.54182],[75.85968,14.54294],[75.8601,14.54502],[75.86897,14.54601],[75.86982,14.54475],[75.89115,14.54203],[75.89096,14.55071],[75.89395,14.55182],[75.89703,14.55545],[75.90185,14.55746],[75.90753,14.55708],[75.91008,14.55617],[75.91024,14.56292],[75.92069,14.56425],[75.92294,14.5636]]],[[[75.92541,14.42788],[75.9255,14.42569],[75.92441,14.42328],[75.92499,14.42177],[75.92686,14.42029],[75.92845,14.41978],[75.93133,14.41926],[75.93416,14.41956],[75.93669,14.41898],[75.93638,14.41696],[75.92901,14.41414],[75.92554,14.40544],[75.92361,14.40579],[75.90684,14.40071],[75.90825,14.40726],[75.90792,14.41624],[75.90852,14.42684],[75.91349,14.42765],[75.91334,14.42683],[75.91488,14.4268],[75.91802,14.42792],[75.91887,14.42729],[75.91991,14.42731],[75.9233,14.42796],[75.92421,14.429],[75.92541,14.42788]]]]}},{"type":"Feature","properties":{"unitId":384,"unitName":"Hadadi PS"},"geometry":{"type":"Polygon","coordinates":[[[75.88609,14.42818],[75.88732,14.42748],[75.8878,14.42843],[75.89224,14.42681],[75.89617,14.42601],[75.90852,14.42684],[75.90792,14.41624],[75.90825,14.40726],[75.90684,14.40071],[75.92361,14.40579],[75.92554,14.40544],[75.92901,14.41414],[75.93638,14.41696],[75.93669,14.41898],[75.94094,14.41809],[75.94342,14.41953],[75.95006,14.42117],[75.95333,14.4225],[75.95516,14.41896],[75.95809,14.41985],[75.95808,14.4193],[75.95734,14.41837],[75.95531,14.41738],[75.95452,14.41572],[75.95371,14.4102],[75.95245,14.40784],[75.95081,14.40171],[75.95159,14.39554],[75.96045,14.39661],[75.96742,14.39654],[75.97624,14.39773],[75.97923,14.38933],[75.98221,14.38985],[75.98464,14.38943],[75.99482,14.39107],[75.99853,14.38406],[75.99909,14.37977],[75.9984,14.37866],[75.99285,14.3753],[75.98169,14.36658],[75.97003,14.36235],[75.956,14.35884],[75.95508,14.35601],[75.95608,14.35256],[75.95597,14.35053],[75.95691,14.34567],[75.95832,14.34549],[75.95948,14.34467],[75.95919,14.34308],[75.96346,14.34286],[75.96877,14.34177],[75.97185,14.34194],[75.97253,14.33967],[75.97204,14.33876],[75.9738,14.33063],[75.9733,14.32684],[75.97449,14.31816],[75.97554,14.31807],[75.97513,14.31587],[75.9763,14.31236],[75.97584,14.31133],[75.97642,14.30592],[75.97565,14.30292],[75.97578,14.29796],[75.98868,14.29498],[75.99105,14.2877],[75.98739,14.27927],[75.98615,14.27378],[75.98893,14.27262],[75.98951,14.27161],[75.98955,14.27022],[75.99142,14.27028],[75.99158,14.26904],[75.99398,14.26928],[75.99496,14.26879],[75.99628,14.26487],[75.99379,14.26004],[75.99097,14.26023],[75.98203,14.25851],[75.98074,14.25738],[75.97942,14.25495],[75.97897,14.25231],[75.97915,14.24893],[75.97707,14.24353],[75.97457,14.23977],[75.97277,14.23799],[75.96767,14.23561],[75.96459,14.235],[75.96073,14.23501],[75.95989,14.23587],[75.95893,14.23838],[75.95039,14.24416],[75.9461,14.24623],[75.94429,14.2482],[75.94429,14.25461],[75.93533,14.2543],[75.93558,14.25088],[75.93145,14.25069],[75.93012,14.25137],[75.92969,14.25068],[75.919,14.25156],[75.91407,14.25605],[75.9098,14.26494],[75.90636,14.27355],[75.89952,14.27295],[75.89546,14.2736],[75.8908,14.27094],[75.88928,14.27055],[75.88371,14.27181],[75.8799,14.27497],[75.87926,14.27492],[75.87507,14.28539],[75.87572,14.29671],[75.87674,14.30349],[75.87811,14.31998],[75.8749,14.32099],[75.87183,14.32263],[75.8696,14.3252],[75.86143,14.32374],[75.85647,14.32395],[75.84846,14.32306],[75.84829,14.32386],[75.84637,14.32381],[75.84551,14.32237],[75.84496,14.32243],[75.84378,14.32357],[75.84426,14.32409],[75.84395,14.32513],[75.84533,14.32551],[75.84551,14.32671],[75.84461,14.32937],[75.84298,14.33031],[75.84297,14.331],[75.8418,14.33176],[75.84084,14.33161],[75.83921,14.33042],[75.83862,14.33054],[75.83738,14.33307],[75.8382,14.33362],[75.83858,14.33294],[75.83983,14.33329],[75.84016,14.33463],[75.83961,14.33494],[75.84036,14.33564],[75.83983,14.33661],[75.83672,14.33779],[75.8333,14.33783],[75.83255,14.34282],[75.83093,14.34406],[75.82976,14.34416],[75.82895,14.34516],[75.82952,14.34577],[75.82898,14.34666],[75.83019,14.35019],[75.82985,14.35152],[75.83152,14.35212],[75.83261,14.35164],[75.83356,14.35355],[75.83482,14.35347],[75.83355,14.3571],[75.83462,14.35881],[75.83245,14.35979],[75.83232,14.36078],[75.83153,14.36167],[75.83203,14.36284],[75.83052,14.36339],[75.83031,14.3638],[75.83131,14.36451],[75.83109,14.3658],[75.8302,14.3653],[75.83016,14.36438],[75.82876,14.36355],[75.8282,14.36474],[75.8267,14.36537],[75.82561,14.36774],[75.82579,14.36936],[75.82941,14.37178],[75.82973,14.37245],[75.82859,14.37503],[75.82633,14.37599],[75.82605,14.37657],[75.82745,14.37746],[75.82788,14.3789],[75.82995,14.38079],[75.83143,14.38357],[75.83105,14.38649],[75.82966,14.3874],[75.82773,14.39083],[75.82997,14.39063],[75.83184,14.38841],[75.83589,14.38648],[75.83907,14.38676],[75.84304,14.3879],[75.84273,14.38848],[75.8444,14.39103],[75.84595,14.40436],[75.84663,14.40424],[75.84566,14.4093],[75.84669,14.41619],[75.86168,14.41974],[75.86693,14.41989],[75.86798,14.41748],[75.87873,14.41473],[75.88132,14.41332],[75.88159,14.41579],[75.88116,14.42093],[75.88375,14.42316],[75.88417,14.42447],[75.884,14.42528],[75.88176,14.42557],[75.88355,14.42965],[75.88609,14.42818]]]}},{"type":"Feature","properties":{"unitId":385,"unitName":"Mayakonda PS"},"geometry":{"type":"Polygon","coordinates":[[[76.0564,14.37969],[76.05689,14.37939],[76.05856,14.37493],[76.06485,14.37343],[76.07081,14.37927],[76.07415,14.37784],[76.07628,14.37637],[76.07696,14.37225],[76.07648,14.36949],[76.0798,14.3681],[76.08089,14.36989],[76.08172,14.36993],[76.0819,14.36931],[76.08381,14.36896],[76.08384,14.36744],[76.08547,14.3673],[76.0859,14.36629],[76.08755,14.36669],[76.08928,14.36568],[76.0902,14.36385],[76.10449,14.35937],[76.11167,14.35533],[76.11448,14.35213],[76.12231,14.35465],[76.12256,14.35755],[76.12505,14.35648],[76.1296,14.35938],[76.13022,14.36282],[76.13485,14.36243],[76.13694,14.36527],[76.14317,14.36617],[76.14526,14.36564],[76.14905,14.36555],[76.15038,14.36472],[76.15128,14.36484],[76.15317,14.36347],[76.15406,14.36335],[76.15567,14.35844],[76.1558,14.35346],[76.15512,14.34981],[76.15726,14.33649],[76.15886,14.3297],[76.1566,14.3238],[76.15649,14.32122],[76.15722,14.32107],[76.15379,14.3182],[76.1525,14.31843],[76.14679,14.32128],[76.12451,14.32357],[76.12037,14.32389],[76.11677,14.32357],[76.10973,14.31735],[76.10897,14.313],[76.10796,14.31167],[76.10617,14.31084],[76.10594,14.30894],[76.10873,14.30616],[76.10977,14.30188],[76.1152,14.30106],[76.12146,14.28962],[76.1191,14.28392],[76.11708,14.27735],[76.1199,14.27977],[76.12513,14.28253],[76.12998,14.28181],[76.13037,14.2751],[76.12985,14.27342],[76.131,14.27191],[76.13049,14.26882],[76.13395,14.26444],[76.13506,14.26174],[76.13473,14.25601],[76.13036,14.25537],[76.12245,14.25222],[76.11814,14.25148],[76.10044,14.24905],[76.08889,14.24893],[76.07984,14.24712],[76.07945,14.24528],[76.07774,14.24277],[76.07738,14.23796],[76.07599,14.23379],[76.07435,14.22974],[76.07357,14.22982],[76.07255,14.2266],[76.06518,14.22427],[76.061,14.22234],[76.05432,14.22479],[76.05499,14.23202],[76.05373,14.24133],[76.04901,14.24191],[76.04812,14.23988],[76.04049,14.24003],[76.03776,14.24237],[76.03761,14.24356],[76.03377,14.24345],[76.03059,14.24436],[76.03078,14.24603],[76.02464,14.24645],[76.01996,14.24538],[76.01939,14.24579],[76.01843,14.24865],[76.0178,14.24909],[76.01641,14.24887],[76.01437,14.24755],[76.01383,14.24794],[76.0112,14.25402],[76.0095,14.25411],[76.00889,14.25926],[75.99394,14.25872],[75.99379,14.26004],[75.99628,14.26487],[75.99496,14.26879],[75.99398,14.26928],[75.99158,14.26904],[75.99142,14.27028],[75.98955,14.27022],[75.98951,14.27161],[75.98893,14.27262],[75.98615,14.27378],[75.98739,14.27927],[75.99105,14.2877],[75.98868,14.29498],[75.97578,14.29796],[75.97565,14.30292],[75.97642,14.30592],[75.97584,14.31133],[75.9763,14.31236],[75.97513,14.31587],[75.97554,14.31807],[75.97449,14.31816],[75.9733,14.32684],[75.9738,14.33063],[75.97204,14.33876],[75.97253,14.33967],[75.97185,14.34194],[75.96877,14.34177],[75.96346,14.34286],[75.95919,14.34308],[75.95948,14.34467],[75.95832,14.34549],[75.95691,14.34567],[75.95597,14.35053],[75.95608,14.35256],[75.95508,14.35601],[75.956,14.35884],[75.97003,14.36235],[75.98169,14.36658],[75.99285,14.3753],[75.9984,14.37866],[75.99909,14.37977],[76.00247,14.38019],[76.01002,14.37957],[76.01828,14.37355],[76.03649,14.37555],[76.03654,14.37878],[76.04267,14.37902],[76.0513,14.38041],[76.05557,14.38015],[76.0564,14.37969]]]}},{"type":"Feature","properties":{"unitId":386,"unitName":"Harihara Rural PS"},"geometry":{"type":"MultiPolygon","coordinates":[[[[75.78876,14.51172],[75.79294,14.51042],[75.79481,14.51045],[75.79825,14.50085],[75.79866,14.49785],[75.79761,14.49601],[75.79423,14.49387],[75.78539,14.49291],[75.78504,14.49278],[75.78564,14.49188],[75.78973,14.48923],[75.80288,14.48374],[75.80944,14.48136],[75.81639,14.4798],[75.81526,14.47304],[75.81826,14.4695],[75.81858,14.46783],[75.81956,14.46667],[75.82132,14.4623],[75.82598,14.46067],[75.83215,14.46038],[75.83449,14.45936],[75.83957,14.45472],[75.84357,14.44829],[75.84457,14.44836],[75.84982,14.45494],[75.85647,14.45021],[75.85958,14.45058],[75.86258,14.45193],[75.86541,14.45259],[75.86617,14.45015],[75.86881,14.44856],[75.86967,14.4471],[75.87024,14.44128],[75.871,14.44047],[75.87423,14.43913],[75.8755,14.43791],[75.87752,14.43762],[75.88029,14.43579],[75.88217,14.43439],[75.88219,14.4322],[75.8878,14.42843],[75.88732,14.42748],[75.88355,14.42965],[75.88176,14.42557],[75.884,14.42528],[75.88417,14.42447],[75.88375,14.42316],[75.88116,14.42093],[75.88159,14.41579],[75.88132,14.41332],[75.87873,14.41473],[75.86798,14.41748],[75.86693,14.41989],[75.86168,14.41974],[75.84669,14.41619],[75.84566,14.4093],[75.84663,14.40424],[75.84595,14.40436],[75.8444,14.39103],[75.84273,14.38848],[75.84304,14.3879],[75.83907,14.38676],[75.83589,14.38648],[75.83184,14.38841],[75.82997,14.39063],[75.82712,14.39105],[75.82667,14.39051],[75.82571,14.39125],[75.82444,14.39324],[75.82571,14.39679],[75.82275,14.40023],[75.81766,14.40051],[75.81626,14.4031],[75.81779,14.40901],[75.81184,14.41123],[75.8099,14.4127],[75.80863,14.41411],[75.80764,14.41754],[75.80681,14.41886],[75.80537,14.41953],[75.80347,14.41968],[75.80119,14.41887],[75.7995,14.42011],[75.7964,14.4236],[75.79564,14.42735],[75.79242,14.42723],[75.79035,14.42788],[75.78902,14.43181],[75.78644,14.43565],[75.78575,14.43606],[75.78393,14.43592],[75.77966,14.43401],[75.77253,14.4321],[75.77066,14.43292],[75.76992,14.43494],[75.76998,14.43633],[75.77179,14.43855],[75.77345,14.43927],[75.77364,14.44107],[75.77091,14.44428],[75.76825,14.44575],[75.76803,14.44735],[75.76427,14.4489],[75.76316,14.44893],[75.75885,14.45181],[75.75528,14.45246],[75.75405,14.45542],[75.7546,14.46167],[75.75263,14.46146],[75.74997,14.46041],[75.74645,14.46082],[75.74624,14.4599],[75.74228,14.45992],[75.74163,14.45691],[75.7407,14.45703],[75.74052,14.45609],[75.73873,14.45434],[75.73468,14.45473],[75.73689,14.46329],[75.73724,14.46839],[75.7339,14.46853],[75.73287,14.47459],[75.72779,14.47956],[75.72697,14.47988],[75.72641,14.47896],[75.72454,14.4797],[75.72824,14.48456],[75.73501,14.49502],[75.74205,14.50104],[75.74367,14.50314],[75.74845,14.50751],[75.75064,14.5106],[75.75778,14.51472],[75.76035,14.51534],[75.7622,14.5166],[75.76537,14.51767],[75.77279,14.51849],[75.77511,14.51812],[75.78307,14.51566],[75.78876,14.51172]]],[[[75.81715,14.63601],[75.81785,14.635],[75.81902,14.63528],[75.81929,14.6341],[75.82032,14.63415],[75.82054,14.6322],[75.82203,14.633],[75.82309,14.63185],[75.82374,14.6323],[75.8266,14.63258],[75.82768,14.63394],[75.82941,14.63482],[75.83371,14.63587],[75.83445,14.63586],[75.83577,14.63359],[75.83714,14.63008],[75.8365,14.62736],[75.83456,14.62255],[75.83139,14.61785],[75.83029,14.61545],[75.8298,14.6129],[75.83217,14.60733],[75.83395,14.60783],[75.83583,14.60691],[75.83742,14.60844],[75.83809,14.60835],[75.83933,14.60707],[75.83967,14.60586],[75.84183,14.60467],[75.84354,14.60538],[75.8443,14.60727],[75.84667,14.60718],[75.84792,14.60869],[75.84986,14.60856],[75.8515,14.60909],[75.8521,14.60881],[75.85277,14.60736],[75.85466,14.60722],[75.85642,14.60825],[75.85752,14.608],[75.85817,14.60844],[75.85866,14.61244],[75.85993,14.61392],[75.86191,14.61497],[75.86259,14.61403],[75.86351,14.61368],[75.8652,14.61459],[75.86521,14.61577],[75.86612,14.61617],[75.86696,14.61144],[75.86642,14.60452],[75.86828,14.59368],[75.87354,14.59363],[75.88472,14.58972],[75.89027,14.5838],[75.89154,14.58152],[75.89436,14.57915],[75.8997,14.57664],[75.90587,14.57456],[75.90644,14.5733],[75.9088,14.57424],[75.90975,14.57191],[75.91105,14.57121],[75.91008,14.55617],[75.90753,14.55708],[75.90185,14.55746],[75.89703,14.55545],[75.89395,14.55182],[75.89096,14.55071],[75.89115,14.54203],[75.86982,14.54475],[75.86897,14.54601],[75.8601,14.54502],[75.85968,14.54294],[75.85627,14.54182],[75.84585,14.53937],[75.83848,14.53839],[75.83488,14.53745],[75.83509,14.53092],[75.83634,14.52773],[75.83629,14.52518],[75.82641,14.52513],[75.80275,14.5269],[75.79974,14.5247],[75.79793,14.52512],[75.79728,14.53144],[75.799,14.54031],[75.80091,14.54475],[75.80813,14.55051],[75.81268,14.55498],[75.81871,14.56271],[75.8197,14.56567],[75.81974,14.56816],[75.81887,14.57219],[75.81593,14.57622],[75.81044,14.58826],[75.80602,14.59378],[75.80442,14.59906],[75.80422,14.60151],[75.80541,14.60532],[75.80589,14.61175],[75.80948,14.61901],[75.80669,14.61951],[75.80764,14.63597],[75.81314,14.63593],[75.81592,14.63674],[75.81715,14.63601]]],[[[75.8385,14.5184],[75.84019,14.51828],[75.84032,14.51705],[75.84145,14.5158],[75.84567,14.51549],[75.84985,14.51605],[75.85518,14.51595],[75.86245,14.51399],[75.86282,14.5127],[75.86401,14.51242],[75.86446,14.51125],[75.86492,14.51132],[75.86505,14.50949],[75.86601,14.50834],[75.86603,14.50655],[75.86882,14.50563],[75.87465,14.50027],[75.87459,14.4998],[75.87725,14.49787],[75.86667,14.49785],[75.8541,14.49943],[75.84216,14.49872],[75.83744,14.50009],[75.8317,14.50079],[75.83019,14.49495],[75.83076,14.49411],[75.83003,14.48761],[75.82898,14.48768],[75.82891,14.48731],[75.816,14.48793],[75.81621,14.491],[75.81559,14.496],[75.81277,14.50672],[75.81435,14.50567],[75.8176,14.50511],[75.81684,14.50608],[75.81943,14.50594],[75.81827,14.51503],[75.81866,14.51532],[75.81812,14.51633],[75.81862,14.51758],[75.82661,14.52096],[75.83668,14.52414],[75.8383,14.52013],[75.8385,14.5184]]]]}},{"type":"Feature","properties":{"unitId":387,"unitName":"Harihara Town PS"},"geometry":{"type":"Polygon","coordinates":[[[75.80839,14.52635],[75.82641,14.52513],[75.83629,14.52518],[75.83668,14.52414],[75.82661,14.52096],[75.81862,14.51758],[75.81812,14.51633],[75.81866,14.51532],[75.81827,14.51503],[75.81943,14.50594],[75.81684,14.50608],[75.8176,14.50511],[75.81435,14.50567],[75.81277,14.50672],[75.81559,14.496],[75.81621,14.491],[75.81639,14.4798],[75.80944,14.48136],[75.80288,14.48374],[75.78973,14.48923],[75.78578,14.49177],[75.78504,14.49278],[75.79423,14.49387],[75.79761,14.49601],[75.79866,14.49785],[75.79867,14.49916],[75.79614,14.50756],[75.79481,14.51045],[75.79647,14.51049],[75.79933,14.51227],[75.79793,14.52512],[75.79974,14.5247],[75.80275,14.5269],[75.80839,14.52635]]]}},{"type":"Feature","properties":{"unitId":388,"unitName":"Malebennur PS"},"geometry":{"type":"Polygon","coordinates":[[[75.69777,14.49424],[75.69735,14.49322],[75.69942,14.49277],[75.70163,14.49114],[75.70846,14.47502],[75.71115,14.47318],[75.71478,14.47289],[75.72061,14.47567],[75.72294,14.4776],[75.72454,14.4797],[75.72641,14.47896],[75.72697,14.47988],[75.7298,14.47781],[75.73287,14.47459],[75.7339,14.46853],[75.73724,14.46839],[75.73689,14.46329],[75.73468,14.45473],[75.73873,14.45434],[75.74052,14.45609],[75.7407,14.45703],[75.74163,14.45691],[75.74228,14.45992],[75.74624,14.4599],[75.74645,14.46082],[75.74997,14.46041],[75.75263,14.46146],[75.7546,14.46167],[75.75405,14.45542],[75.75528,14.45246],[75.75885,14.45181],[75.76316,14.44893],[75.76427,14.4489],[75.76803,14.44735],[75.76825,14.44575],[75.77091,14.44428],[75.77364,14.44107],[75.77345,14.43927],[75.77179,14.43855],[75.76998,14.43633],[75.76992,14.43494],[75.77066,14.43292],[75.77253,14.4321],[75.77966,14.43401],[75.78393,14.43592],[75.78575,14.43606],[75.78794,14.43389],[75.79035,14.42788],[75.79242,14.42723],[75.79564,14.42735],[75.7964,14.4236],[75.7995,14.42011],[75.80119,14.41887],[75.80347,14.41968],[75.80537,14.41953],[75.80681,14.41886],[75.80764,14.41754],[75.80863,14.41411],[75.8099,14.4127],[75.81184,14.41123],[75.81779,14.40901],[75.81626,14.4031],[75.81714,14.40129],[75.81805,14.40029],[75.82275,14.40023],[75.8258,14.39649],[75.82456,14.39411],[75.82444,14.39324],[75.82512,14.39182],[75.82667,14.39051],[75.82712,14.39105],[75.82773,14.39083],[75.82966,14.3874],[75.83105,14.38649],[75.83129,14.38316],[75.82995,14.38079],[75.82788,14.3789],[75.82745,14.37746],[75.82605,14.37657],[75.82633,14.37599],[75.82859,14.37503],[75.82973,14.37245],[75.82941,14.37178],[75.82579,14.36936],[75.82561,14.36774],[75.8267,14.36537],[75.8282,14.36474],[75.82876,14.36355],[75.83016,14.36438],[75.8302,14.3653],[75.83109,14.3658],[75.83131,14.36451],[75.83031,14.3638],[75.83052,14.36339],[75.83203,14.36284],[75.83153,14.36167],[75.83232,14.36078],[75.83245,14.35979],[75.83462,14.35881],[75.83355,14.3571],[75.83482,14.35347],[75.83356,14.35355],[75.83261,14.35164],[75.83152,14.35212],[75.82985,14.35152],[75.83014,14.34991],[75.82898,14.34666],[75.82952,14.34577],[75.82895,14.34516],[75.82953,14.34434],[75.83093,14.34406],[75.83255,14.34282],[75.8325,14.34183],[75.83319,14.3405],[75.83275,14.33664],[75.82682,14.33728],[75.82354,14.33626],[75.8145,14.34132],[75.8136,14.34208],[75.81348,14.34317],[75.81111,14.34191],[75.80412,14.34356],[75.80079,14.34629],[75.79665,14.35114],[75.79513,14.35212],[75.79363,14.34372],[75.79344,14.33872],[75.7922,14.33766],[75.79247,14.33674],[75.7932,14.3363],[75.79139,14.33404],[75.79119,14.33251],[75.79111,14.33107],[75.79207,14.32859],[75.79169,14.32301],[75.78196,14.32371],[75.78041,14.32404],[75.7803,14.32489],[75.77503,14.3251],[75.77504,14.32279],[75.77258,14.32256],[75.77243,14.32151],[75.77151,14.32142],[75.77132,14.32042],[75.77042,14.32032],[75.76933,14.31936],[75.77001,14.31776],[75.76741,14.31428],[75.76788,14.31348],[75.7591,14.31262],[75.75941,14.30988],[75.75833,14.30912],[75.75498,14.29953],[75.75079,14.29785],[75.75121,14.29662],[75.7488,14.29572],[75.73155,14.29523],[75.72401,14.29254],[75.72902,14.30155],[75.72958,14.3018],[75.73005,14.303],[75.73165,14.30399],[75.7306,14.30734],[75.71887,14.30492],[75.71803,14.30698],[75.71317,14.31342],[75.71154,14.31791],[75.7055,14.32456],[75.70136,14.33148],[75.69581,14.34412],[75.6927,14.3466],[75.67343,14.35311],[75.67035,14.35333],[75.66763,14.35435],[75.66541,14.35451],[75.65714,14.35861],[75.65333,14.3615],[75.6494,14.36229],[75.64625,14.36287],[75.64281,14.36079],[75.63742,14.36117],[75.63046,14.36089],[75.62819,14.36133],[75.62779,14.3619],[75.62575,14.36033],[75.62305,14.36047],[75.62357,14.3619],[75.62325,14.3662],[75.62405,14.36943],[75.62921,14.36824],[75.62863,14.37018],[75.6299,14.37407],[75.63209,14.37633],[75.63388,14.37932],[75.629,14.38199],[75.63074,14.38631],[75.63114,14.38645],[75.6309,14.38591],[75.63215,14.38531],[75.63306,14.38611],[75.63469,14.3883],[75.63535,14.39046],[75.63762,14.39901],[75.6386,14.40573],[75.64048,14.41222],[75.64105,14.42151],[75.64392,14.43112],[75.63421,14.43293],[75.63579,14.43605],[75.63541,14.43787],[75.6369,14.43989],[75.6375,14.44172],[75.6353,14.44196],[75.63542,14.44284],[75.63303,14.44324],[75.63187,14.44528],[75.63059,14.44593],[75.6319,14.45176],[75.63661,14.46663],[75.65361,14.46352],[75.65724,14.46108],[75.65827,14.45945],[75.65935,14.45957],[75.66092,14.46056],[75.66169,14.45933],[75.66141,14.45786],[75.66102,14.45774],[75.66108,14.45662],[75.65988,14.45543],[75.66058,14.45354],[75.66031,14.45333],[75.66194,14.45156],[75.66359,14.45095],[75.66883,14.45643],[75.66967,14.45677],[75.67446,14.46244],[75.67567,14.46402],[75.67693,14.46666],[75.6766,14.46683],[75.6792,14.47028],[75.67887,14.47093],[75.68078,14.47372],[75.68245,14.4785],[75.68593,14.48303],[75.68232,14.48435],[75.685,14.48568],[75.68602,14.48937],[75.68455,14.4904],[75.6867,14.49235],[75.68956,14.49355],[75.69285,14.49415],[75.69777,14.49424]]]}},{"type":"Feature","properties":{"unitId":389,"unitName":"Honnali PS"},"geometry":{"type":"Polygon","coordinates":[[[75.65403,14.3609],[75.65714,14.35861],[75.66541,14.35451],[75.66763,14.35435],[75.67035,14.35333],[75.67343,14.35311],[75.6927,14.3466],[75.69581,14.34412],[75.70136,14.33148],[75.7055,14.32456],[75.71154,14.31791],[75.71317,14.31342],[75.71803,14.30698],[75.71887,14.30492],[75.7306,14.30734],[75.73165,14.30399],[75.73005,14.303],[75.72958,14.3018],[75.72902,14.30155],[75.72401,14.29254],[75.73155,14.29523],[75.7488,14.29572],[75.75121,14.29662],[75.75079,14.29785],[75.75498,14.29953],[75.75833,14.30912],[75.75941,14.30988],[75.7591,14.31262],[75.76788,14.31348],[75.76741,14.31428],[75.77001,14.31776],[75.76933,14.31936],[75.77042,14.32032],[75.77132,14.32042],[75.77151,14.32142],[75.77243,14.32151],[75.77258,14.32256],[75.77504,14.32279],[75.77503,14.3251],[75.7803,14.32489],[75.78041,14.32404],[75.78196,14.32371],[75.79169,14.32301],[75.79207,14.32859],[75.79111,14.33107],[75.79119,14.33251],[75.79139,14.33404],[75.7932,14.3363],[75.79247,14.33674],[75.7922,14.33766],[75.79344,14.33872],[75.79363,14.34372],[75.79513,14.35212],[75.79665,14.35114],[75.80079,14.34629],[75.80395,14.34365],[75.81111,14.34191],[75.81348,14.34317],[75.8136,14.34208],[75.8145,14.34132],[75.82354,14.33626],[75.82682,14.33728],[75.83275,14.33664],[75.83307,14.33806],[75.83557,14.33754],[75.83672,14.33779],[75.83938,14.33687],[75.84036,14.33564],[75.83961,14.33494],[75.84016,14.33463],[75.83983,14.33329],[75.83858,14.33294],[75.8382,14.33362],[75.83738,14.33307],[75.83862,14.33054],[75.83921,14.33042],[75.84084,14.33161],[75.8418,14.33176],[75.84297,14.331],[75.84298,14.33031],[75.84461,14.32937],[75.84551,14.32671],[75.84533,14.32551],[75.84395,14.32513],[75.84426,14.32409],[75.84392,14.32314],[75.84582,14.32233],[75.84652,14.3195],[75.84909,14.31713],[75.84845,14.31548],[75.84629,14.3135],[75.84588,14.30988],[75.84449,14.30994],[75.84464,14.30887],[75.84379,14.30778],[75.84235,14.30815],[75.84121,14.30697],[75.84202,14.30435],[75.84331,14.30376],[75.84391,14.30275],[75.84283,14.30236],[75.84219,14.30102],[75.84236,14.30022],[75.83629,14.30049],[75.83603,14.29881],[75.82861,14.29887],[75.82628,14.30124],[75.82156,14.30096],[75.81403,14.30133],[75.8123,14.28633],[75.81118,14.28311],[75.81135,14.27755],[75.8125,14.2735],[75.81241,14.26889],[75.81187,14.26448],[75.81016,14.26177],[75.80945,14.25927],[75.80993,14.25455],[75.80947,14.24913],[75.8045,14.24883],[75.79829,14.24747],[75.79261,14.24704],[75.78347,14.24423],[75.78042,14.24215],[75.76891,14.2408],[75.76858,14.2416],[75.76227,14.24052],[75.76071,14.2398],[75.75044,14.23132],[75.74971,14.22547],[75.75016,14.22088],[75.75496,14.21293],[75.75419,14.20441],[75.73781,14.20682],[75.73624,14.20634],[75.73425,14.19294],[75.74354,14.18226],[75.75147,14.17177],[75.75592,14.16842],[75.75965,14.16981],[75.76935,14.16608],[75.77818,14.16037],[75.79322,14.14738],[75.79759,14.14296],[75.79962,14.13964],[75.80034,14.13716],[75.80203,14.11942],[75.80466,14.10976],[75.81458,14.10576],[75.81431,14.1055],[75.815,14.10521],[75.81427,14.10437],[75.80415,14.09979],[75.78637,14.10117],[75.77192,14.10104],[75.76821,14.10161],[75.76828,14.10379],[75.76742,14.10495],[75.76786,14.10929],[75.75891,14.11068],[75.75703,14.11055],[75.75491,14.10897],[75.75495,14.1064],[75.75279,14.10203],[75.7394,14.10159],[75.73816,14.08728],[75.72978,14.08589],[75.72556,14.08451],[75.72466,14.0848],[75.72094,14.08344],[75.71132,14.09042],[75.7087,14.0939],[75.70507,14.10209],[75.70317,14.10379],[75.70067,14.10523],[75.69372,14.10543],[75.68929,14.10633],[75.68691,14.10814],[75.68682,14.11158],[75.68752,14.1146],[75.68963,14.11869],[75.69322,14.12249],[75.69679,14.12447],[75.703,14.12404],[75.70649,14.12485],[75.7098,14.12609],[75.71258,14.12795],[75.71354,14.1298],[75.71455,14.13405],[75.71838,14.14089],[75.71953,14.14397],[75.71933,14.14691],[75.71769,14.14901],[75.71378,14.1494],[75.70785,14.14821],[75.69908,14.1425],[75.69417,14.14126],[75.68945,14.14186],[75.68536,14.14434],[75.67958,14.15738],[75.68014,14.15744],[75.67992,14.15919],[75.67703,14.16363],[75.67676,14.16677],[75.68045,14.17357],[75.67958,14.17828],[75.6713,14.17703],[75.65845,14.17652],[75.65043,14.17832],[75.64728,14.17852],[75.64752,14.18142],[75.64645,14.18206],[75.64139,14.1821],[75.6393,14.18317],[75.62991,14.18516],[75.62774,14.18524],[75.62747,14.18839],[75.6086,14.19102],[75.60939,14.1974],[75.60466,14.19674],[75.58497,14.18761],[75.57709,14.19423],[75.5748,14.19194],[75.57162,14.1957],[75.57175,14.19737],[75.57005,14.20211],[75.56948,14.20592],[75.57157,14.21261],[75.57097,14.21696],[75.56911,14.22188],[75.5647,14.22418],[75.55827,14.22088],[75.5552,14.22016],[75.54912,14.2202],[75.54432,14.22192],[75.54003,14.22494],[75.53412,14.22787],[75.53069,14.22894],[75.52878,14.2303],[75.52856,14.23332],[75.5272,14.23906],[75.52694,14.24456],[75.52775,14.25847],[75.53053,14.27669],[75.53612,14.27774],[75.54004,14.27741],[75.5466,14.27557],[75.54925,14.27378],[75.55705,14.27404],[75.56097,14.27747],[75.56564,14.27712],[75.56535,14.27657],[75.57449,14.27636],[75.5783,14.27734],[75.58059,14.2773],[75.58319,14.27815],[75.58316,14.2796],[75.58769,14.28797],[75.58739,14.28881],[75.58993,14.2862],[75.59838,14.28984],[75.60038,14.29256],[75.60358,14.29297],[75.60607,14.29856],[75.60916,14.30736],[75.60975,14.30928],[75.61005,14.31347],[75.61094,14.31579],[75.63308,14.31486],[75.63387,14.32131],[75.63318,14.32398],[75.63144,14.32628],[75.62801,14.32903],[75.62321,14.34031],[75.6224,14.34595],[75.62319,14.3563],[75.62391,14.35967],[75.62282,14.35973],[75.62305,14.36047],[75.62575,14.36033],[75.62779,14.3619],[75.62819,14.36133],[75.63046,14.36089],[75.63742,14.36117],[75.64281,14.36079],[75.64625,14.36287],[75.65333,14.3615],[75.65403,14.3609]]]}},{"type":"Feature","properties":{"unitId":390,"unitName":"Nyamathi PS"},"geometry":{"type":"Polygon","coordinates":[[[75.52966,14.22928],[75.53412,14.22787],[75.54003,14.22494],[75.54432,14.22192],[75.54912,14.2202],[75.5552,14.22016],[75.55827,14.22088],[75.5647,14.22418],[75.56911,14.22188],[75.57097,14.21696],[75.57157,14.21261],[75.56948,14.20592],[75.57005,14.20211],[75.57175,14.19737],[75.57162,14.1957],[75.5748,14.19194],[75.57709,14.19423],[75.58497,14.18761],[75.60466,14.19674],[75.60939,14.1974],[75.6086,14.19102],[75.62747,14.18839],[75.62774,14.18524],[75.62991,14.18516],[75.6393,14.18317],[75.64139,14.1821],[75.64645,14.18206],[75.64752,14.18142],[75.64728,14.17852],[75.65043,14.17832],[75.65845,14.17652],[75.6713,14.17703],[75.67958,14.17828],[75.68045,14.17357],[75.67676,14.16677],[75.67703,14.16363],[75.67992,14.15919],[75.68014,14.15744],[75.67958,14.15738],[75.68536,14.14434],[75.68945,14.14186],[75.69417,14.14126],[75.69908,14.1425],[75.70785,14.14821],[75.71378,14.1494],[75.71769,14.14901],[75.71933,14.14691],[75.71953,14.14397],[75.71838,14.14089],[75.71455,14.13405],[75.71354,14.1298],[75.71258,14.12795],[75.7098,14.12609],[75.70649,14.12485],[75.703,14.12404],[75.69679,14.12447],[75.69322,14.12249],[75.68963,14.11869],[75.68752,14.1146],[75.68682,14.11158],[75.68691,14.10814],[75.68929,14.10633],[75.69372,14.10543],[75.70067,14.10523],[75.70317,14.10379],[75.70507,14.10209],[75.7087,14.0939],[75.71132,14.09042],[75.72287,14.08189],[75.72745,14.07694],[75.72579,14.07574],[75.72552,14.07605],[75.71772,14.07467],[75.71744,14.07412],[75.70896,14.07257],[75.70142,14.07248],[75.70146,14.07198],[75.69786,14.07232],[75.69383,14.07203],[75.6903,14.07009],[75.68748,14.06925],[75.67892,14.0682],[75.67398,14.0657],[75.67084,14.06596],[75.66895,14.06792],[75.66019,14.06843],[75.65141,14.07109],[75.64706,14.07431],[75.64441,14.07508],[75.64297,14.07845],[75.64053,14.08037],[75.64062,14.08133],[75.63535,14.08167],[75.63261,14.08062],[75.6325,14.07921],[75.63049,14.07459],[75.61765,14.07738],[75.61804,14.07717],[75.61303,14.0663],[75.61227,14.06367],[75.6118,14.06362],[75.61061,14.05974],[75.60933,14.05976],[75.60917,14.06019],[75.60886,14.05914],[75.60497,14.05739],[75.60142,14.05839],[75.59986,14.06125],[75.59077,14.06353],[75.58545,14.05835],[75.58031,14.06282],[75.57807,14.063],[75.57488,14.06456],[75.572,14.06528],[75.56881,14.06728],[75.55992,14.07347],[75.554,14.07893],[75.54775,14.07702],[75.54758,14.07653],[75.54623,14.07696],[75.54301,14.0803],[75.54072,14.07957],[75.54009,14.08024],[75.54038,14.08085],[75.54005,14.08173],[75.53878,14.08272],[75.53987,14.08449],[75.53913,14.08445],[75.53772,14.08569],[75.53754,14.08662],[75.53612,14.08758],[75.53613,14.08854],[75.5347,14.09029],[75.53425,14.08981],[75.53304,14.09056],[75.53347,14.09098],[75.53258,14.09258],[75.53266,14.09448],[75.53215,14.0946],[75.5314,14.09606],[75.53139,14.09668],[75.53222,14.09675],[75.5314,14.09743],[75.52962,14.09707],[75.52977,14.09644],[75.53069,14.09618],[75.53056,14.09493],[75.5287,14.09531],[75.52862,14.09364],[75.52805,14.09325],[75.52477,14.09492],[75.52433,14.09356],[75.52241,14.0952],[75.51046,14.10145],[75.50928,14.10144],[75.50775,14.1007],[75.50632,14.09888],[75.50391,14.09905],[75.50028,14.09829],[75.49459,14.09837],[75.49073,14.09778],[75.48911,14.10314],[75.48559,14.10303],[75.48366,14.10133],[75.47701,14.09967],[75.46621,14.10473],[75.45553,14.09904],[75.44817,14.09817],[75.43865,14.09866],[75.44006,14.10257],[75.43739,14.10492],[75.42712,14.10975],[75.42153,14.11067],[75.39687,14.11822],[75.40112,14.12771],[75.41661,14.14262],[75.42025,14.14136],[75.42306,14.15049],[75.42438,14.15027],[75.43274,14.15419],[75.43789,14.16036],[75.43848,14.15985],[75.46215,14.17268],[75.484,14.17679],[75.47122,14.19136],[75.46902,14.19204],[75.4533,14.2053],[75.46514,14.21024],[75.47362,14.21036],[75.47399,14.21383],[75.49489,14.21661],[75.50079,14.21822],[75.50719,14.21892],[75.5102,14.21449],[75.51377,14.21274],[75.51503,14.21003],[75.51678,14.20866],[75.51754,14.2088],[75.51795,14.20835],[75.51864,14.20686],[75.51876,14.20582],[75.51833,14.20548],[75.52002,14.20444],[75.52115,14.20296],[75.52305,14.20287],[75.52436,14.20353],[75.52555,14.20304],[75.527,14.20314],[75.52724,14.206],[75.52817,14.20661],[75.528,14.21251],[75.52871,14.21512],[75.52807,14.21526],[75.52717,14.2178],[75.52762,14.22428],[75.52646,14.22872],[75.52937,14.22867],[75.52922,14.22944],[75.52966,14.22928]]]}},{"type":"Feature","properties":{"unitId":391,"unitName":"Arasikere PS"},"geometry":{"type":"Polygon","coordinates":[[[76.01159,14.719],[76.0124,14.71829],[76.01563,14.71767],[76.01648,14.71676],[76.01582,14.71293],[76.01278,14.71068],[76.01069,14.71002],[76.01275,14.70637],[76.0113,14.70093],[76.01245,14.69853],[76.01343,14.69445],[76.01106,14.69431],[76.00998,14.69343],[76.00132,14.68167],[75.99867,14.67914],[76.00303,14.67896],[76.01034,14.67744],[76.01046,14.67651],[76.01279,14.67544],[76.0154,14.6734],[76.01866,14.67213],[76.02054,14.66675],[76.02613,14.67047],[76.02653,14.66959],[76.03083,14.67019],[76.03262,14.67],[76.03354,14.67145],[76.0369,14.67109],[76.03783,14.67176],[76.04012,14.66808],[76.0422,14.66614],[76.04296,14.66566],[76.04656,14.66541],[76.04655,14.66331],[76.04747,14.66099],[76.04758,14.65829],[76.04862,14.65777],[76.04942,14.6563],[76.04893,14.65576],[76.04902,14.65476],[76.05275,14.65437],[76.05163,14.65078],[76.05483,14.64938],[76.05683,14.64623],[76.05692,14.64955],[76.05653,14.65039],[76.05686,14.65228],[76.05863,14.65193],[76.05897,14.65236],[76.05897,14.65387],[76.05833,14.65389],[76.05856,14.65571],[76.05973,14.65767],[76.06349,14.65763],[76.06735,14.66871],[76.06529,14.67018],[76.0621,14.6746],[76.06155,14.68411],[76.06199,14.68992],[76.06126,14.69138],[76.05865,14.69115],[76.05393,14.69173],[76.05384,14.6995],[76.05576,14.70981],[76.05871,14.7098],[76.05933,14.70917],[76.0602,14.70963],[76.06288,14.7094],[76.06693,14.70804],[76.0674,14.70876],[76.0768,14.70737],[76.07677,14.70659],[76.07955,14.70633],[76.07944,14.7053],[76.08171,14.70461],[76.08161,14.70066],[76.07885,14.69321],[76.07809,14.6892],[76.08759,14.68779],[76.08741,14.68819],[76.09316,14.68903],[76.09728,14.69092],[76.10169,14.69201],[76.10804,14.69232],[76.11459,14.69502],[76.1136,14.69005],[76.10965,14.68644],[76.11203,14.6841],[76.11401,14.68301],[76.11013,14.67577],[76.1093,14.67138],[76.1086,14.67128],[76.10856,14.67056],[76.10919,14.67042],[76.10811,14.65986],[76.11117,14.6592],[76.1145,14.6594],[76.11271,14.65833],[76.11367,14.65752],[76.11916,14.6566],[76.11883,14.65307],[76.12026,14.65292],[76.1203,14.65239],[76.12278,14.65216],[76.12271,14.65045],[76.12945,14.6494],[76.12957,14.63691],[76.1301,14.63304],[76.13068,14.63294],[76.13116,14.6304],[76.13298,14.63045],[76.13295,14.62913],[76.13937,14.62982],[76.1405,14.62957],[76.14249,14.62813],[76.14128,14.62604],[76.14453,14.62465],[76.14612,14.61503],[76.14013,14.6143],[76.14052,14.61017],[76.14021,14.6063],[76.13948,14.60539],[76.14126,14.60206],[76.13925,14.60195],[76.13915,14.59918],[76.13692,14.59759],[76.13572,14.59738],[76.13584,14.59663],[76.13278,14.59597],[76.13328,14.59484],[76.13138,14.59447],[76.13153,14.58557],[76.12899,14.58345],[76.12741,14.57568],[76.12634,14.5741],[76.12236,14.57286],[76.11499,14.56792],[76.11526,14.56584],[76.11445,14.56208],[76.12017,14.56253],[76.12385,14.55958],[76.12533,14.55721],[76.12572,14.55521],[76.12772,14.55066],[76.12924,14.54988],[76.13055,14.54344],[76.13171,14.54154],[76.1335,14.54088],[76.13344,14.54005],[76.13007,14.53848],[76.1285,14.53569],[76.12841,14.53368],[76.13045,14.53236],[76.12844,14.52929],[76.12884,14.52715],[76.1265,14.52745],[76.12655,14.52711],[76.11974,14.52679],[76.10726,14.5238],[76.09716,14.52361],[76.09704,14.5226],[76.08829,14.51827],[76.08844,14.51523],[76.06685,14.51125],[76.05761,14.50797],[76.05275,14.50549],[76.05111,14.5102],[76.05118,14.51286],[76.04891,14.51456],[76.03795,14.51926],[76.03708,14.52133],[76.03289,14.52214],[76.0296,14.52143],[76.02905,14.52322],[76.02769,14.52444],[76.02583,14.52264],[76.02323,14.52247],[76.02254,14.52299],[76.02127,14.52226],[76.01886,14.52246],[76.01551,14.52167],[76.00606,14.51774],[76.00537,14.5183],[75.99801,14.51767],[75.97767,14.5199],[75.96609,14.51985],[75.95299,14.52174],[75.94685,14.52377],[75.94795,14.5252],[75.94784,14.5275],[75.94569,14.53261],[75.94471,14.53257],[75.94411,14.53789],[75.94456,14.54072],[75.94301,14.5408],[75.94181,14.54208],[75.94208,14.5518],[75.9393,14.56063],[75.93937,14.56114],[75.94039,14.56122],[75.94018,14.56377],[75.94091,14.56357],[75.94064,14.5749],[75.94124,14.57882],[75.93858,14.59171],[75.94537,14.59189],[75.95908,14.59384],[75.95831,14.59731],[75.95859,14.59994],[75.958,14.60026],[75.95774,14.60399],[75.95867,14.60412],[75.95778,14.60618],[75.95607,14.60736],[75.95372,14.614],[75.94834,14.61344],[75.94846,14.61943],[75.94719,14.62396],[75.95554,14.62946],[75.95835,14.63239],[75.95096,14.63321],[75.94519,14.63453],[75.94532,14.63533],[75.93681,14.63383],[75.9337,14.63599],[75.93143,14.63673],[75.93934,14.6371],[75.94396,14.63675],[75.94894,14.63791],[75.95482,14.63792],[75.95793,14.63727],[75.96163,14.63572],[75.96607,14.6362],[75.97156,14.64059],[75.97467,14.64509],[75.97783,14.64809],[75.9844,14.65113],[75.98455,14.65181],[75.98289,14.65543],[75.97909,14.66123],[75.9792,14.66162],[75.98264,14.66162],[75.98363,14.66321],[75.98303,14.66489],[75.97944,14.67048],[75.97396,14.67558],[75.96882,14.67646],[75.96873,14.67541],[75.95818,14.67831],[75.95977,14.68562],[75.9656,14.69051],[75.96995,14.6912],[75.97487,14.69527],[75.97414,14.69778],[75.97345,14.69801],[75.97202,14.70378],[75.97595,14.70627],[75.97739,14.70668],[75.9772,14.70707],[75.9791,14.70922],[75.9841,14.71273],[75.98531,14.71406],[75.98677,14.7142],[75.98707,14.71381],[75.98809,14.71431],[75.99111,14.71376],[75.99103,14.7142],[75.99405,14.71594],[75.99539,14.71609],[76.00315,14.71936],[76.00844,14.72059],[76.01159,14.719]],[[76.00341,14.71873],[76.00465,14.71528],[76.01019,14.71463],[76.00935,14.71894],[76.00341,14.71873]]]}},{"type":"Feature","properties":{"unitId":392,"unitName":"Chigateri PS"},"geometry":{"type":"Polygon","coordinates":[[[76.08008,14.87092],[76.08238,14.87064],[76.08321,14.86997],[76.08859,14.86825],[76.09273,14.86793],[76.09285,14.86891],[76.10045,14.86922],[76.10598,14.87012],[76.11432,14.87023],[76.11555,14.87009],[76.11558,14.86956],[76.11882,14.86934],[76.12612,14.87022],[76.1309,14.86827],[76.13016,14.86128],[76.13528,14.8618],[76.15256,14.86175],[76.15532,14.86239],[76.15465,14.85812],[76.15657,14.85564],[76.15924,14.85566],[76.15952,14.8548],[76.15883,14.85272],[76.15776,14.85196],[76.1563,14.85233],[76.1552,14.85104],[76.15737,14.84733],[76.17771,14.84884],[76.18275,14.84745],[76.19096,14.84669],[76.19054,14.84171],[76.19157,14.83339],[76.19476,14.82113],[76.1858,14.82032],[76.17421,14.82232],[76.17406,14.82297],[76.16988,14.826],[76.16805,14.82587],[76.16563,14.82671],[76.1652,14.8275],[76.16098,14.82985],[76.16082,14.82886],[76.15785,14.82911],[76.15706,14.82792],[76.15544,14.8278],[76.15481,14.82503],[76.15443,14.82509],[76.15362,14.82349],[76.15358,14.82145],[76.15218,14.82141],[76.15148,14.82215],[76.15031,14.82234],[76.14952,14.82181],[76.14642,14.82312],[76.146,14.81966],[76.14357,14.81382],[76.14373,14.8083],[76.14214,14.80427],[76.14307,14.80003],[76.14282,14.79337],[76.14413,14.79079],[76.14671,14.78968],[76.14933,14.78421],[76.16867,14.78524],[76.17125,14.78195],[76.17297,14.7807],[76.17608,14.77468],[76.18009,14.76845],[76.18079,14.7641],[76.18661,14.76508],[76.18611,14.76689],[76.19228,14.76827],[76.19387,14.76173],[76.19599,14.75651],[76.19876,14.75325],[76.20066,14.75315],[76.20062,14.74732],[76.20155,14.74425],[76.20145,14.74137],[76.20115,14.73903],[76.19946,14.73899],[76.19917,14.7383],[76.1974,14.72483],[76.19076,14.72387],[76.19055,14.72273],[76.18746,14.72231],[76.18593,14.70929],[76.18394,14.69976],[76.18253,14.69956],[76.17511,14.70297],[76.16717,14.70079],[76.16106,14.70321],[76.16125,14.70083],[76.15732,14.70152],[76.15697,14.70433],[76.1508,14.70429],[76.14551,14.70534],[76.13976,14.70082],[76.13962,14.69879],[76.13785,14.7004],[76.14055,14.70308],[76.12944,14.69958],[76.12809,14.70019],[76.12734,14.70138],[76.12322,14.70009],[76.12117,14.69995],[76.11466,14.69501],[76.10804,14.69232],[76.10169,14.69201],[76.09728,14.69092],[76.09316,14.68903],[76.08741,14.68819],[76.08759,14.68779],[76.07809,14.6892],[76.07885,14.69321],[76.08161,14.70066],[76.08171,14.70461],[76.07944,14.7053],[76.07955,14.70633],[76.07677,14.70659],[76.0768,14.70737],[76.0674,14.70876],[76.06736,14.71169],[76.06653,14.71493],[76.06701,14.71494],[76.06691,14.716],[76.06647,14.716],[76.06622,14.7169],[76.06748,14.71696],[76.06754,14.71768],[76.07128,14.71716],[76.0767,14.71765],[76.07579,14.72145],[76.07661,14.72206],[76.07608,14.72455],[76.07527,14.72603],[76.07501,14.72556],[76.07353,14.72573],[76.07347,14.72624],[76.07189,14.72647],[76.06886,14.72861],[76.069,14.73046],[76.07052,14.73379],[76.07063,14.73617],[76.0675,14.73565],[76.06604,14.73807],[76.06505,14.74197],[76.06546,14.74254],[76.06485,14.74277],[76.06447,14.74452],[76.06059,14.74633],[76.05335,14.74758],[76.05369,14.75127],[76.05761,14.7626],[76.05668,14.77098],[76.05605,14.77099],[76.05581,14.77166],[76.0565,14.77311],[76.04571,14.77217],[76.04462,14.77112],[76.04349,14.77102],[76.04244,14.77157],[76.02935,14.77228],[76.0295,14.77371],[76.02835,14.77347],[76.02416,14.77487],[76.02493,14.7782],[76.0248,14.78082],[76.02435,14.78329],[76.02263,14.78525],[76.02235,14.78668],[76.02287,14.78738],[76.02228,14.7894],[76.02182,14.78952],[76.02098,14.79695],[76.02464,14.79741],[76.03054,14.80046],[76.03379,14.80334],[76.03812,14.80516],[76.03939,14.8101],[76.03906,14.81866],[76.03961,14.82014],[76.03944,14.82253],[76.03588,14.82826],[76.03221,14.83206],[76.03557,14.83169],[76.03919,14.83471],[76.04301,14.83567],[76.05276,14.83691],[76.05353,14.84366],[76.05452,14.84604],[76.0549,14.84943],[76.06161,14.85363],[76.06216,14.85635],[76.06271,14.85652],[76.06328,14.85767],[76.06763,14.85767],[76.06696,14.85879],[76.06738,14.85882],[76.06746,14.86082],[76.06851,14.85991],[76.07143,14.8601],[76.07229,14.86896],[76.08008,14.87092]]]}},{"type":"Feature","properties":{"unitId":393,"unitName":"Halavagilu PS"},"geometry":{"type":"Polygon","coordinates":[[[75.8919,14.78344],[75.89798,14.7836],[75.91051,14.78051],[75.91763,14.7768],[75.92257,14.76708],[75.92327,14.76679],[75.92038,14.76445],[75.9134,14.7561],[75.90681,14.75423],[75.90705,14.75364],[75.90068,14.7512],[75.89594,14.74863],[75.89498,14.74851],[75.89335,14.75001],[75.89214,14.75027],[75.89,14.74966],[75.88601,14.75111],[75.88139,14.75133],[75.88129,14.75222],[75.8784,14.75184],[75.87815,14.75263],[75.87139,14.75055],[75.87094,14.74846],[75.86557,14.73893],[75.86508,14.73692],[75.86746,14.72182],[75.87215,14.72296],[75.87609,14.71772],[75.87962,14.71785],[75.88517,14.71723],[75.88546,14.71718],[75.88509,14.71688],[75.88761,14.71605],[75.89292,14.71501],[75.89827,14.71504],[75.89883,14.71392],[75.90389,14.71442],[75.90965,14.71431],[75.91042,14.71358],[75.91052,14.71012],[75.91237,14.7037],[75.91307,14.70313],[75.91602,14.70244],[75.91795,14.70081],[75.92223,14.69899],[75.92224,14.69818],[75.92403,14.69789],[75.92957,14.70191],[75.9364,14.70444],[75.94236,14.70835],[75.94765,14.71257],[75.95059,14.71686],[75.95789,14.72311],[75.96529,14.72805],[75.96862,14.72952],[75.96864,14.72873],[75.96653,14.72565],[75.97098,14.70829],[75.98146,14.71118],[75.9791,14.70922],[75.9772,14.70707],[75.97739,14.70668],[75.97595,14.70627],[75.97202,14.70378],[75.97345,14.69801],[75.97414,14.69778],[75.97487,14.69527],[75.96995,14.6912],[75.9656,14.69051],[75.95977,14.68562],[75.95806,14.67899],[75.95818,14.67831],[75.96873,14.67541],[75.96882,14.67646],[75.97396,14.67558],[75.97777,14.67242],[75.98343,14.66418],[75.98336,14.66225],[75.98264,14.66162],[75.97905,14.66153],[75.98289,14.65543],[75.98455,14.65181],[75.9844,14.65113],[75.97783,14.64809],[75.97467,14.64509],[75.97156,14.64059],[75.96607,14.6362],[75.96163,14.63572],[75.95793,14.63727],[75.95482,14.63792],[75.94894,14.63791],[75.94396,14.63675],[75.93934,14.6371],[75.93143,14.63673],[75.9337,14.63599],[75.93681,14.63383],[75.94532,14.63533],[75.94519,14.63453],[75.95096,14.63321],[75.95835,14.63239],[75.95554,14.62946],[75.94719,14.62396],[75.94846,14.61943],[75.94834,14.61344],[75.95372,14.614],[75.95607,14.60736],[75.95778,14.60618],[75.95867,14.60412],[75.95774,14.60399],[75.958,14.60026],[75.95859,14.59994],[75.95831,14.59731],[75.95908,14.59384],[75.94537,14.59189],[75.93858,14.59171],[75.94124,14.57882],[75.94064,14.5749],[75.94091,14.56357],[75.94018,14.56377],[75.94039,14.56122],[75.93937,14.56114],[75.93933,14.56055],[75.9366,14.56065],[75.9325,14.56165],[75.92463,14.56191],[75.92294,14.5636],[75.92069,14.56425],[75.91024,14.56292],[75.91104,14.56691],[75.91105,14.57121],[75.90975,14.57191],[75.9088,14.57424],[75.90644,14.5733],[75.90587,14.57456],[75.8997,14.57664],[75.89436,14.57915],[75.89154,14.58152],[75.89027,14.5838],[75.88472,14.58972],[75.87354,14.59363],[75.86828,14.59368],[75.86642,14.60452],[75.86696,14.61144],[75.86612,14.61617],[75.86521,14.61577],[75.8652,14.61459],[75.86351,14.61368],[75.86259,14.61403],[75.86191,14.61497],[75.85993,14.61392],[75.85866,14.61244],[75.85817,14.60844],[75.85752,14.608],[75.85642,14.60825],[75.85466,14.60722],[75.85277,14.60736],[75.8521,14.60881],[75.8515,14.60909],[75.84986,14.60856],[75.84792,14.60869],[75.84667,14.60718],[75.8443,14.60727],[75.84354,14.60538],[75.84183,14.60467],[75.83967,14.60586],[75.83933,14.60707],[75.83809,14.60835],[75.83742,14.60844],[75.83583,14.60691],[75.83395,14.60783],[75.83217,14.60733],[75.8298,14.6129],[75.83029,14.61545],[75.83139,14.61785],[75.83456,14.62255],[75.8365,14.62736],[75.83714,14.63008],[75.83577,14.63359],[75.83445,14.63586],[75.83371,14.63587],[75.82941,14.63482],[75.82768,14.63394],[75.8266,14.63258],[75.82374,14.6323],[75.82309,14.63185],[75.82203,14.633],[75.82054,14.6322],[75.82032,14.63415],[75.81929,14.6341],[75.81902,14.63528],[75.81785,14.635],[75.81709,14.63631],[75.81592,14.63674],[75.81314,14.63593],[75.80764,14.63597],[75.80854,14.65698],[75.80148,14.66334],[75.79944,14.66658],[75.79892,14.66815],[75.79899,14.67114],[75.80057,14.67797],[75.79888,14.68192],[75.79593,14.68319],[75.78909,14.6827],[75.78608,14.68082],[75.78191,14.68077],[75.78028,14.67877],[75.77648,14.67628],[75.77225,14.6754],[75.76327,14.67527],[75.75841,14.67704],[75.75658,14.67902],[75.75452,14.67939],[75.75377,14.67869],[75.74332,14.68342],[75.74169,14.68464],[75.73894,14.69071],[75.73905,14.69414],[75.74143,14.70004],[75.74775,14.70737],[75.75362,14.71279],[75.75676,14.71699],[75.76067,14.71883],[75.76397,14.72161],[75.76452,14.72326],[75.76441,14.72999],[75.76314,14.73318],[75.76009,14.73771],[75.75566,14.73941],[75.75648,14.74097],[75.75602,14.74217],[75.75676,14.74243],[75.75685,14.74309],[75.75642,14.7439],[75.75769,14.75974],[75.75662,14.77439],[75.76189,14.7778],[75.76922,14.7807],[75.77199,14.78481],[75.77421,14.78925],[75.77694,14.78563],[75.78453,14.78084],[75.78445,14.78025],[75.78591,14.77854],[75.79639,14.77133],[75.79789,14.76902],[75.8052,14.77175],[75.81456,14.77684],[75.81608,14.77602],[75.82232,14.77625],[75.82406,14.77727],[75.82655,14.7804],[75.83012,14.791],[75.83219,14.79388],[75.83416,14.80342],[75.83362,14.80808],[75.83507,14.80879],[75.83793,14.80681],[75.86448,14.79924],[75.87684,14.79514],[75.88653,14.79273],[75.88849,14.7913],[75.88963,14.78632],[75.8919,14.78344]]]}},{"type":"Feature","properties":{"unitId":394,"unitName":"Harapanahalli PS"},"geometry":{"type":"MultiPolygon","coordinates":[[[[76.04483,14.93111],[76.04489,14.93019],[76.04725,14.93056],[76.04857,14.9251],[76.0481,14.92484],[76.04852,14.92392],[76.04839,14.92266],[76.04925,14.92269],[76.05054,14.91711],[76.05696,14.91734],[76.05936,14.91634],[76.05927,14.91705],[76.06045,14.91683],[76.06326,14.9157],[76.06509,14.91362],[76.06533,14.91091],[76.06776,14.91095],[76.0683,14.91023],[76.06852,14.90841],[76.0753,14.91102],[76.08137,14.91166],[76.08171,14.91271],[76.08462,14.91263],[76.08258,14.90656],[76.08261,14.90429],[76.07973,14.90358],[76.07835,14.90223],[76.07861,14.90059],[76.07812,14.90058],[76.07803,14.89937],[76.07716,14.89873],[76.07608,14.89879],[76.0749,14.89646],[76.07263,14.89441],[76.07256,14.8937],[76.06802,14.89111],[76.0646,14.88731],[76.06646,14.88308],[76.06675,14.88096],[76.07143,14.87383],[76.07225,14.87073],[76.07143,14.8601],[76.06851,14.85991],[76.06746,14.86082],[76.06738,14.85882],[76.06696,14.85879],[76.06763,14.85767],[76.06328,14.85767],[76.06271,14.85652],[76.06216,14.85635],[76.06161,14.85363],[76.0549,14.84943],[76.05452,14.84604],[76.05353,14.84366],[76.05276,14.83691],[76.04301,14.83567],[76.03919,14.83471],[76.03557,14.83169],[76.03221,14.83206],[76.03588,14.82826],[76.03944,14.82253],[76.03961,14.82014],[76.03906,14.81866],[76.03939,14.8101],[76.03812,14.80516],[76.03379,14.80334],[76.03054,14.80046],[76.02464,14.79741],[76.02098,14.79695],[76.02182,14.78952],[76.02228,14.7894],[76.02287,14.78738],[76.02235,14.78668],[76.02263,14.78525],[76.02435,14.78329],[76.0248,14.78082],[76.02493,14.7782],[76.02416,14.77487],[76.02835,14.77347],[76.0295,14.77371],[76.02935,14.77228],[76.04244,14.77157],[76.04349,14.77102],[76.04462,14.77112],[76.04571,14.77217],[76.0565,14.77311],[76.05581,14.77166],[76.05605,14.77099],[76.05668,14.77098],[76.05761,14.7626],[76.05369,14.75127],[76.05335,14.74758],[76.06059,14.74633],[76.06447,14.74452],[76.06485,14.74277],[76.06546,14.74254],[76.06505,14.74197],[76.06604,14.73807],[76.0675,14.73565],[76.07063,14.73617],[76.07052,14.73379],[76.069,14.73046],[76.06886,14.72861],[76.07189,14.72647],[76.07347,14.72624],[76.07353,14.72573],[76.07501,14.72556],[76.07527,14.72603],[76.07608,14.72455],[76.07661,14.72206],[76.07579,14.72145],[76.0767,14.71765],[76.07128,14.71716],[76.06754,14.71768],[76.06748,14.71696],[76.06622,14.7169],[76.06647,14.716],[76.06691,14.716],[76.06701,14.71494],[76.06653,14.71493],[76.06736,14.71169],[76.06716,14.70811],[76.06288,14.7094],[76.0602,14.70963],[76.05933,14.70917],[76.05871,14.7098],[76.05576,14.70981],[76.05384,14.6995],[76.05393,14.69173],[76.05865,14.69115],[76.06126,14.69138],[76.06199,14.68992],[76.06155,14.68411],[76.0621,14.6746],[76.06529,14.67018],[76.06735,14.66871],[76.06349,14.65763],[76.05973,14.65767],[76.05856,14.65571],[76.05833,14.65389],[76.05897,14.65387],[76.05897,14.65236],[76.05863,14.65193],[76.05686,14.65228],[76.05653,14.65039],[76.05692,14.64955],[76.05683,14.64623],[76.05483,14.64938],[76.05163,14.65078],[76.05275,14.65437],[76.04902,14.65476],[76.04893,14.65576],[76.04942,14.6563],[76.04862,14.65777],[76.04758,14.65829],[76.04747,14.66099],[76.04655,14.66331],[76.04656,14.66541],[76.04296,14.66566],[76.0422,14.66614],[76.04012,14.66808],[76.03783,14.67176],[76.0369,14.67109],[76.03354,14.67145],[76.03262,14.67],[76.03083,14.67019],[76.02653,14.66959],[76.02613,14.67047],[76.02054,14.66675],[76.01866,14.67213],[76.0154,14.6734],[76.01279,14.67544],[76.01046,14.67651],[76.01034,14.67744],[76.00303,14.67896],[75.99867,14.67914],[76.00132,14.68167],[76.00998,14.69343],[76.01106,14.69431],[76.01343,14.69445],[76.01245,14.69853],[76.0113,14.70093],[76.01275,14.70637],[76.01069,14.71002],[76.01278,14.71068],[76.01582,14.71293],[76.01648,14.71676],[76.01563,14.71767],[76.0124,14.71829],[76.00844,14.72059],[76.00315,14.71936],[75.99539,14.71609],[75.99405,14.71594],[75.99103,14.7142],[75.99111,14.71376],[75.98809,14.71431],[75.98707,14.71381],[75.98677,14.7142],[75.98531,14.71406],[75.98218,14.71132],[75.97098,14.70829],[75.96653,14.72565],[75.96864,14.72873],[75.96862,14.72952],[75.96529,14.72805],[75.95789,14.72311],[75.95059,14.71686],[75.94765,14.71257],[75.94236,14.70835],[75.9364,14.70444],[75.92957,14.70191],[75.92403,14.69789],[75.92224,14.69818],[75.92223,14.69899],[75.91795,14.70081],[75.91602,14.70244],[75.91307,14.70313],[75.91237,14.7037],[75.91052,14.71012],[75.91042,14.71358],[75.90965,14.71431],[75.90389,14.71442],[75.89883,14.71392],[75.89827,14.71504],[75.89292,14.71501],[75.88761,14.71605],[75.88509,14.71688],[75.88546,14.71718],[75.88517,14.71723],[75.87962,14.71785],[75.87609,14.71772],[75.87215,14.72296],[75.86746,14.72182],[75.86508,14.73692],[75.86557,14.73893],[75.87094,14.74846],[75.87139,14.75055],[75.87815,14.75263],[75.8784,14.75184],[75.88129,14.75222],[75.88139,14.75133],[75.88601,14.75111],[75.89,14.74966],[75.89214,14.75027],[75.89335,14.75001],[75.89498,14.74851],[75.89594,14.74863],[75.90068,14.7512],[75.90705,14.75364],[75.90681,14.75423],[75.9134,14.7561],[75.92038,14.76445],[75.92327,14.76679],[75.92257,14.76708],[75.91763,14.7768],[75.91051,14.78051],[75.89798,14.7836],[75.8915,14.78363],[75.88963,14.78632],[75.88849,14.7913],[75.88653,14.79273],[75.87684,14.79514],[75.86448,14.79924],[75.83793,14.80681],[75.83507,14.80879],[75.83362,14.80808],[75.83289,14.81357],[75.81819,14.83461],[75.81714,14.83323],[75.81173,14.8305],[75.80908,14.83333],[75.80576,14.84032],[75.81058,14.84293],[75.81088,14.84485],[75.80923,14.85113],[75.80424,14.86257],[75.80204,14.86914],[75.80294,14.87374],[75.8019,14.87477],[75.80958,14.88105],[75.81103,14.88701],[75.81066,14.88917],[75.8113,14.8894],[75.81116,14.89127],[75.81178,14.89354],[75.81286,14.89371],[75.8134,14.89608],[75.81623,14.89631],[75.81625,14.89996],[75.82582,14.89939],[75.831,14.885],[75.83289,14.88304],[75.83364,14.8848],[75.84129,14.88976],[75.84528,14.89005],[75.84779,14.88706],[75.84773,14.8848],[75.85423,14.88347],[75.85598,14.88231],[75.85443,14.87829],[75.8536,14.87248],[75.85315,14.86543],[75.8532,14.8647],[75.85378,14.86447],[75.85336,14.86323],[75.85842,14.8586],[75.8591,14.85809],[75.85978,14.85829],[75.86019,14.85728],[75.8659,14.85496],[75.86614,14.85563],[75.86699,14.85561],[75.86924,14.86645],[75.87419,14.86723],[75.87512,14.86801],[75.879,14.86886],[75.88701,14.86846],[75.88806,14.87281],[75.89298,14.87748],[75.89783,14.87841],[75.89765,14.87886],[75.89931,14.87866],[75.89979,14.88107],[75.90104,14.88113],[75.90372,14.88394],[75.91998,14.88854],[75.92753,14.88947],[75.92902,14.89188],[75.93064,14.89227],[75.9309,14.89283],[75.93311,14.89165],[75.93464,14.89148],[75.93457,14.89271],[75.93704,14.89262],[75.93711,14.89536],[75.93821,14.89556],[75.93805,14.89605],[75.93968,14.89635],[75.94005,14.9001],[75.94975,14.90028],[75.94958,14.90191],[75.95988,14.9023],[75.96306,14.90402],[75.96602,14.90131],[75.96366,14.90814],[75.97512,14.90023],[75.98054,14.90224],[75.98388,14.90784],[75.98378,14.90831],[75.98448,14.90829],[75.98624,14.90748],[75.99817,14.89751],[76.00095,14.9017],[76.00394,14.9022],[76.0045,14.90565],[76.0054,14.90592],[76.00975,14.90519],[76.011,14.90551],[76.01013,14.90211],[76.01113,14.89832],[76.01066,14.89825],[76.01095,14.89679],[76.01251,14.89815],[76.01245,14.89915],[76.01296,14.89939],[76.01386,14.90137],[76.0177,14.90563],[76.01979,14.90683],[76.02248,14.91132],[76.02565,14.91425],[76.02518,14.91648],[76.03086,14.92174],[76.03225,14.92471],[76.03447,14.92577],[76.03695,14.92611],[76.03698,14.92768],[76.04265,14.93128],[76.04448,14.93174],[76.04483,14.93111]]],[[[76.00952,14.71804],[76.01019,14.71463],[76.00465,14.71528],[76.00333,14.71896],[76.00935,14.71894],[76.00952,14.71804]]]]}},{"type":"Feature","properties":{"unitId":395,"unitName":"Bilichodu PS"},"geometry":{"type":"Polygon","coordinates":[[[76.15432,14.70416],[76.15697,14.70433],[76.15732,14.70152],[76.16125,14.70083],[76.16106,14.70321],[76.16717,14.70079],[76.17511,14.70297],[76.18253,14.69956],[76.18413,14.69992],[76.19362,14.69777],[76.19275,14.69151],[76.19359,14.68161],[76.20109,14.67998],[76.20521,14.67744],[76.22082,14.65771],[76.23047,14.64928],[76.23096,14.64983],[76.22616,14.64119],[76.22891,14.63868],[76.23084,14.63779],[76.23283,14.63753],[76.23424,14.63619],[76.23184,14.63234],[76.23037,14.63207],[76.22992,14.63133],[76.22933,14.63125],[76.22893,14.63023],[76.22956,14.61098],[76.24166,14.59641],[76.24627,14.59605],[76.24614,14.59528],[76.25551,14.59441],[76.25694,14.59274],[76.25975,14.59321],[76.26552,14.59686],[76.2708,14.59349],[76.27058,14.59051],[76.28099,14.57695],[76.28289,14.57332],[76.28439,14.56219],[76.28842,14.55748],[76.27137,14.55151],[76.27359,14.5471],[76.27425,14.54308],[76.27511,14.52832],[76.26963,14.52915],[76.2582,14.52626],[76.25626,14.52477],[76.25563,14.51145],[76.26392,14.51056],[76.26855,14.50898],[76.26957,14.5085],[76.27387,14.50345],[76.28091,14.50168],[76.28449,14.50498],[76.28771,14.50445],[76.28793,14.50231],[76.28615,14.50216],[76.28624,14.49364],[76.28824,14.49038],[76.28766,14.48673],[76.28557,14.48122],[76.28551,14.47813],[76.28303,14.47589],[76.27863,14.46425],[76.2766,14.46612],[76.27153,14.45605],[76.26774,14.45137],[76.26584,14.44755],[76.26419,14.44757],[76.26341,14.44594],[76.26115,14.44526],[76.2603,14.44432],[76.25692,14.44438],[76.2529,14.44367],[76.2483,14.44395],[76.24506,14.44554],[76.24242,14.44805],[76.23841,14.45057],[76.22709,14.44598],[76.21892,14.44202],[76.21628,14.44569],[76.21489,14.44589],[76.20856,14.45647],[76.20284,14.45898],[76.18887,14.4601],[76.17461,14.46246],[76.17277,14.46017],[76.17374,14.44808],[76.16431,14.4458],[76.14524,14.43185],[76.13606,14.42697],[76.13669,14.42609],[76.12953,14.43052],[76.12966,14.43307],[76.12647,14.43557],[76.1254,14.44034],[76.12352,14.44313],[76.12344,14.44752],[76.12154,14.46199],[76.1233,14.46598],[76.1264,14.46931],[76.12837,14.47048],[76.12872,14.47275],[76.12722,14.48111],[76.13482,14.48542],[76.13498,14.49008],[76.13698,14.49806],[76.13848,14.50877],[76.13752,14.51086],[76.13566,14.51051],[76.13349,14.51182],[76.1327,14.51362],[76.13047,14.51479],[76.12927,14.51868],[76.12784,14.52081],[76.12824,14.52209],[76.12956,14.52108],[76.13002,14.52136],[76.12996,14.52529],[76.13077,14.52662],[76.12922,14.52751],[76.12849,14.52862],[76.12855,14.52955],[76.13014,14.53134],[76.13045,14.53236],[76.12841,14.53368],[76.1285,14.53569],[76.13007,14.53848],[76.13344,14.54005],[76.1335,14.54088],[76.13171,14.54154],[76.13055,14.54344],[76.12924,14.54988],[76.12772,14.55066],[76.12572,14.55521],[76.12533,14.55721],[76.12385,14.55958],[76.12017,14.56253],[76.11445,14.56208],[76.11526,14.56584],[76.11499,14.56792],[76.12236,14.57286],[76.12634,14.5741],[76.12741,14.57568],[76.12899,14.58345],[76.13153,14.58557],[76.13138,14.59447],[76.13328,14.59484],[76.13278,14.59597],[76.13584,14.59663],[76.13572,14.59738],[76.13692,14.59759],[76.13915,14.59918],[76.13925,14.60195],[76.14126,14.60206],[76.13948,14.60539],[76.14021,14.6063],[76.14052,14.61017],[76.14013,14.6143],[76.14612,14.61503],[76.14453,14.62465],[76.14128,14.62604],[76.14249,14.62813],[76.1405,14.62957],[76.13937,14.62982],[76.13295,14.62913],[76.13298,14.63045],[76.13116,14.6304],[76.13068,14.63294],[76.1301,14.63304],[76.12957,14.63691],[76.12945,14.6494],[76.12271,14.65045],[76.12278,14.65216],[76.1203,14.65239],[76.12026,14.65292],[76.11883,14.65307],[76.11916,14.6566],[76.11367,14.65752],[76.11271,14.65833],[76.1145,14.6594],[76.11117,14.6592],[76.10811,14.65986],[76.10919,14.67042],[76.10856,14.67056],[76.1086,14.67128],[76.1093,14.67138],[76.11013,14.67577],[76.11401,14.68301],[76.11203,14.6841],[76.10965,14.68644],[76.1136,14.69005],[76.11459,14.69502],[76.12117,14.69995],[76.12322,14.70009],[76.12734,14.70138],[76.12809,14.70019],[76.12944,14.69958],[76.14055,14.70308],[76.13785,14.7004],[76.13962,14.69879],[76.13976,14.70082],[76.14551,14.70534],[76.1508,14.70429],[76.15432,14.70416]]]}},{"type":"Feature","properties":{"unitId":396,"unitName":"Jagalur PS"},"geometry":{"type":"Polygon","coordinates":[[[76.25772,14.69653],[76.26502,14.69673],[76.27201,14.6959],[76.27345,14.68871],[76.2795,14.68541],[76.28454,14.68596],[76.29043,14.68583],[76.2946,14.68778],[76.29771,14.68828],[76.30135,14.68995],[76.30584,14.68928],[76.31197,14.68749],[76.31481,14.6922],[76.31925,14.69276],[76.32495,14.69137],[76.32984,14.68903],[76.33412,14.68832],[76.33792,14.6861],[76.34027,14.67793],[76.34059,14.67444],[76.3429,14.66596],[76.35794,14.66561],[76.36894,14.66423],[76.37384,14.66411],[76.37983,14.66225],[76.37569,14.65555],[76.37521,14.64663],[76.38205,14.64802],[76.39021,14.64863],[76.39082,14.64236],[76.39209,14.63873],[76.39221,14.63178],[76.39371,14.627],[76.40129,14.62772],[76.40285,14.624],[76.41053,14.62393],[76.41701,14.62274],[76.42142,14.625],[76.42653,14.62166],[76.43303,14.61823],[76.43171,14.61499],[76.43207,14.60422],[76.42998,14.59822],[76.42982,14.59398],[76.42761,14.58812],[76.42551,14.58811],[76.42366,14.58125],[76.43896,14.58026],[76.44141,14.58053],[76.44464,14.58001],[76.46178,14.57667],[76.46443,14.57524],[76.46443,14.57421],[76.47287,14.57306],[76.50531,14.56594],[76.51044,14.56069],[76.51382,14.55295],[76.51649,14.54956],[76.52005,14.55221],[76.5221,14.55301],[76.52404,14.55309],[76.52574,14.54939],[76.52787,14.54633],[76.53309,14.54346],[76.53444,14.5397],[76.53208,14.53694],[76.52796,14.53381],[76.52199,14.52532],[76.52216,14.52442],[76.5137,14.52313],[76.50825,14.51627],[76.50585,14.51517],[76.49395,14.5116],[76.48936,14.50914],[76.48442,14.50491],[76.4816,14.50503],[76.47231,14.50217],[76.46931,14.5038],[76.46465,14.50474],[76.46115,14.50485],[76.45963,14.49545],[76.45739,14.4895],[76.45713,14.47874],[76.45614,14.47292],[76.45516,14.47016],[76.45576,14.4702],[76.45599,14.46605],[76.45974,14.45798],[76.46018,14.45069],[76.45575,14.4507],[76.45117,14.4494],[76.44892,14.44936],[76.44513,14.44843],[76.4403,14.44806],[76.44009,14.4484],[76.43706,14.4476],[76.43394,14.44766],[76.42395,14.44957],[76.42415,14.43838],[76.41968,14.43858],[76.41478,14.43949],[76.40731,14.4361],[76.40252,14.4368],[76.39579,14.43645],[76.39611,14.43348],[76.39538,14.43053],[76.393,14.43079],[76.39354,14.42806],[76.39074,14.42754],[76.38843,14.42782],[76.38815,14.4274],[76.38635,14.42715],[76.38425,14.42769],[76.38325,14.4258],[76.38488,14.42173],[76.38432,14.41945],[76.38113,14.41974],[76.37819,14.41771],[76.37328,14.41848],[76.36997,14.42021],[76.35409,14.41958],[76.34927,14.41677],[76.34228,14.41713],[76.33789,14.41934],[76.33845,14.41501],[76.33134,14.40874],[76.31729,14.40831],[76.31113,14.40902],[76.29256,14.40883],[76.28615,14.407],[76.28185,14.40478],[76.27372,14.40907],[76.27311,14.41218],[76.27324,14.41442],[76.27186,14.41422],[76.2713,14.4186],[76.27056,14.42061],[76.26416,14.42488],[76.26477,14.43078],[76.26398,14.43713],[76.26263,14.44108],[76.2603,14.44432],[76.26115,14.44526],[76.26341,14.44594],[76.26419,14.44757],[76.26584,14.44755],[76.26774,14.45137],[76.27153,14.45605],[76.2766,14.46612],[76.27863,14.46425],[76.28303,14.47589],[76.28551,14.47813],[76.28557,14.48122],[76.28766,14.48673],[76.28824,14.49038],[76.28621,14.4942],[76.28615,14.50216],[76.28793,14.50231],[76.28771,14.50443],[76.28449,14.50498],[76.28091,14.50168],[76.27387,14.50345],[76.26957,14.5085],[76.26855,14.50898],[76.26392,14.51056],[76.25563,14.51145],[76.25586,14.52139],[76.25626,14.52477],[76.2582,14.52626],[76.26985,14.52918],[76.27511,14.52832],[76.27425,14.54308],[76.27359,14.5471],[76.27137,14.55151],[76.28842,14.55748],[76.28439,14.56219],[76.28289,14.57332],[76.28099,14.57695],[76.27058,14.59051],[76.2708,14.59349],[76.26552,14.59686],[76.25975,14.59321],[76.25694,14.59274],[76.25551,14.59441],[76.24614,14.59528],[76.24627,14.59605],[76.24166,14.59641],[76.22956,14.61098],[76.22893,14.63023],[76.22933,14.63125],[76.22992,14.63133],[76.23037,14.63207],[76.23184,14.63234],[76.23424,14.63619],[76.23283,14.63753],[76.23084,14.63779],[76.22891,14.63868],[76.22616,14.64119],[76.23244,14.65211],[76.2329,14.65637],[76.2345,14.66075],[76.23637,14.66912],[76.23955,14.67905],[76.24309,14.68548],[76.24618,14.69399],[76.25005,14.69863],[76.25684,14.70099],[76.25772,14.69653]]]}}]}