{"type":"FeatureCollection","features":[{"type":"Feature","properties":{"unitId":397,"unitName":"Dharwad Sub Urban PS"},"geometry":{"type":"Polygon","coordinates":[[[74.98635,15.4941],[74.98812,15.49243],[74.98907,15.49247],[74.99266,15.49071],[75.0055,15.47646],[75.00969,15.47657],[75.01409,15.47859],[75.0175,15.47838],[75.02077,15.47614],[75.01803,15.46948],[75.01784,15.46793],[75.01656,15.46777],[75.01541,15.46657],[75.01216,15.46143],[75.01113,15.46066],[75.00939,15.46108],[75.0086,15.45951],[75.00788,15.4591],[75.00694,15.45639],[75.00712,15.45358],[75.00657,15.45232],[75.00557,15.45174],[75.00069,15.4509],[75.00096,15.45074],[74.9975,15.44665],[74.99257,15.44329],[74.99291,15.44236],[74.99246,15.44198],[74.98944,15.44035],[74.98983,15.43758],[74.9883,15.43452],[74.98704,15.43328],[74.9766,15.43186],[74.97419,15.43198],[74.96908,15.43413],[74.96614,15.43423],[74.96583,15.43488],[74.96944,15.44389],[74.96913,15.44755],[74.96717,15.45105],[74.96622,15.45424],[74.96599,15.45714],[74.96222,15.45752],[74.96057,15.4598],[74.96041,15.46269],[74.96167,15.46285],[74.96395,15.46437],[74.96489,15.46597],[74.96504,15.46863],[74.96756,15.46863],[74.96952,15.48517],[74.97061,15.48829],[74.97075,15.49124],[74.97342,15.49225],[74.97642,15.49687],[74.97858,15.49836],[74.98095,15.4992],[74.98286,15.49889],[74.98376,15.49819],[74.98635,15.4941]]]}},{"type":"Feature","properties":{"unitId":398,"unitName":"Dharwad Town PS"},"geometry":{"type":"Polygon","coordinates":[[[75.0296,15.47726],[75.02996,15.47154],[75.02818,15.47054],[75.02651,15.46885],[75.0266,15.46843],[75.02271,15.46686],[75.02669,15.46485],[75.03216,15.46349],[75.03326,15.46203],[75.02466,15.45896],[75.02625,15.4548],[75.02166,15.45293],[75.02255,15.45173],[75.02107,15.45082],[75.02066,15.44707],[75.01995,15.44768],[75.01766,15.44746],[75.01436,15.45221],[75.01332,15.45232],[75.01096,15.45104],[75.01045,15.45248],[75.00856,15.45457],[75.00703,15.45546],[75.00694,15.45639],[75.00788,15.4591],[75.0086,15.45951],[75.00939,15.46108],[75.01113,15.46066],[75.01216,15.46143],[75.01541,15.46657],[75.01656,15.46777],[75.01784,15.46793],[75.01803,15.46948],[75.02098,15.47706],[75.0296,15.47726]]]}},{"type":"Feature","properties":{"unitId":399,"unitName":"Vidyagiri PS"},"geometry":{"type":"Polygon","coordinates":[[[75.01045,15.45248],[75.01096,15.45104],[75.01332,15.45232],[75.01436,15.45221],[75.01766,15.44746],[75.01995,15.44768],[75.02066,15.44707],[75.02107,15.45082],[75.0226,15.45175],[75.02408,15.44992],[75.02489,15.44735],[75.02737,15.44437],[75.03041,15.44209],[75.03365,15.43824],[75.03589,15.43772],[75.0376,15.43656],[75.04064,15.43268],[75.04565,15.43348],[75.04749,15.43416],[75.04876,15.43526],[75.05034,15.43452],[75.05129,15.43317],[75.05288,15.43274],[75.05452,15.43126],[75.0556,15.42911],[75.05655,15.42235],[75.05845,15.42044],[75.06333,15.41712],[75.06802,15.41515],[75.0755,15.41361],[75.07621,15.41166],[75.07568,15.40757],[75.07466,15.40396],[75.07333,15.40148],[75.06719,15.40207],[75.0662,15.40152],[75.06455,15.40258],[75.05894,15.40337],[75.0576,15.40487],[75.05718,15.40636],[75.05484,15.40735],[75.04812,15.40833],[75.04653,15.40716],[75.03943,15.40784],[75.03785,15.40747],[75.03436,15.40507],[75.03145,15.40391],[75.02507,15.40637],[75.01729,15.40793],[75.01093,15.41088],[75.0087,15.41252],[75.00637,15.41716],[75.00293,15.41799],[74.99561,15.41357],[74.99217,15.41307],[74.98796,15.41365],[74.98533,15.41441],[74.9851,15.41515],[74.98437,15.41493],[74.98164,15.41738],[74.98073,15.41925],[74.98124,15.42117],[74.9803,15.42208],[74.98116,15.42452],[74.98172,15.42371],[74.98331,15.42367],[74.98417,15.42626],[74.98623,15.42734],[74.98709,15.42876],[74.98839,15.43152],[74.98752,15.43385],[74.9883,15.43452],[74.98983,15.43758],[74.98944,15.44035],[74.99246,15.44198],[74.99291,15.44236],[74.99257,15.44329],[74.9975,15.44665],[75.00096,15.45074],[75.00069,15.4509],[75.00557,15.45174],[75.00657,15.45232],[75.00712,15.45358],[75.00703,15.45546],[75.00856,15.45457],[75.01045,15.45248]]]}},{"type":"Feature","properties":{"unitId":400,"unitName":"Navanagar APMC PS"},"geometry":{"type":"Polygon","coordinates":[[[75.11144,15.40162],[75.1126,15.39385],[75.11263,15.38786],[75.11072,15.38408],[75.10844,15.38259],[75.1064,15.38287],[75.10634,15.38158],[75.10036,15.38289],[75.09929,15.38276],[75.09873,15.38344],[75.09752,15.38344],[75.09398,15.38001],[75.08751,15.3783],[75.08576,15.37795],[75.08335,15.37864],[75.0774,15.37823],[75.07286,15.37885],[75.06705,15.38304],[75.06613,15.38538],[75.06451,15.39542],[75.06635,15.39913],[75.06632,15.40188],[75.07333,15.40148],[75.07466,15.40396],[75.07618,15.41135],[75.07831,15.4138],[75.08277,15.41485],[75.08903,15.41461],[75.09518,15.41379],[75.09916,15.41274],[75.105,15.40954],[75.11144,15.40162]]]}},{"type":"Feature","properties":{"unitId":401,"unitName":"Ashoknagar PS"},"geometry":{"type":"Polygon","coordinates":[[[75.1437,15.36929],[75.14453,15.36909],[75.14498,15.36693],[75.14272,15.36582],[75.14288,15.36434],[75.14181,15.36423],[75.14084,15.36257],[75.14115,15.35968],[75.14009,15.35947],[75.13932,15.36084],[75.12896,15.36737],[75.12644,15.36958],[75.12244,15.38033],[75.11992,15.38448],[75.13875,15.38449],[75.14434,15.38374],[75.14829,15.3826],[75.14935,15.38157],[75.14989,15.37978],[75.14624,15.37885],[75.1446,15.37701],[75.14447,15.37214],[75.14409,15.37036],[75.14334,15.37017],[75.1437,15.36929]]]}},{"type":"Feature","properties":{"unitId":402,"unitName":"Gokul Road PS"},"geometry":{"type":"Polygon","coordinates":[[[75.09535,15.36747],[75.0993,15.36569],[75.10046,15.36662],[75.10238,15.36181],[75.10954,15.36178],[75.10969,15.36046],[75.11507,15.36112],[75.11703,15.35794],[75.12041,15.35895],[75.12199,15.35713],[75.12383,15.35641],[75.12425,15.35535],[75.12362,15.35405],[75.12448,15.35422],[75.12805,15.35067],[75.12923,15.35122],[75.1298,15.34989],[75.12671,15.3491],[75.12678,15.34772],[75.12408,15.34734],[75.12385,15.34854],[75.11527,15.34782],[75.11614,15.34375],[75.11553,15.34353],[75.11413,15.34451],[75.11273,15.34451],[75.11335,15.34116],[75.11263,15.3411],[75.11215,15.34205],[75.11049,15.34293],[75.11003,15.34261],[75.10584,15.34356],[75.10532,15.34306],[75.1035,15.34309],[75.09729,15.34398],[75.09659,15.34492],[75.09551,15.34981],[75.09042,15.34939],[75.08993,15.34855],[75.08619,15.3486],[75.085,15.34587],[75.08457,15.34267],[75.08348,15.34057],[75.0636,15.35119],[75.05234,15.35916],[75.05244,15.35867],[75.05082,15.358],[75.04893,15.35966],[75.04901,15.36047],[75.04825,15.3618],[75.04254,15.36512],[75.04528,15.36748],[75.08135,15.36696],[75.09078,15.36607],[75.09535,15.36747]]]}},{"type":"Feature","properties":{"unitId":403,"unitName":"Hubli SubUrban PS"},"geometry":{"type":"Polygon","coordinates":[[[75.14009,15.35947],[75.14231,15.35524],[75.14578,15.35294],[75.14332,15.35228],[75.1414,15.35103],[75.14253,15.34731],[75.13935,15.34657],[75.13794,15.34862],[75.13662,15.3466],[75.1356,15.34626],[75.13529,15.34703],[75.13332,15.34456],[75.1311,15.34696],[75.12897,15.35211],[75.13051,15.35399],[75.13034,15.35453],[75.13277,15.35543],[75.13316,15.3569],[75.13263,15.35742],[75.13429,15.35796],[75.13542,15.35926],[75.13431,15.36346],[75.13453,15.364],[75.13932,15.36084],[75.14009,15.35947]]]}},{"type":"Feature","properties":{"unitId":404,"unitName":"Kamaripeth PS"},"geometry":{"type":"Polygon","coordinates":[[[75.13935,15.34657],[75.14067,15.34219],[75.13619,15.34166],[75.13604,15.34026],[75.13486,15.33917],[75.13447,15.33929],[75.13433,15.34032],[75.13322,15.34186],[75.13369,15.34309],[75.13332,15.34456],[75.13529,15.34703],[75.1356,15.34626],[75.13662,15.3466],[75.13794,15.34862],[75.13935,15.34657]]]}},{"type":"Feature","properties":{"unitId":405,"unitName":"Keshavapur PS"},"geometry":{"type":"Polygon","coordinates":[[[75.17912,15.36957],[75.18167,15.36597],[75.18252,15.35876],[75.18229,15.34868],[75.17766,15.34664],[75.17328,15.34548],[75.16897,15.3455],[75.16596,15.34652],[75.15251,15.3487],[75.14231,15.35524],[75.14009,15.35947],[75.14115,15.35968],[75.14084,15.36257],[75.14181,15.36423],[75.14288,15.36434],[75.14272,15.36582],[75.14498,15.36693],[75.14453,15.36909],[75.14339,15.36942],[75.14334,15.37017],[75.14409,15.37036],[75.14447,15.37214],[75.1446,15.37701],[75.14624,15.37885],[75.15298,15.38062],[75.15715,15.38311],[75.16191,15.38103],[75.17248,15.37457],[75.1792,15.37042],[75.17912,15.36957]]]}},{"type":"Feature","properties":{"unitId":406,"unitName":"Vidyanagar PS"},"geometry":{"type":"Polygon","coordinates":[[[75.11262,15.39408],[75.11992,15.38448],[75.12244,15.38033],[75.12644,15.36958],[75.12896,15.36737],[75.13453,15.364],[75.13431,15.36346],[75.13542,15.35926],[75.13429,15.35796],[75.13263,15.35742],[75.13316,15.3569],[75.13277,15.35543],[75.13034,15.35453],[75.13051,15.35399],[75.12882,15.35171],[75.12923,15.35122],[75.12805,15.35067],[75.12448,15.35422],[75.12362,15.35405],[75.12425,15.35535],[75.12383,15.35641],[75.12199,15.35713],[75.12041,15.35895],[75.11703,15.35794],[75.11507,15.36112],[75.10969,15.36046],[75.10954,15.36178],[75.10238,15.36181],[75.1009,15.3651],[75.09772,15.37634],[75.09959,15.37731],[75.09868,15.38005],[75.09978,15.38075],[75.09993,15.38172],[75.10193,15.38037],[75.10351,15.38042],[75.10516,15.38184],[75.10634,15.38158],[75.1064,15.38287],[75.10844,15.38259],[75.11072,15.38408],[75.11263,15.38786],[75.11262,15.39408]]]}},{"type":"Feature","properties":{"unitId":407,"unitName":"Bendigeri PS"},"geometry":{"type":"Polygon","coordinates":[[[75.17041,15.34397],[75.17354,15.33772],[75.17472,15.33295],[75.1753,15.32655],[75.1739,15.32153],[75.16928,15.31398],[75.16505,15.31113],[75.16456,15.31142],[75.16494,15.31036],[75.16342,15.30987],[75.16026,15.30749],[75.14591,15.30798],[75.14401,15.31549],[75.14314,15.33271],[75.14188,15.33507],[75.14483,15.33546],[75.14372,15.33947],[75.14765,15.34011],[75.14739,15.34235],[75.14686,15.34284],[75.14756,15.34294],[75.14755,15.34377],[75.15511,15.3455],[75.16012,15.34747],[75.1674,15.34607],[75.17041,15.34397]]]}},{"type":"Feature","properties":{"unitId":408,"unitName":"Ghantikeri PS"},"geometry":{"type":"Polygon","coordinates":[[[75.14756,15.34294],[75.14686,15.34284],[75.14739,15.34235],[75.14765,15.34011],[75.14372,15.33947],[75.14471,15.33543],[75.14188,15.33507],[75.13748,15.33846],[75.1368,15.33993],[75.13604,15.34026],[75.13619,15.34166],[75.14172,15.34238],[75.14271,15.34168],[75.14354,15.34189],[75.1435,15.34297],[75.14599,15.3436],[75.14755,15.34377],[75.14756,15.34294]]]}},{"type":"Feature","properties":{"unitId":409,"unitName":"Hubli Town PS"},"geometry":{"type":"Polygon","coordinates":[[[75.1435,15.34297],[75.14354,15.34189],[75.14067,15.34219],[75.13935,15.34657],[75.14253,15.34731],[75.1414,15.35103],[75.14341,15.35231],[75.14578,15.35294],[75.15251,15.3487],[75.16012,15.34747],[75.15511,15.3455],[75.1435,15.34297]]]}},{"type":"Feature","properties":{"unitId":410,"unitName":"Kasabapeth PS"},"geometry":{"type":"Polygon","coordinates":[[[75.13447,15.33929],[75.13652,15.34018],[75.13748,15.33846],[75.14186,15.33533],[75.14314,15.33271],[75.14401,15.31549],[75.14591,15.30798],[75.14365,15.30755],[75.1425,15.30783],[75.14129,15.30699],[75.13814,15.30859],[75.13692,15.3072],[75.13127,15.30769],[75.1287,15.30874],[75.12784,15.31054],[75.12684,15.31138],[75.12377,15.31165],[75.12412,15.31304],[75.12298,15.32005],[75.12349,15.32007],[75.12372,15.32082],[75.12396,15.32355],[75.12611,15.32422],[75.12941,15.33169],[75.13089,15.33205],[75.13159,15.33284],[75.13053,15.33582],[75.13141,15.33688],[75.13195,15.34075],[75.13356,15.34383],[75.13322,15.34186],[75.13433,15.34032],[75.13447,15.33929]]]}},{"type":"Feature","properties":{"unitId":411,"unitName":"Old Hubli PS"},"geometry":{"type":"Polygon","coordinates":[[[75.1298,15.34989],[75.1311,15.34696],[75.13356,15.34383],[75.13195,15.34075],[75.13141,15.33688],[75.13053,15.33582],[75.13159,15.33284],[75.13089,15.33205],[75.12941,15.33169],[75.12611,15.32422],[75.12396,15.32355],[75.12349,15.32007],[75.11552,15.31938],[75.11484,15.3192],[75.11483,15.31772],[75.10818,15.3182],[75.10331,15.32012],[75.09887,15.32067],[75.09947,15.32256],[75.09786,15.32318],[75.09924,15.32548],[75.09648,15.32567],[75.09536,15.32778],[75.09076,15.33148],[75.08859,15.33225],[75.08543,15.33199],[75.08418,15.33327],[75.08497,15.33614],[75.08348,15.34057],[75.08457,15.34267],[75.085,15.34587],[75.08619,15.3486],[75.08993,15.34855],[75.09042,15.34939],[75.09551,15.34981],[75.09659,15.34492],[75.09729,15.34398],[75.1035,15.34309],[75.10532,15.34306],[75.10584,15.34356],[75.11003,15.34261],[75.11049,15.34293],[75.11215,15.34205],[75.11263,15.3411],[75.11335,15.34116],[75.11273,15.34451],[75.11413,15.34451],[75.11553,15.34353],[75.11614,15.34375],[75.11527,15.34782],[75.12385,15.34854],[75.12408,15.34734],[75.12678,15.34772],[75.12671,15.3491],[75.1298,15.34989]]]}},{"type":"Feature","properties":{"unitId":412,"unitName":"Alnavar PS"},"geometry":{"type":"Polygon","coordinates":[[[74.80322,15.4973],[74.80667,15.49015],[74.80893,15.48655],[74.8092,15.485],[74.81023,15.48314],[74.81269,15.48098],[74.81457,15.47854],[74.81808,15.47983],[74.82149,15.48043],[74.82278,15.48104],[74.82263,15.48149],[74.82658,15.48328],[74.82801,15.48454],[74.82895,15.48726],[74.83107,15.48878],[74.83382,15.48867],[74.83719,15.49078],[74.83776,15.49042],[74.84041,15.49157],[74.84088,15.48992],[74.83827,15.48938],[74.83817,15.48781],[74.83968,15.48446],[74.83975,15.48287],[74.83837,15.48166],[74.83952,15.47881],[74.83561,15.47821],[74.83612,15.47717],[74.83733,15.47696],[74.83767,15.47629],[74.8379,15.47066],[74.83845,15.47051],[74.83928,15.46755],[74.84135,15.46693],[74.85102,15.47075],[74.85581,15.47113],[74.86095,15.47393],[74.8614,15.47192],[74.86288,15.46967],[74.86372,15.46732],[74.86278,15.46384],[74.86292,15.46272],[74.8644,15.46117],[74.86499,15.45981],[74.86487,15.45913],[74.86409,15.4586],[74.86447,15.45634],[74.86527,15.45596],[74.86953,15.45712],[74.87004,15.45082],[74.87245,15.44476],[74.87228,15.44425],[74.8745,15.44324],[74.87571,15.44384],[74.87614,15.44299],[74.87858,15.44115],[74.87967,15.43561],[74.87843,15.43465],[74.87293,15.43365],[74.87073,15.43371],[74.86802,15.43478],[74.86541,15.43388],[74.86442,15.43487],[74.86094,15.4317],[74.85982,15.43218],[74.8589,15.43539],[74.85701,15.43769],[74.85402,15.43864],[74.85223,15.43828],[74.8517,15.43942],[74.85123,15.43943],[74.85013,15.4425],[74.8432,15.44166],[74.83815,15.44004],[74.83516,15.43838],[74.83662,15.43499],[74.8405,15.42954],[74.8404,15.42897],[74.83944,15.4285],[74.84384,15.42061],[74.84395,15.41949],[74.84577,15.41771],[74.84771,15.41918],[74.85272,15.41196],[74.85984,15.40338],[74.85898,15.40002],[74.8562,15.3961],[74.85588,15.39351],[74.85419,15.39016],[74.85319,15.38523],[74.85022,15.38033],[74.85941,15.37792],[74.86389,15.3799],[74.86634,15.38311],[74.8719,15.38219],[74.87414,15.38237],[74.87089,15.38975],[74.86646,15.39629],[74.86726,15.39836],[74.87951,15.40404],[74.88444,15.4077],[74.88572,15.40757],[74.88797,15.40873],[74.89165,15.40962],[74.89909,15.41025],[74.89954,15.41129],[74.89822,15.41164],[74.89827,15.41228],[74.89763,15.41262],[74.89791,15.41313],[74.8971,15.41367],[74.89882,15.41395],[74.8969,15.41562],[74.89638,15.41541],[74.89582,15.41631],[74.89616,15.41647],[74.896,15.4178],[74.89548,15.41801],[74.89608,15.41927],[74.89545,15.42043],[74.89632,15.42111],[74.89586,15.42118],[74.89536,15.42235],[74.89569,15.42301],[74.89603,15.42276],[74.89612,15.42341],[74.90171,15.42385],[74.90244,15.42465],[74.90483,15.42488],[74.90553,15.42252],[74.90745,15.42263],[74.90847,15.42097],[74.90793,15.41365],[74.90905,15.41108],[74.90836,15.40852],[74.90976,15.40764],[74.91024,15.4048],[74.91086,15.40444],[74.91412,15.40496],[74.91674,15.40481],[74.91801,15.4065],[74.91892,15.40578],[74.91882,15.40821],[74.92383,15.41098],[74.92668,15.41485],[74.92959,15.41519],[74.9295,15.4133],[74.93127,15.40953],[74.93248,15.40979],[74.93776,15.40433],[74.94034,15.40401],[74.94284,15.40493],[74.94395,15.40377],[74.94531,15.39986],[74.94831,15.40176],[74.95236,15.40203],[74.95412,15.39681],[74.95423,15.39523],[74.95479,15.39392],[74.95579,15.39309],[74.95503,15.39128],[74.95636,15.38967],[74.95296,15.3885],[74.95344,15.38745],[74.95265,15.38581],[74.95271,15.38451],[74.95384,15.38336],[74.95415,15.38044],[74.955,15.37915],[74.94366,15.3745],[74.94316,15.37305],[74.94414,15.36991],[74.94392,15.36652],[74.94714,15.36449],[74.94852,15.36074],[74.94981,15.35928],[74.95273,15.35728],[74.95473,15.35472],[74.95532,15.34226],[74.95347,15.34109],[74.95174,15.34184],[74.94607,15.33859],[74.94454,15.34561],[74.9424,15.3504],[74.93506,15.35036],[74.93143,15.34975],[74.92897,15.3449],[74.92921,15.34235],[74.92799,15.33702],[74.92865,15.3346],[74.92835,15.33279],[74.9288,15.32965],[74.93085,15.32586],[74.92702,15.3239],[74.92617,15.32416],[74.92257,15.32805],[74.91857,15.33379],[74.91696,15.33738],[74.9159,15.33731],[74.91201,15.33873],[74.90382,15.33562],[74.90072,15.3359],[74.89861,15.33496],[74.89005,15.33427],[74.88748,15.33365],[74.888,15.3299],[74.89022,15.3222],[74.89004,15.32065],[74.89179,15.31788],[74.88839,15.31781],[74.8869,15.31658],[74.88618,15.31683],[74.88474,15.31625],[74.88431,15.31503],[74.88348,15.31537],[74.88339,15.31484],[74.88167,15.31605],[74.87761,15.31715],[74.86118,15.32744],[74.85497,15.34036],[74.85441,15.3399],[74.8529,15.34006],[74.85069,15.33951],[74.85013,15.33996],[74.84813,15.33983],[74.84753,15.3376],[74.84672,15.33648],[74.84508,15.33562],[74.84176,15.33514],[74.83936,15.33565],[74.8359,15.33446],[74.83235,15.33624],[74.83144,15.33782],[74.82931,15.33959],[74.82631,15.3432],[74.82553,15.34487],[74.82492,15.349],[74.82588,15.34948],[74.82502,15.35142],[74.8246,15.35478],[74.81897,15.37092],[74.82367,15.37336],[74.83052,15.37365],[74.82934,15.37433],[74.82548,15.37836],[74.82028,15.38501],[74.81147,15.38127],[74.80979,15.37942],[74.80101,15.37772],[74.79532,15.3777],[74.79229,15.37879],[74.78978,15.38181],[74.78685,15.38332],[74.78538,15.38506],[74.7835,15.38957],[74.78217,15.39109],[74.78156,15.39413],[74.77072,15.3995],[74.77066,15.39998],[74.76972,15.40024],[74.76929,15.40133],[74.76863,15.40122],[74.76856,15.40031],[74.76629,15.40041],[74.76709,15.39999],[74.76702,15.39952],[74.76613,15.39948],[74.76621,15.39834],[74.76557,15.39833],[74.76462,15.40158],[74.76606,15.40333],[74.76846,15.40491],[74.76917,15.40651],[74.77033,15.40699],[74.77058,15.40852],[74.76956,15.40937],[74.76905,15.40923],[74.76774,15.41078],[74.76875,15.41338],[74.76876,15.41548],[74.76785,15.41618],[74.76809,15.41731],[74.76684,15.41773],[74.76293,15.41634],[74.76161,15.41407],[74.76035,15.41398],[74.75853,15.41158],[74.75749,15.41102],[74.75351,15.41049],[74.74839,15.4106],[74.7457,15.41263],[74.74092,15.41156],[74.74097,15.41385],[74.74023,15.41654],[74.74117,15.41956],[74.7398,15.41958],[74.73928,15.42137],[74.7382,15.42208],[74.7349,15.42299],[74.7335,15.42274],[74.73325,15.42442],[74.73244,15.42485],[74.73283,15.42506],[74.73218,15.42517],[74.73046,15.42712],[74.73069,15.42943],[74.73021,15.4303],[74.72942,15.43009],[74.7292,15.43114],[74.73027,15.43114],[74.73121,15.43192],[74.73081,15.4332],[74.73167,15.43342],[74.72986,15.43496],[74.72993,15.43553],[74.73179,15.43655],[74.7335,15.43886],[74.73562,15.44035],[74.7367,15.43996],[74.73549,15.4442],[74.73642,15.44476],[74.73875,15.44498],[74.7391,15.4469],[74.73992,15.44761],[74.73841,15.44777],[74.73811,15.44897],[74.73992,15.44943],[74.7391,15.44964],[74.74013,15.45155],[74.74089,15.45166],[74.74113,15.45105],[74.74228,15.45176],[74.74159,15.45271],[74.74261,15.45364],[74.7421,15.4535],[74.74168,15.45466],[74.74284,15.45533],[74.74233,15.45553],[74.74263,15.45597],[74.74221,15.45755],[74.74323,15.46054],[74.74245,15.46152],[74.74167,15.46164],[74.7423,15.46244],[74.74375,15.46295],[74.74262,15.46375],[74.74341,15.46598],[74.74213,15.46582],[74.74101,15.46669],[74.74065,15.46611],[74.73941,15.46649],[74.73619,15.46581],[74.73234,15.46928],[74.73103,15.47252],[74.73068,15.47237],[74.72977,15.47422],[74.72926,15.47401],[74.72884,15.47588],[74.72886,15.47653],[74.73094,15.47679],[74.73125,15.47628],[74.73103,15.47752],[74.73002,15.47871],[74.73073,15.47909],[74.72944,15.47916],[74.72974,15.47972],[74.73018,15.47948],[74.73025,15.48003],[74.72967,15.48035],[74.73015,15.48044],[74.72978,15.48115],[74.73023,15.4821],[74.72908,15.48192],[74.72915,15.48293],[74.72792,15.4832],[74.72896,15.48383],[74.72846,15.48388],[74.72855,15.48448],[74.72798,15.48453],[74.72738,15.4855],[74.72819,15.48644],[74.72681,15.48603],[74.72714,15.48708],[74.72667,15.48798],[74.73018,15.48911],[74.73321,15.48923],[74.7379,15.49043],[74.74252,15.49413],[74.74819,15.49537],[74.74894,15.4931],[74.74944,15.49286],[74.74978,15.49071],[74.75058,15.49089],[74.75104,15.48945],[74.75219,15.48954],[74.75268,15.48782],[74.75432,15.48803],[74.75472,15.48675],[74.75318,15.48511],[74.75332,15.48389],[74.75629,15.47953],[74.75587,15.47846],[74.75633,15.4775],[74.75574,15.47647],[74.75918,15.47403],[74.75965,15.47219],[74.76045,15.47185],[74.76021,15.47078],[74.76145,15.46992],[74.76454,15.47318],[74.76891,15.47052],[74.77383,15.46497],[74.7783,15.45847],[74.78046,15.46313],[74.78067,15.46452],[74.78326,15.46702],[74.78392,15.46943],[74.78536,15.47138],[74.78517,15.47278],[74.7869,15.47839],[74.78558,15.48166],[74.78521,15.48443],[74.78595,15.48496],[74.78604,15.48584],[74.78727,15.486],[74.78788,15.48662],[74.78904,15.48623],[74.78958,15.48669],[74.79148,15.48638],[74.79204,15.48581],[74.79273,15.48604],[74.79448,15.48763],[74.79398,15.48893],[74.79492,15.49049],[74.79862,15.49341],[74.7973,15.49746],[74.79934,15.49724],[74.79904,15.49805],[74.79971,15.49883],[74.80288,15.49806],[74.80322,15.4973]]]}},{"type":"Feature","properties":{"unitId":413,"unitName":"Dharwad Rural PS"},"geometry":{"type":"Polygon","coordinates":[[[75.06097,15.67317],[75.06104,15.67273],[75.0616,15.67277],[75.06167,15.67168],[75.06304,15.67058],[75.06332,15.66924],[75.06211,15.66095],[75.06002,15.65502],[75.05877,15.64646],[75.05569,15.63269],[75.05745,15.632],[75.05757,15.63117],[75.05852,15.63063],[75.06111,15.63051],[75.06132,15.62993],[75.06201,15.63023],[75.06241,15.62931],[75.06449,15.62759],[75.06414,15.6251],[75.06686,15.62556],[75.08023,15.6224],[75.08042,15.6205],[75.08259,15.6169],[75.08567,15.61571],[75.08526,15.61465],[75.08694,15.61251],[75.08981,15.61199],[75.09072,15.60943],[75.08853,15.60134],[75.08582,15.58757],[75.08469,15.58721],[75.08539,15.58157],[75.08474,15.58074],[75.08482,15.57576],[75.08545,15.57575],[75.08557,15.57772],[75.08831,15.57793],[75.08828,15.57123],[75.10765,15.57143],[75.10915,15.56689],[75.11152,15.56262],[75.1122,15.55973],[75.11259,15.55974],[75.11223,15.55961],[75.1118,15.55367],[75.11207,15.55127],[75.11643,15.55182],[75.11673,15.55139],[75.11762,15.54288],[75.14483,15.54429],[75.15742,15.54403],[75.17559,15.54653],[75.17659,15.54011],[75.17709,15.54018],[75.17696,15.53629],[75.17922,15.53666],[75.17983,15.53175],[75.17875,15.53104],[75.17849,15.52196],[75.18805,15.52282],[75.20321,15.52526],[75.21102,15.52582],[75.21174,15.52805],[75.22659,15.52858],[75.22655,15.50357],[75.2152,15.50057],[75.2089,15.49675],[75.20653,15.49469],[75.20156,15.49214],[75.19292,15.49092],[75.18283,15.49025],[75.18118,15.47899],[75.17929,15.47135],[75.17838,15.46175],[75.1741,15.46145],[75.17185,15.46082],[75.15832,15.45391],[75.15779,15.45241],[75.15589,15.44984],[75.14577,15.43843],[75.14302,15.43409],[75.14202,15.4222],[75.14052,15.42486],[75.13968,15.42532],[75.13799,15.42566],[75.13552,15.42484],[75.1348,15.42607],[75.13247,15.42642],[75.13189,15.42785],[75.12931,15.42774],[75.12887,15.42879],[75.12736,15.42803],[75.12686,15.4288],[75.12771,15.42891],[75.12698,15.43004],[75.12423,15.4297],[75.12328,15.43085],[75.12256,15.43017],[75.12224,15.43085],[75.11967,15.43034],[75.11818,15.43057],[75.11773,15.43111],[75.1151,15.43171],[75.11387,15.43283],[75.11259,15.43279],[75.11145,15.43147],[75.10905,15.43189],[75.10817,15.43155],[75.10735,15.43201],[75.10544,15.43178],[75.10421,15.4183],[75.105,15.40954],[75.09916,15.41274],[75.09518,15.41379],[75.08903,15.41461],[75.08277,15.41485],[75.07831,15.4138],[75.07618,15.41135],[75.0755,15.41361],[75.06802,15.41515],[75.06333,15.41712],[75.05845,15.42044],[75.05655,15.42235],[75.0556,15.42911],[75.05452,15.43126],[75.05288,15.43274],[75.05129,15.43317],[75.05034,15.43452],[75.04876,15.43526],[75.04749,15.43416],[75.04565,15.43348],[75.04064,15.43268],[75.0376,15.43656],[75.03589,15.43772],[75.03365,15.43824],[75.03041,15.44209],[75.02737,15.44437],[75.02489,15.44735],[75.02365,15.45067],[75.02166,15.45293],[75.02625,15.4548],[75.02466,15.45896],[75.03326,15.46203],[75.03216,15.46349],[75.02669,15.46485],[75.02271,15.46686],[75.0266,15.46843],[75.02651,15.46885],[75.02818,15.47054],[75.02996,15.47154],[75.0296,15.47726],[75.02098,15.47706],[75.02073,15.47633],[75.0175,15.47838],[75.01409,15.47859],[75.00969,15.47657],[75.0055,15.47646],[74.99266,15.49071],[74.98907,15.49247],[74.98812,15.49243],[74.98635,15.4941],[74.98376,15.49819],[74.98286,15.49889],[74.98095,15.4992],[74.97959,15.49881],[74.97642,15.49687],[74.97342,15.49225],[74.97075,15.49124],[74.97061,15.48829],[74.96952,15.48517],[74.96756,15.46863],[74.96504,15.46863],[74.96489,15.46597],[74.96395,15.46437],[74.96167,15.46285],[74.96041,15.46269],[74.96057,15.4598],[74.96222,15.45752],[74.96599,15.45714],[74.96622,15.45424],[74.96717,15.45105],[74.96913,15.44755],[74.96944,15.44389],[74.96583,15.43488],[74.96614,15.43423],[74.96908,15.43413],[74.97419,15.43198],[74.9766,15.43186],[74.98704,15.43328],[74.98752,15.43385],[74.98839,15.43152],[74.98623,15.42734],[74.98417,15.42626],[74.98331,15.42367],[74.98172,15.42371],[74.98116,15.42452],[74.9803,15.42208],[74.98124,15.42117],[74.98073,15.41925],[74.98164,15.41738],[74.98437,15.41493],[74.9851,15.41515],[74.98533,15.41441],[74.99217,15.41307],[74.99561,15.41357],[75.00293,15.41799],[75.00637,15.41716],[75.0087,15.41252],[75.01093,15.41088],[75.01729,15.40793],[75.02507,15.40637],[75.03145,15.40391],[75.03436,15.40507],[75.03785,15.40747],[75.03943,15.40784],[75.04653,15.40716],[75.04812,15.40833],[75.05484,15.40735],[75.05718,15.40636],[75.0576,15.40487],[75.05894,15.40337],[75.06455,15.40258],[75.0662,15.40152],[75.06635,15.39913],[75.06451,15.39542],[75.06556,15.38778],[75.05796,15.38527],[75.03988,15.38341],[75.04038,15.37816],[75.04329,15.37216],[75.02846,15.3678],[75.02276,15.36739],[75.0215,15.36903],[75.01543,15.36575],[75.01028,15.3604],[75.00519,15.35946],[75.00478,15.36071],[75.00221,15.3599],[75.00263,15.35842],[74.99572,15.3578],[74.99465,15.35878],[74.99467,15.35773],[74.99034,15.35788],[74.98234,15.35641],[74.98228,15.3545],[74.98167,15.35459],[74.98162,15.3542],[74.97656,15.35398],[74.96421,15.35009],[74.96321,15.34933],[74.96359,15.34892],[74.95521,15.34779],[74.95473,15.35472],[74.95273,15.35728],[74.94981,15.35928],[74.94852,15.36074],[74.94714,15.36449],[74.94392,15.36652],[74.94414,15.36991],[74.94316,15.37305],[74.94366,15.3745],[74.955,15.37915],[74.95415,15.38044],[74.95384,15.38336],[74.95271,15.38451],[74.95265,15.38581],[74.95344,15.38745],[74.95296,15.3885],[74.95636,15.38967],[74.95503,15.39128],[74.95579,15.39309],[74.95479,15.39392],[74.95423,15.39523],[74.95412,15.39681],[74.95236,15.40203],[74.94831,15.40176],[74.94531,15.39986],[74.94395,15.40377],[74.94284,15.40493],[74.94034,15.40401],[74.93776,15.40433],[74.93248,15.40979],[74.93127,15.40953],[74.9295,15.4133],[74.92959,15.41519],[74.92668,15.41485],[74.92383,15.41098],[74.91882,15.40821],[74.91892,15.40578],[74.91801,15.4065],[74.91674,15.40481],[74.91412,15.40496],[74.91086,15.40444],[74.91024,15.4048],[74.90976,15.40764],[74.90836,15.40852],[74.90905,15.41108],[74.90793,15.41365],[74.90847,15.42097],[74.90745,15.42263],[74.90553,15.42252],[74.90483,15.42488],[74.90431,15.42494],[74.90244,15.42465],[74.90171,15.42385],[74.89612,15.42341],[74.89603,15.42276],[74.89569,15.42301],[74.89536,15.42235],[74.89586,15.42118],[74.89632,15.42111],[74.89545,15.42043],[74.89608,15.41927],[74.89548,15.41801],[74.896,15.4178],[74.89616,15.41647],[74.89582,15.41631],[74.89638,15.41541],[74.8969,15.41562],[74.89882,15.41395],[74.8971,15.41367],[74.89791,15.41313],[74.89763,15.41262],[74.89827,15.41228],[74.89822,15.41164],[74.89954,15.41129],[74.89909,15.41025],[74.89165,15.40962],[74.88797,15.40873],[74.88572,15.40757],[74.88444,15.4077],[74.87951,15.40404],[74.86726,15.39836],[74.86646,15.39629],[74.87089,15.38975],[74.87414,15.38237],[74.8719,15.38219],[74.86634,15.38311],[74.86389,15.3799],[74.85941,15.37792],[74.85022,15.38033],[74.85319,15.38523],[74.85419,15.39016],[74.85588,15.39351],[74.8562,15.3961],[74.85898,15.40002],[74.85984,15.40338],[74.85272,15.41196],[74.84771,15.41918],[74.84577,15.41771],[74.84395,15.41949],[74.84384,15.42061],[74.83944,15.4285],[74.8404,15.42897],[74.8405,15.42954],[74.83662,15.43499],[74.83516,15.43838],[74.83815,15.44004],[74.8432,15.44166],[74.85013,15.4425],[74.85123,15.43943],[74.8517,15.43942],[74.85223,15.43828],[74.85402,15.43864],[74.85701,15.43769],[74.8589,15.43539],[74.85982,15.43218],[74.86094,15.4317],[74.86442,15.43487],[74.86541,15.43388],[74.86802,15.43478],[74.87073,15.43371],[74.87293,15.43365],[74.87843,15.43465],[74.87967,15.43561],[74.87925,15.43918],[74.87852,15.4413],[74.87614,15.44299],[74.87571,15.44384],[74.8745,15.44324],[74.87228,15.44425],[74.87245,15.44476],[74.87004,15.45082],[74.86953,15.45712],[74.86527,15.45596],[74.86447,15.45634],[74.86409,15.4586],[74.86487,15.45913],[74.86499,15.45981],[74.8644,15.46117],[74.86292,15.46272],[74.86278,15.46384],[74.86372,15.46732],[74.86288,15.46967],[74.8614,15.47192],[74.86095,15.47393],[74.85581,15.47113],[74.85102,15.47075],[74.84135,15.46693],[74.83928,15.46755],[74.83845,15.47051],[74.8379,15.47066],[74.83767,15.47629],[74.83733,15.47696],[74.83612,15.47717],[74.83561,15.47821],[74.83952,15.47881],[74.83837,15.48166],[74.83975,15.48287],[74.83968,15.48446],[74.83817,15.48781],[74.83827,15.48938],[74.84088,15.48992],[74.84041,15.49157],[74.83776,15.49042],[74.83719,15.49078],[74.83382,15.48867],[74.83107,15.48878],[74.82895,15.48726],[74.82801,15.48454],[74.82658,15.48328],[74.82263,15.48149],[74.82278,15.48104],[74.82149,15.48043],[74.81808,15.47983],[74.81457,15.47854],[74.81269,15.48098],[74.81023,15.48314],[74.8092,15.485],[74.80893,15.48655],[74.80667,15.49015],[74.80365,15.49651],[74.80547,15.49741],[74.80196,15.50151],[74.8059,15.50113],[74.81437,15.50397],[74.80936,15.51062],[74.81137,15.5207],[74.8129,15.52275],[74.81494,15.52357],[74.81743,15.52535],[74.81745,15.52609],[74.8183,15.52657],[74.81886,15.5287],[74.81836,15.5301],[74.82231,15.53098],[74.82143,15.53417],[74.83098,15.53721],[74.83096,15.53639],[74.83545,15.53838],[74.83568,15.53936],[74.83818,15.5401],[74.83905,15.53943],[74.84095,15.53944],[74.84352,15.53478],[74.845,15.53005],[74.84737,15.52689],[74.84817,15.52485],[74.85117,15.51448],[74.85179,15.51463],[74.85176,15.51553],[74.85309,15.51585],[74.85545,15.51531],[74.85577,15.51582],[74.8568,15.51591],[74.8584,15.51495],[74.86199,15.5155],[74.86234,15.51817],[74.86387,15.51989],[74.86946,15.52392],[74.87515,15.53218],[74.87754,15.52687],[74.87802,15.52351],[74.88045,15.51611],[74.88131,15.51531],[74.87711,15.51299],[74.87448,15.51003],[74.87218,15.50985],[74.87286,15.50502],[74.87449,15.49896],[74.87391,15.49868],[74.8719,15.49506],[74.87528,15.48822],[74.87606,15.48549],[74.8777,15.48628],[74.88407,15.48726],[74.89104,15.48915],[74.89242,15.49038],[74.90008,15.49357],[74.90175,15.48756],[74.90277,15.48114],[74.90386,15.48101],[74.90503,15.47999],[74.90733,15.48068],[74.91329,15.48421],[74.91788,15.48433],[74.92461,15.48539],[74.92497,15.48583],[74.92935,15.48639],[74.93158,15.48782],[74.93533,15.48849],[74.9435,15.49319],[74.94836,15.49541],[74.94982,15.49555],[74.95785,15.49966],[74.95627,15.50217],[74.95581,15.50507],[74.95483,15.50714],[74.95141,15.50668],[74.95088,15.51069],[74.95962,15.51216],[74.95951,15.51467],[74.96109,15.51539],[74.96094,15.51746],[74.96374,15.51877],[74.96027,15.52436],[74.96374,15.52593],[74.96326,15.52867],[74.96342,15.53174],[74.96221,15.53763],[74.96954,15.53957],[74.976,15.54251],[74.98667,15.54407],[74.98715,15.54107],[74.98579,15.5295],[74.99588,15.52976],[74.99981,15.53082],[75.00998,15.53238],[75.0229,15.53554],[75.02251,15.53641],[75.02123,15.5371],[75.0205,15.53812],[75.01906,15.54215],[75.01939,15.54287],[75.01872,15.54412],[75.01899,15.54547],[75.01822,15.54634],[75.01826,15.54669],[75.02057,15.547],[75.01895,15.54988],[75.01954,15.55637],[75.01834,15.56055],[75.01655,15.56299],[75.01743,15.56454],[75.01677,15.56516],[75.01662,15.57144],[75.01531,15.57603],[75.02333,15.57713],[75.02326,15.57745],[75.03083,15.57915],[75.04174,15.58238],[75.03905,15.60444],[75.03886,15.60964],[75.03961,15.61833],[75.03633,15.61766],[75.03562,15.62727],[75.0355,15.63079],[75.03758,15.64616],[75.03768,15.65723],[75.03862,15.67011],[75.04686,15.6704],[75.04983,15.68278],[75.05957,15.68303],[75.05934,15.68073],[75.06097,15.67317]]]}},{"type":"Feature","properties":{"unitId":414,"unitName":"Garag PS"},"geometry":{"type":"Polygon","coordinates":[[[75.02982,15.66998],[75.03862,15.66999],[75.03768,15.65723],[75.03758,15.64616],[75.0355,15.63079],[75.03562,15.62727],[75.03633,15.61766],[75.03961,15.61833],[75.03886,15.60964],[75.03905,15.60444],[75.04174,15.58238],[75.03083,15.57915],[75.02326,15.57745],[75.02333,15.57713],[75.01531,15.57603],[75.01662,15.57144],[75.01677,15.56516],[75.01743,15.56454],[75.01655,15.56299],[75.01834,15.56055],[75.01954,15.55637],[75.01895,15.54988],[75.02057,15.547],[75.01826,15.54669],[75.01822,15.54634],[75.01899,15.54547],[75.01872,15.54412],[75.01939,15.54287],[75.01906,15.54215],[75.0205,15.53812],[75.02123,15.5371],[75.02251,15.53641],[75.0229,15.53554],[75.00998,15.53238],[74.99981,15.53082],[74.99588,15.52976],[74.98579,15.5295],[74.98715,15.54107],[74.98667,15.54407],[74.976,15.54251],[74.96954,15.53957],[74.96221,15.53763],[74.96342,15.53174],[74.96326,15.52867],[74.96374,15.52593],[74.96027,15.52436],[74.96374,15.51877],[74.96094,15.51746],[74.96109,15.51539],[74.95951,15.51467],[74.95962,15.51216],[74.95088,15.51069],[74.95141,15.50668],[74.95483,15.50714],[74.95581,15.50507],[74.95627,15.50217],[74.95785,15.49966],[74.94982,15.49555],[74.94836,15.49541],[74.9435,15.49319],[74.93533,15.48849],[74.93158,15.48782],[74.92935,15.48639],[74.92497,15.48583],[74.92461,15.48539],[74.91788,15.48433],[74.91329,15.48421],[74.90733,15.48068],[74.90503,15.47999],[74.90386,15.48101],[74.90277,15.48114],[74.90175,15.48756],[74.90008,15.49357],[74.89242,15.49038],[74.89104,15.48915],[74.88407,15.48726],[74.8777,15.48628],[74.87606,15.48549],[74.87528,15.48822],[74.8719,15.49506],[74.87391,15.49868],[74.87449,15.49896],[74.87286,15.50502],[74.87218,15.50985],[74.87448,15.51003],[74.87711,15.51299],[74.88131,15.51531],[74.88045,15.51611],[74.87802,15.52351],[74.87754,15.52687],[74.87515,15.53218],[74.86946,15.52392],[74.86387,15.51989],[74.86234,15.51817],[74.86199,15.5155],[74.8584,15.51495],[74.8568,15.51591],[74.85577,15.51582],[74.85545,15.51531],[74.85309,15.51585],[74.85176,15.51553],[74.85179,15.51463],[74.85117,15.51448],[74.84817,15.52485],[74.84737,15.52689],[74.845,15.53005],[74.84352,15.53478],[74.84095,15.53944],[74.83905,15.53943],[74.83818,15.5401],[74.83568,15.53936],[74.83545,15.53838],[74.83096,15.53639],[74.83098,15.53721],[74.82143,15.53417],[74.82231,15.53098],[74.81836,15.5301],[74.81886,15.5287],[74.8183,15.52657],[74.81745,15.52609],[74.81743,15.52535],[74.81494,15.52357],[74.8129,15.52275],[74.81131,15.52077],[74.80883,15.52643],[74.80703,15.52834],[74.80622,15.53005],[74.803,15.53858],[74.80176,15.53948],[74.79721,15.54756],[74.80119,15.54927],[74.80165,15.54894],[74.80772,15.55043],[74.80725,15.55053],[74.80721,15.55159],[74.80785,15.55337],[74.81106,15.5542],[74.81224,15.5568],[74.81496,15.55747],[74.81642,15.55949],[74.82033,15.56196],[74.82003,15.56557],[74.82316,15.56631],[74.82303,15.56758],[74.82346,15.56785],[74.82554,15.5677],[74.82632,15.56942],[74.83325,15.57094],[74.84085,15.57461],[74.83785,15.57709],[74.83587,15.58538],[74.83224,15.59101],[74.82998,15.5901],[74.82947,15.60331],[74.82857,15.60838],[74.8303,15.61005],[74.83881,15.61201],[74.84035,15.60818],[74.84299,15.60777],[74.84659,15.60815],[74.85015,15.60947],[74.85293,15.60984],[74.85566,15.61106],[74.85571,15.61223],[74.8563,15.61255],[74.87197,15.61616],[74.87803,15.61706],[74.87889,15.61752],[74.87764,15.62218],[74.87832,15.62121],[74.88195,15.62358],[74.88654,15.62832],[74.88722,15.62982],[74.89203,15.63069],[74.90173,15.63144],[74.91244,15.63046],[74.91793,15.62825],[74.92448,15.62431],[74.92821,15.62315],[74.93269,15.62265],[74.93835,15.623],[74.94447,15.62225],[74.95637,15.62579],[74.9652,15.62627],[74.96529,15.63297],[74.96414,15.64217],[74.96424,15.64541],[74.96511,15.6459],[74.96702,15.65216],[74.96694,15.65308],[74.97866,15.64829],[74.98708,15.65046],[74.99162,15.65096],[74.99174,15.65005],[75.01553,15.64515],[75.01942,15.64479],[75.02152,15.65022],[75.02332,15.65213],[75.02746,15.65201],[75.02845,15.66245],[75.02852,15.67012],[75.02982,15.66998]]]}},{"type":"Feature","properties":{"unitId":415,"unitName":"Hubli Rural PS"},"geometry":{"type":"MultiPolygon","coordinates":[[[[75.23276,15.50383],[75.25243,15.50209],[75.2512,15.48097],[75.25871,15.48083],[75.26532,15.47971],[75.28127,15.47875],[75.31937,15.47854],[75.32678,15.47893],[75.3264,15.46684],[75.32612,15.46586],[75.3252,15.46587],[75.3229,15.45591],[75.32153,15.45336],[75.32197,15.4527],[75.32145,15.44639],[75.31916,15.4465],[75.3096,15.44457],[75.30641,15.44433],[75.30518,15.42741],[75.31827,15.42415],[75.31901,15.41827],[75.3197,15.4164],[75.32664,15.41099],[75.32784,15.39635],[75.3314,15.37556],[75.33134,15.37079],[75.33371,15.36494],[75.33494,15.36503],[75.33677,15.36129],[75.33911,15.35078],[75.32945,15.34765],[75.3087,15.33928],[75.28847,15.33621],[75.2888,15.33449],[75.28842,15.3344],[75.28662,15.33571],[75.2841,15.33505],[75.2798,15.33572],[75.28007,15.333],[75.2792,15.33288],[75.27856,15.33067],[75.2777,15.32377],[75.26472,15.32514],[75.25378,15.32315],[75.24537,15.32251],[75.23121,15.31997],[75.23091,15.32073],[75.21171,15.31201],[75.20739,15.3114],[75.20108,15.30601],[75.19704,15.30111],[75.19407,15.29596],[75.19469,15.29415],[75.19549,15.29328],[75.19616,15.29326],[75.19621,15.29117],[75.19577,15.29069],[75.19683,15.28854],[75.19552,15.28762],[75.19592,15.2872],[75.19582,15.28548],[75.19674,15.2831],[75.19794,15.28195],[75.19758,15.28029],[75.19803,15.28016],[75.1981,15.27857],[75.19891,15.27865],[75.19917,15.27817],[75.19908,15.27706],[75.19996,15.27577],[75.19996,15.27462],[75.20164,15.2736],[75.20213,15.27177],[75.20282,15.27211],[75.20307,15.27182],[75.20422,15.26905],[75.20465,15.26352],[75.20312,15.26128],[75.20247,15.25686],[75.20068,15.25426],[75.20079,15.25241],[75.19919,15.25199],[75.19882,15.251],[75.19721,15.24243],[75.18257,15.23989],[75.17459,15.23622],[75.17524,15.23315],[75.17479,15.23279],[75.17515,15.22345],[75.17663,15.21797],[75.17719,15.21815],[75.17935,15.21216],[75.17858,15.20929],[75.17515,15.20646],[75.17486,15.20419],[75.17219,15.20251],[75.17391,15.19769],[75.17085,15.19664],[75.16825,15.19637],[75.16787,15.19558],[75.1691,15.18784],[75.16809,15.18194],[75.16831,15.17977],[75.16723,15.17972],[75.16752,15.17789],[75.16846,15.17791],[75.16819,15.17635],[75.16879,15.17481],[75.16596,15.1738],[75.16611,15.17056],[75.16142,15.17033],[75.15333,15.16891],[75.14102,15.1685],[75.14142,15.16266],[75.14079,15.15904],[75.13736,15.15794],[75.13716,15.16096],[75.13511,15.16105],[75.12748,15.16402],[75.12623,15.16557],[75.12546,15.16543],[75.12471,15.16654],[75.12341,15.17261],[75.12673,15.17342],[75.1269,15.17483],[75.12607,15.17595],[75.12294,15.17793],[75.1195,15.17893],[75.11812,15.17979],[75.11791,15.17931],[75.11675,15.17898],[75.1164,15.18115],[75.11597,15.18013],[75.11504,15.18147],[75.11513,15.18482],[75.11688,15.18458],[75.11594,15.18604],[75.11678,15.18681],[75.11612,15.18792],[75.11698,15.18888],[75.11629,15.19027],[75.11692,15.19407],[75.11407,15.1946],[75.11066,15.1963],[75.10918,15.19924],[75.10557,15.20417],[75.1001,15.20708],[75.09877,15.20919],[75.09593,15.21136],[75.09556,15.21345],[75.09503,15.21406],[75.08838,15.21417],[75.08239,15.21237],[75.08123,15.21172],[75.08042,15.20979],[75.07588,15.20951],[75.07578,15.2106],[75.07441,15.21183],[75.06729,15.21286],[75.06609,15.21227],[75.06469,15.22665],[75.06283,15.23041],[75.06403,15.23076],[75.06402,15.23191],[75.06537,15.23446],[75.06674,15.23467],[75.06637,15.23545],[75.06665,15.23594],[75.06759,15.23618],[75.06836,15.23503],[75.0694,15.23501],[75.06968,15.23536],[75.06889,15.23633],[75.06909,15.23682],[75.0698,15.23734],[75.07101,15.23718],[75.07164,15.24019],[75.07254,15.24022],[75.07363,15.24102],[75.07456,15.24024],[75.0761,15.24064],[75.07344,15.24852],[75.07296,15.25386],[75.07208,15.25519],[75.07173,15.26177],[75.06963,15.26111],[75.06842,15.26189],[75.06684,15.2644],[75.06708,15.26517],[75.06629,15.26628],[75.06654,15.26728],[75.06598,15.26764],[75.06636,15.26772],[75.06647,15.26875],[75.06578,15.27003],[75.06653,15.27027],[75.06653,15.27242],[75.06777,15.27402],[75.06681,15.27607],[75.06839,15.27806],[75.06781,15.27867],[75.06785,15.28036],[75.06547,15.28274],[75.06509,15.28247],[75.0644,15.28286],[75.06382,15.28416],[75.06336,15.28404],[75.06211,15.28516],[75.06208,15.28608],[75.05902,15.28943],[75.0589,15.29142],[75.05746,15.29269],[75.05771,15.29391],[75.05555,15.29605],[75.05522,15.29715],[75.05577,15.30164],[75.05514,15.30371],[75.05536,15.30625],[75.04581,15.30183],[75.04034,15.31073],[75.03795,15.31358],[75.03469,15.31501],[75.03013,15.31881],[75.02697,15.32635],[75.02003,15.3365],[75.02189,15.3452],[75.01406,15.35756],[75.01339,15.36397],[75.01543,15.36575],[75.0215,15.36903],[75.02276,15.36739],[75.02846,15.3678],[75.04329,15.37216],[75.04038,15.37816],[75.03988,15.38341],[75.05796,15.38527],[75.06556,15.38778],[75.06705,15.38304],[75.07286,15.37885],[75.0774,15.37823],[75.08335,15.37864],[75.08576,15.37795],[75.09398,15.38001],[75.09752,15.38344],[75.09873,15.38344],[75.09929,15.38276],[75.10516,15.38184],[75.10351,15.38042],[75.10193,15.38037],[75.09993,15.38172],[75.09978,15.38075],[75.09868,15.38005],[75.09959,15.37731],[75.09772,15.37634],[75.10046,15.36662],[75.0993,15.36569],[75.09535,15.36747],[75.09078,15.36607],[75.08135,15.36696],[75.04528,15.36748],[75.04254,15.36512],[75.04825,15.3618],[75.04901,15.36047],[75.04893,15.35966],[75.05082,15.358],[75.05244,15.35867],[75.05234,15.35916],[75.0636,15.35119],[75.08348,15.34057],[75.08497,15.33614],[75.08418,15.33327],[75.08543,15.33199],[75.08859,15.33225],[75.09076,15.33148],[75.09536,15.32778],[75.09648,15.32567],[75.09924,15.32548],[75.09786,15.32318],[75.09947,15.32256],[75.09887,15.32067],[75.10331,15.32012],[75.10818,15.3182],[75.11483,15.31772],[75.11484,15.3192],[75.12298,15.32005],[75.12412,15.31304],[75.12377,15.31165],[75.12684,15.31138],[75.12784,15.31054],[75.1287,15.30874],[75.13127,15.30769],[75.13692,15.3072],[75.13814,15.30859],[75.14129,15.30699],[75.1425,15.30783],[75.14365,15.30755],[75.14636,15.30804],[75.16026,15.30749],[75.16342,15.30987],[75.16494,15.31036],[75.16456,15.31142],[75.16505,15.31113],[75.16928,15.31398],[75.1739,15.32153],[75.1753,15.32655],[75.17472,15.33295],[75.17354,15.33772],[75.17041,15.34397],[75.16757,15.34595],[75.16897,15.3455],[75.17328,15.34548],[75.17766,15.34664],[75.18229,15.34868],[75.18252,15.35876],[75.18167,15.36597],[75.17912,15.36957],[75.1792,15.37042],[75.16191,15.38103],[75.15715,15.38311],[75.15298,15.38062],[75.14989,15.37978],[75.14935,15.38157],[75.14829,15.3826],[75.14093,15.38431],[75.11992,15.38448],[75.1126,15.39385],[75.11144,15.40162],[75.105,15.40954],[75.10421,15.4183],[75.10544,15.43178],[75.10735,15.43201],[75.10817,15.43155],[75.10905,15.43189],[75.11145,15.43147],[75.11259,15.43279],[75.11387,15.43283],[75.1151,15.43171],[75.11773,15.43111],[75.11818,15.43057],[75.11967,15.43034],[75.12224,15.43085],[75.12256,15.43017],[75.12328,15.43085],[75.12423,15.4297],[75.12698,15.43004],[75.12771,15.42891],[75.12686,15.4288],[75.12736,15.42803],[75.12887,15.42879],[75.12931,15.42774],[75.13189,15.42785],[75.13247,15.42642],[75.1348,15.42607],[75.13552,15.42484],[75.13799,15.42566],[75.13968,15.42532],[75.14052,15.42486],[75.14202,15.4222],[75.14302,15.43409],[75.14577,15.43843],[75.15589,15.44984],[75.15779,15.45241],[75.15832,15.45391],[75.17185,15.46082],[75.1741,15.46145],[75.17838,15.46175],[75.17929,15.47135],[75.18118,15.47899],[75.18283,15.49025],[75.19292,15.49092],[75.20156,15.49214],[75.20653,15.49469],[75.2089,15.49675],[75.2152,15.50057],[75.22652,15.50357],[75.23276,15.50383]]],[[[75.42267,15.36195],[75.44802,15.35885],[75.45454,15.36043],[75.45631,15.35114],[75.45746,15.34188],[75.4537,15.34129],[75.45103,15.33404],[75.44949,15.32763],[75.44877,15.32058],[75.45009,15.30163],[75.44185,15.30114],[75.44172,15.30179],[75.42578,15.3019],[75.4257,15.29976],[75.41233,15.30003],[75.41203,15.29751],[75.41139,15.29738],[75.39994,15.29782],[75.38979,15.29879],[75.38782,15.31452],[75.38594,15.32408],[75.36945,15.32252],[75.36916,15.32467],[75.3545,15.32309],[75.354,15.32657],[75.35264,15.32982],[75.35012,15.32944],[75.34634,15.35014],[75.3498,15.35077],[75.35552,15.3529],[75.35728,15.35443],[75.36473,15.35886],[75.36464,15.36003],[75.38754,15.36125],[75.39404,15.36205],[75.42267,15.36195]]]]}},{"type":"Feature","properties":{"unitId":416,"unitName":"Kalaghatagi PS"},"geometry":{"type":"Polygon","coordinates":[[[75.01384,15.35979],[75.01406,15.35756],[75.02189,15.3452],[75.02003,15.3365],[75.02697,15.32635],[75.03013,15.31881],[75.03469,15.31501],[75.03795,15.31358],[75.04034,15.31073],[75.04581,15.30183],[75.05536,15.30625],[75.05514,15.30371],[75.05577,15.30164],[75.05522,15.29715],[75.05555,15.29605],[75.05771,15.29391],[75.05746,15.29269],[75.0589,15.29142],[75.05902,15.28943],[75.06208,15.28608],[75.06211,15.28516],[75.06336,15.28404],[75.06382,15.28416],[75.0644,15.28286],[75.06509,15.28247],[75.06547,15.28274],[75.06785,15.28036],[75.06781,15.27867],[75.06839,15.27806],[75.06681,15.27607],[75.06777,15.27402],[75.06653,15.27242],[75.06653,15.27027],[75.06578,15.27003],[75.06647,15.26875],[75.06636,15.26772],[75.06598,15.26764],[75.06654,15.26728],[75.06629,15.26628],[75.06708,15.26517],[75.06684,15.2644],[75.06842,15.26189],[75.06963,15.26111],[75.07173,15.26177],[75.07208,15.25519],[75.07296,15.25386],[75.07344,15.24852],[75.0761,15.24064],[75.07456,15.24024],[75.07363,15.24102],[75.07254,15.24022],[75.07164,15.24019],[75.07101,15.23718],[75.0698,15.23734],[75.06909,15.23682],[75.06889,15.23633],[75.06968,15.23536],[75.0694,15.23501],[75.06836,15.23503],[75.06759,15.23618],[75.06665,15.23594],[75.06637,15.23545],[75.06674,15.23467],[75.06537,15.23446],[75.06402,15.23191],[75.06403,15.23076],[75.06283,15.23041],[75.06469,15.22665],[75.06609,15.21227],[75.06729,15.21286],[75.07441,15.21183],[75.07578,15.2106],[75.07588,15.20951],[75.08042,15.20979],[75.08123,15.21172],[75.08239,15.21237],[75.08838,15.21417],[75.09503,15.21406],[75.09556,15.21345],[75.09593,15.21136],[75.09877,15.20919],[75.1001,15.20708],[75.10557,15.20417],[75.10918,15.19924],[75.11066,15.1963],[75.11407,15.1946],[75.11692,15.19407],[75.11629,15.19027],[75.11698,15.18888],[75.11612,15.18792],[75.11678,15.18681],[75.11594,15.18604],[75.11688,15.18458],[75.11513,15.18482],[75.11504,15.18147],[75.11597,15.18013],[75.1164,15.18115],[75.11675,15.17898],[75.11791,15.17931],[75.11812,15.17979],[75.1195,15.17893],[75.12294,15.17793],[75.12607,15.17595],[75.1269,15.17483],[75.12673,15.17342],[75.12341,15.17261],[75.12403,15.16872],[75.12546,15.16543],[75.12623,15.16557],[75.12748,15.16402],[75.13397,15.16146],[75.13716,15.16096],[75.13736,15.15794],[75.1352,15.1571],[75.13491,15.15621],[75.1353,15.15183],[75.13463,15.15187],[75.13443,15.15077],[75.13395,15.15055],[75.13404,15.14817],[75.13044,15.1447],[75.12714,15.14427],[75.12611,15.1457],[75.12192,15.14025],[75.11892,15.14105],[75.1164,15.14081],[75.11065,15.13847],[75.10485,15.1407],[75.10457,15.14005],[75.10701,15.13899],[75.10558,15.1327],[75.10623,15.13026],[75.10965,15.12941],[75.10944,15.12785],[75.11193,15.12557],[75.11268,15.12308],[75.11465,15.12124],[75.11362,15.1172],[75.11101,15.11658],[75.10169,15.11603],[75.09522,15.114],[75.09522,15.11031],[75.09069,15.11121],[75.07863,15.11103],[75.07789,15.11055],[75.07873,15.10804],[75.07914,15.10421],[75.07966,15.10361],[75.07904,15.10204],[75.08045,15.09942],[75.08005,15.09875],[75.08072,15.09402],[75.08025,15.09087],[75.08108,15.08732],[75.08247,15.08586],[75.08079,15.07711],[75.08175,15.07445],[75.07093,15.07046],[75.06133,15.07211],[75.05827,15.07137],[75.05542,15.07277],[75.05401,15.08163],[75.05335,15.08254],[75.04584,15.0817],[75.04335,15.07946],[75.03731,15.07871],[75.03491,15.07891],[75.03387,15.07751],[75.03195,15.07756],[75.03228,15.07766],[75.03221,15.0768],[75.03294,15.07663],[75.03299,15.07593],[75.03207,15.07577],[75.03259,15.07544],[75.03209,15.07469],[75.03062,15.07462],[75.0304,15.0732],[75.0292,15.07377],[75.02846,15.07305],[75.02789,15.07383],[75.02708,15.07359],[75.02724,15.07315],[75.02669,15.07317],[75.02596,15.07204],[75.02552,15.07326],[75.0233,15.07126],[75.02295,15.07034],[75.0217,15.07017],[75.02083,15.07075],[75.02023,15.07004],[75.0198,15.0717],[75.01897,15.07174],[75.01907,15.07255],[75.01852,15.07264],[75.01754,15.07174],[75.01777,15.07103],[75.01741,15.0706],[75.01645,15.07099],[75.01509,15.0703],[75.01487,15.07078],[75.01381,15.06973],[75.01366,15.06878],[75.01282,15.06892],[75.013,15.06811],[75.01266,15.06798],[75.01112,15.06826],[75.01059,15.06887],[75.01058,15.06926],[75.01116,15.06934],[75.01095,15.06964],[75.00899,15.06955],[75.0083,15.07104],[75.00746,15.07125],[75.00703,15.07056],[75.00577,15.07104],[75.00511,15.06967],[75.0037,15.07015],[75.0029,15.06971],[75.00247,15.06997],[75.00264,15.07113],[75.00077,15.07016],[75.00021,15.07052],[74.99845,15.06974],[74.9951,15.07161],[74.99527,15.0728],[74.99484,15.07237],[74.9938,15.07257],[74.99411,15.07371],[74.99332,15.07285],[74.99173,15.07341],[74.99147,15.07284],[74.98941,15.07237],[74.98845,15.07301],[74.98786,15.07247],[74.98747,15.07299],[74.98626,15.07293],[74.98578,15.07249],[74.98643,15.0712],[74.98481,15.07162],[74.98496,15.07133],[74.98353,15.07042],[74.98185,15.06981],[74.98149,15.07013],[74.97901,15.0686],[74.97707,15.0698],[74.97599,15.06892],[74.97475,15.07024],[74.97381,15.07042],[74.97274,15.06963],[74.96658,15.07017],[74.96563,15.06906],[74.96446,15.06865],[74.9633,15.06949],[74.96312,15.06806],[74.96041,15.06778],[74.96018,15.06658],[74.95836,15.0665],[74.9585,15.06586],[74.95748,15.06424],[74.95631,15.06584],[74.95091,15.06763],[74.95064,15.06686],[74.94902,15.06604],[74.94809,15.06627],[74.94468,15.06378],[74.94404,15.06368],[74.94091,15.06601],[74.94008,15.06342],[74.94048,15.05839],[74.93991,15.0567],[74.94191,15.05665],[74.94223,15.05562],[74.94073,15.05135],[74.93824,15.05051],[74.93541,15.05071],[74.93476,15.05172],[74.93186,15.05126],[74.93189,15.04984],[74.9295,15.0484],[74.92839,15.04866],[74.92826,15.04959],[74.92417,15.04804],[74.9226,15.04569],[74.9228,15.04474],[74.92041,15.04472],[74.91892,15.04411],[74.91883,15.04242],[74.91741,15.03887],[74.9153,15.03896],[74.91423,15.04014],[74.91044,15.04025],[74.91014,15.04319],[74.90794,15.04968],[74.90612,15.04989],[74.9017,15.04718],[74.90049,15.04748],[74.8983,15.04664],[74.89627,15.0468],[74.89398,15.04446],[74.89181,15.04456],[74.89089,15.04543],[74.88901,15.04988],[74.89057,15.05218],[74.88864,15.05879],[74.88687,15.06101],[74.8862,15.06304],[74.88744,15.06635],[74.88602,15.06685],[74.88401,15.06888],[74.88272,15.06917],[74.88009,15.07292],[74.87742,15.07373],[74.87823,15.07499],[74.87839,15.07654],[74.87963,15.07952],[74.87926,15.08195],[74.87988,15.08395],[74.88292,15.08793],[74.88661,15.08847],[74.88968,15.09045],[74.89221,15.09639],[74.89002,15.09913],[74.88853,15.09985],[74.88041,15.10022],[74.87613,15.10238],[74.86916,15.10327],[74.86478,15.10511],[74.8625,15.10486],[74.86124,15.10362],[74.85812,15.10394],[74.85839,15.10561],[74.85601,15.10731],[74.8549,15.10736],[74.85536,15.10936],[74.85389,15.10987],[74.85294,15.11222],[74.85306,15.11378],[74.85384,15.11413],[74.85156,15.11747],[74.85115,15.12031],[74.85181,15.12149],[74.85098,15.12146],[74.84944,15.12295],[74.84677,15.12335],[74.84451,15.12205],[74.84328,15.12688],[74.8417,15.12831],[74.84075,15.12817],[74.83924,15.13047],[74.83818,15.13122],[74.83349,15.13211],[74.8321,15.13305],[74.83095,15.13313],[74.83051,15.13833],[74.82866,15.13979],[74.83054,15.14042],[74.83297,15.14231],[74.83564,15.14228],[74.83793,15.14426],[74.83784,15.14577],[74.83548,15.14745],[74.83468,15.14893],[74.83523,15.14883],[74.83622,15.15057],[74.83733,15.15098],[74.84022,15.15386],[74.84268,15.15535],[74.84126,15.15733],[74.84269,15.1577],[74.84402,15.15945],[74.84446,15.161],[74.8475,15.16262],[74.84861,15.1639],[74.84821,15.16647],[74.84924,15.16794],[74.8501,15.171],[74.85402,15.17428],[74.86132,15.1778],[74.86252,15.1788],[74.8621,15.18168],[74.86291,15.18254],[74.86468,15.18243],[74.86411,15.1842],[74.86558,15.18499],[74.86487,15.18675],[74.86934,15.18874],[74.87117,15.19128],[74.87111,15.19074],[74.87327,15.19128],[74.87327,15.19181],[74.87432,15.19236],[74.87736,15.19301],[74.87379,15.20426],[74.87535,15.20533],[74.87239,15.21617],[74.87434,15.21653],[74.88199,15.22403],[74.88471,15.22765],[74.88514,15.23278],[74.89877,15.24105],[74.9016,15.24501],[74.91021,15.25177],[74.90855,15.26071],[74.90865,15.26839],[74.90624,15.2772],[74.90616,15.27789],[74.9066,15.27814],[74.9062,15.27982],[74.90077,15.29222],[74.90039,15.29436],[74.89711,15.30128],[74.89447,15.29911],[74.8922,15.3028],[74.88932,15.30466],[74.88526,15.29987],[74.8813,15.298],[74.87493,15.30027],[74.87679,15.3038],[74.878,15.3087],[74.87768,15.30958],[74.8781,15.30983],[74.87715,15.31242],[74.87761,15.31403],[74.87561,15.31599],[74.87761,15.31715],[74.88167,15.31605],[74.88339,15.31484],[74.88348,15.31537],[74.88431,15.31503],[74.88474,15.31625],[74.88618,15.31683],[74.8869,15.31658],[74.88839,15.31781],[74.89179,15.31788],[74.89004,15.32065],[74.89022,15.3222],[74.888,15.3299],[74.88748,15.33365],[74.89005,15.33427],[74.89861,15.33496],[74.90072,15.3359],[74.90382,15.33562],[74.91201,15.33873],[74.9159,15.33731],[74.91696,15.33738],[74.91871,15.33358],[74.92257,15.32805],[74.92617,15.32416],[74.92702,15.3239],[74.93085,15.32586],[74.9288,15.32965],[74.92835,15.33279],[74.92865,15.3346],[74.92799,15.33702],[74.92921,15.34235],[74.92897,15.3449],[74.93143,15.34975],[74.93506,15.35036],[74.9424,15.3504],[74.94454,15.34561],[74.94607,15.33859],[74.95174,15.34184],[74.95347,15.34109],[74.95532,15.34226],[74.95494,15.34445],[74.95521,15.34779],[74.96359,15.34892],[74.96321,15.34933],[74.96421,15.35009],[74.97656,15.35398],[74.98162,15.3542],[74.98167,15.35459],[74.98228,15.3545],[74.98234,15.35641],[74.99034,15.35788],[74.99467,15.35773],[74.99465,15.35878],[74.99572,15.3578],[75.00263,15.35842],[75.00221,15.3599],[75.00478,15.36071],[75.00519,15.35946],[75.01028,15.3604],[75.01213,15.36205],[75.01339,15.36397],[75.01384,15.35979]]]}},{"type":"Feature","properties":{"unitId":417,"unitName":"Kundagol PS"},"geometry":{"type":"Polygon","coordinates":[[[75.34581,15.35094],[75.34639,15.3502],[75.35012,15.32944],[75.35264,15.32982],[75.354,15.32657],[75.3545,15.32309],[75.36916,15.32467],[75.36945,15.32252],[75.38594,15.32408],[75.38782,15.31452],[75.38979,15.29879],[75.39994,15.29782],[75.41203,15.29751],[75.41141,15.29705],[75.41049,15.28525],[75.40617,15.28417],[75.40646,15.27822],[75.41673,15.27951],[75.41706,15.27554],[75.41649,15.27547],[75.41652,15.27472],[75.4023,15.27346],[75.40246,15.25994],[75.39692,15.25798],[75.39714,15.25578],[75.38533,15.25332],[75.37563,15.25199],[75.36741,15.24961],[75.35471,15.24793],[75.35845,15.22851],[75.35498,15.22752],[75.34613,15.22316],[75.33808,15.20187],[75.31637,15.18492],[75.29679,15.17489],[75.28999,15.16653],[75.27654,15.15932],[75.27453,15.16611],[75.27184,15.17062],[75.26337,15.16844],[75.26305,15.16977],[75.25053,15.16736],[75.24401,15.16562],[75.23806,15.16531],[75.23725,15.16259],[75.23396,15.15575],[75.23365,15.1531],[75.23409,15.15056],[75.22296,15.14877],[75.20514,15.14461],[75.20536,15.14325],[75.20491,15.14084],[75.20532,15.13557],[75.20171,15.12787],[75.19545,15.12728],[75.19613,15.12499],[75.19627,15.11911],[75.19311,15.11857],[75.19328,15.1175],[75.18857,15.11617],[75.18846,15.11541],[75.18459,15.1141],[75.18653,15.10393],[75.15801,15.10198],[75.1584,15.11053],[75.15267,15.10875],[75.15284,15.10717],[75.14403,15.10597],[75.14427,15.1035],[75.13933,15.10244],[75.13885,15.10537],[75.13817,15.10601],[75.13764,15.10554],[75.1367,15.10654],[75.13761,15.1068],[75.13707,15.10761],[75.1375,15.10928],[75.1358,15.11065],[75.13469,15.11402],[75.13525,15.11536],[75.13365,15.11809],[75.13727,15.11966],[75.13709,15.12063],[75.13855,15.12537],[75.13738,15.12567],[75.13775,15.12683],[75.1372,15.12748],[75.13714,15.12945],[75.13741,15.13011],[75.13812,15.12991],[75.13895,15.1311],[75.13928,15.13078],[75.13988,15.13123],[75.1398,15.13168],[75.14034,15.13145],[75.14159,15.13225],[75.14164,15.13308],[75.14248,15.13241],[75.14549,15.13379],[75.14539,15.13439],[75.14629,15.13509],[75.14557,15.13565],[75.14663,15.13569],[75.14633,15.13708],[75.14676,15.1375],[75.14733,15.13733],[75.14797,15.13836],[75.14837,15.13832],[75.14848,15.13887],[75.14791,15.13937],[75.14821,15.14004],[75.14934,15.1402],[75.1494,15.1412],[75.14984,15.14131],[75.14876,15.14253],[75.15001,15.14272],[75.14937,15.14349],[75.14992,15.14422],[75.151,15.14397],[75.15066,15.14483],[75.1513,15.14477],[75.15127,15.14554],[75.15162,15.14565],[75.15189,15.14502],[75.15296,15.1457],[75.15124,15.14739],[75.1502,15.14941],[75.14675,15.15015],[75.14433,15.15583],[75.14151,15.15924],[75.14079,15.15904],[75.14142,15.16266],[75.14102,15.1685],[75.15333,15.16891],[75.16142,15.17033],[75.16611,15.17056],[75.16596,15.1738],[75.16879,15.17481],[75.16819,15.17635],[75.16846,15.17791],[75.16752,15.17789],[75.16723,15.17972],[75.16831,15.17977],[75.16809,15.18194],[75.1691,15.18784],[75.16787,15.19558],[75.16825,15.19637],[75.17085,15.19664],[75.17391,15.19769],[75.17219,15.20251],[75.17486,15.20419],[75.17515,15.20646],[75.17858,15.20929],[75.17935,15.21216],[75.17719,15.21815],[75.17663,15.21797],[75.17515,15.22345],[75.17479,15.23279],[75.17524,15.23315],[75.17459,15.23622],[75.18257,15.23989],[75.19721,15.24243],[75.19882,15.251],[75.19919,15.25199],[75.20079,15.25241],[75.20068,15.25426],[75.20247,15.25686],[75.20312,15.26128],[75.20465,15.26352],[75.20422,15.26905],[75.20307,15.27182],[75.20282,15.27211],[75.20213,15.27177],[75.20164,15.2736],[75.19996,15.27462],[75.19996,15.27577],[75.19908,15.27706],[75.19917,15.27817],[75.19891,15.27865],[75.1981,15.27857],[75.19803,15.28016],[75.19758,15.28029],[75.19794,15.28195],[75.19674,15.2831],[75.19582,15.28548],[75.19592,15.2872],[75.19552,15.28762],[75.19683,15.28854],[75.19577,15.29069],[75.19621,15.29117],[75.19616,15.29326],[75.19549,15.29328],[75.19469,15.29415],[75.19407,15.29596],[75.19704,15.30111],[75.201,15.30593],[75.20739,15.3114],[75.21171,15.31201],[75.23091,15.32073],[75.23121,15.31997],[75.24537,15.32251],[75.25378,15.32315],[75.26472,15.32514],[75.2777,15.32377],[75.27856,15.33067],[75.2792,15.33288],[75.28007,15.333],[75.2798,15.33572],[75.2841,15.33505],[75.28662,15.33571],[75.28842,15.3344],[75.2888,15.33449],[75.28847,15.33621],[75.3087,15.33928],[75.32945,15.34765],[75.3422,15.35171],[75.34581,15.35094]]]}},{"type":"Feature","properties":{"unitId":418,"unitName":"Navalgund PS"},"geometry":{"type":"Polygon","coordinates":[[[75.48758,15.70316],[75.49402,15.68535],[75.49615,15.67582],[75.50064,15.66042],[75.50236,15.64893],[75.50221,15.64754],[75.51734,15.64667],[75.54531,15.6482],[75.5493,15.6477],[75.54935,15.64802],[75.55433,15.64705],[75.55306,15.64328],[75.54989,15.62866],[75.5497,15.62316],[75.55012,15.62065],[75.54948,15.62073],[75.54954,15.61524],[75.54895,15.61306],[75.54386,15.61219],[75.54242,15.60859],[75.54279,15.60852],[75.54207,15.60106],[75.54055,15.60034],[75.54111,15.59876],[75.54098,15.5972],[75.54015,15.59723],[75.54,15.59612],[75.53921,15.59558],[75.53786,15.59152],[75.53482,15.59115],[75.53012,15.56665],[75.52826,15.56703],[75.52824,15.56604],[75.51165,15.56545],[75.5001,15.56643],[75.49119,15.56798],[75.48409,15.5684],[75.47032,15.56743],[75.46847,15.57265],[75.43728,15.56728],[75.4388,15.55353],[75.43916,15.54534],[75.44278,15.52713],[75.44355,15.52102],[75.4449,15.51661],[75.41753,15.51111],[75.39787,15.50854],[75.39329,15.50836],[75.38214,15.50946],[75.37564,15.50937],[75.37644,15.50699],[75.37231,15.5057],[75.33934,15.50705],[75.326,15.50705],[75.32554,15.5007],[75.3181,15.49995],[75.30173,15.49933],[75.28578,15.49954],[75.25835,15.50195],[75.24484,15.50256],[75.23609,15.50372],[75.22655,15.50357],[75.22659,15.52858],[75.21174,15.52805],[75.21102,15.52582],[75.20321,15.52526],[75.18805,15.52282],[75.17849,15.52196],[75.17875,15.53104],[75.17983,15.53175],[75.17922,15.53666],[75.17696,15.53629],[75.17709,15.54018],[75.17659,15.54011],[75.17559,15.54653],[75.15742,15.54403],[75.14483,15.54429],[75.11762,15.54288],[75.11673,15.55139],[75.11643,15.55182],[75.11207,15.55127],[75.1118,15.55367],[75.11223,15.55961],[75.11259,15.55974],[75.1122,15.55973],[75.11152,15.56262],[75.10915,15.56689],[75.10765,15.57143],[75.08828,15.57123],[75.08831,15.57793],[75.08557,15.57772],[75.08545,15.57575],[75.08482,15.57576],[75.08474,15.58074],[75.08539,15.58157],[75.08469,15.58721],[75.08582,15.58757],[75.08853,15.60134],[75.09069,15.60938],[75.09219,15.60853],[75.09676,15.62686],[75.09709,15.63394],[75.10069,15.66224],[75.10081,15.66188],[75.10504,15.6612],[75.10714,15.67212],[75.12329,15.6685],[75.12313,15.66659],[75.12648,15.66535],[75.12656,15.66616],[75.12885,15.66493],[75.12971,15.66407],[75.12969,15.66264],[75.13082,15.66274],[75.13239,15.66039],[75.13594,15.66061],[75.13816,15.65974],[75.13915,15.65987],[75.14021,15.65836],[75.14156,15.65817],[75.14254,15.65879],[75.14239,15.6596],[75.14366,15.65943],[75.14716,15.66065],[75.14815,15.65915],[75.14918,15.65903],[75.15093,15.66006],[75.15049,15.66092],[75.15122,15.66172],[75.15219,15.66162],[75.1525,15.65993],[75.15415,15.66008],[75.15416,15.65969],[75.15538,15.65933],[75.15666,15.65939],[75.15763,15.66037],[75.15871,15.65981],[75.16192,15.66049],[75.16354,15.6595],[75.16848,15.65942],[75.17139,15.66039],[75.17257,15.6588],[75.1739,15.65986],[75.17799,15.65826],[75.18039,15.65611],[75.1816,15.65744],[75.18287,15.65803],[75.1835,15.65772],[75.18423,15.65591],[75.1859,15.65557],[75.18688,15.64929],[75.20232,15.64917],[75.20354,15.66391],[75.20336,15.68144],[75.21838,15.68101],[75.21812,15.67743],[75.2244,15.67731],[75.23613,15.67927],[75.242,15.66543],[75.2446,15.65733],[75.24873,15.64698],[75.2616,15.64818],[75.27288,15.6481],[75.27215,15.65322],[75.27195,15.66149],[75.2731,15.66884],[75.27755,15.68907],[75.27867,15.68939],[75.27862,15.68994],[75.2858,15.69114],[75.29507,15.69167],[75.29528,15.69081],[75.29796,15.69025],[75.30496,15.68673],[75.3115,15.68122],[75.3147,15.6801],[75.32034,15.67905],[75.33022,15.67578],[75.33073,15.67502],[75.33094,15.67543],[75.33276,15.67459],[75.33657,15.67382],[75.33673,15.66801],[75.33581,15.65453],[75.33606,15.64778],[75.36007,15.64569],[75.36155,15.65611],[75.36254,15.66895],[75.37194,15.66683],[75.37438,15.66676],[75.3742,15.6664],[75.37643,15.66574],[75.37628,15.66613],[75.38558,15.66508],[75.38734,15.66401],[75.39861,15.66015],[75.40683,15.65536],[75.4116,15.65547],[75.4135,15.65612],[75.41413,15.6573],[75.41393,15.65788],[75.41737,15.66153],[75.42429,15.66291],[75.42353,15.66843],[75.42594,15.66848],[75.42806,15.66912],[75.42978,15.66883],[75.43017,15.66914],[75.42959,15.66971],[75.44031,15.67164],[75.44276,15.67157],[75.44309,15.67365],[75.4438,15.67297],[75.44542,15.67313],[75.44531,15.67575],[75.44403,15.67599],[75.44655,15.68097],[75.4475,15.68111],[75.4488,15.67851],[75.45028,15.6779],[75.45073,15.67813],[75.45061,15.67953],[75.45163,15.68028],[75.45166,15.68131],[75.45319,15.68144],[75.45397,15.68212],[75.4548,15.68048],[75.46984,15.6835],[75.47201,15.68666],[75.47274,15.68673],[75.47272,15.68734],[75.4722,15.68729],[75.47189,15.68843],[75.46898,15.70159],[75.47769,15.70281],[75.48758,15.70316]]]}},{"type":"Feature","properties":{"unitId":419,"unitName":"Annigeri PS"},"geometry":{"type":"Polygon","coordinates":[[[75.47004,15.56819],[75.47032,15.56743],[75.48173,15.56835],[75.49045,15.56804],[75.5001,15.56643],[75.51165,15.56545],[75.52824,15.56604],[75.52818,15.5586],[75.52959,15.54351],[75.52925,15.5378],[75.50529,15.53053],[75.49826,15.53102],[75.49498,15.53153],[75.49507,15.5321],[75.49481,15.53155],[75.49095,15.53219],[75.4827,15.53184],[75.47992,15.52864],[75.47991,15.52525],[75.47677,15.52194],[75.47654,15.51997],[75.47349,15.51971],[75.47273,15.50309],[75.47093,15.49309],[75.48157,15.49059],[75.48582,15.49008],[75.48709,15.48925],[75.48944,15.48465],[75.49173,15.47858],[75.4928,15.47698],[75.49392,15.47175],[75.49483,15.47018],[75.49371,15.46736],[75.49377,15.46485],[75.49284,15.46486],[75.49272,15.44786],[75.49351,15.44348],[75.4942,15.44343],[75.49436,15.44256],[75.49391,15.44174],[75.49459,15.44133],[75.49871,15.42333],[75.49704,15.41062],[75.49634,15.41003],[75.49603,15.40243],[75.49517,15.39579],[75.49454,15.39447],[75.49432,15.38987],[75.49381,15.38984],[75.49397,15.38746],[75.49273,15.38569],[75.49191,15.3771],[75.493,15.36828],[75.49042,15.3682],[75.48993,15.37257],[75.48596,15.37211],[75.48589,15.37671],[75.48499,15.37678],[75.48517,15.37821],[75.48401,15.37826],[75.48388,15.37878],[75.48172,15.37866],[75.48156,15.38182],[75.48113,15.38196],[75.48129,15.38741],[75.48092,15.38753],[75.48138,15.39073],[75.48226,15.39284],[75.47625,15.39468],[75.47117,15.39691],[75.46937,15.39709],[75.46886,15.3856],[75.44535,15.38625],[75.44867,15.35892],[75.44479,15.35906],[75.4221,15.36214],[75.39404,15.36205],[75.38754,15.36125],[75.36561,15.36014],[75.36464,15.36003],[75.36473,15.35886],[75.35728,15.35443],[75.35552,15.3529],[75.3498,15.35077],[75.34637,15.3502],[75.34581,15.35094],[75.34273,15.35179],[75.33911,15.35078],[75.33677,15.36129],[75.33494,15.36503],[75.33371,15.36494],[75.33134,15.37079],[75.3314,15.37556],[75.32784,15.39635],[75.32664,15.41099],[75.3197,15.4164],[75.31901,15.41827],[75.31827,15.42415],[75.30518,15.42741],[75.30641,15.44433],[75.3096,15.44457],[75.31916,15.4465],[75.32145,15.44639],[75.32197,15.4527],[75.32153,15.45336],[75.3229,15.45591],[75.3252,15.46587],[75.32612,15.46586],[75.3264,15.46684],[75.32678,15.47893],[75.31937,15.47854],[75.28127,15.47875],[75.26532,15.47971],[75.25871,15.48083],[75.2512,15.48097],[75.25243,15.50209],[75.25835,15.50195],[75.27941,15.49989],[75.29459,15.49924],[75.3181,15.49995],[75.32554,15.5007],[75.326,15.50705],[75.33934,15.50705],[75.37231,15.5057],[75.37644,15.50699],[75.37564,15.50937],[75.38214,15.50946],[75.39329,15.50836],[75.39787,15.50854],[75.41753,15.51111],[75.4449,15.51661],[75.44355,15.52102],[75.44278,15.52713],[75.43916,15.54534],[75.4388,15.55353],[75.43728,15.56728],[75.46847,15.57265],[75.47004,15.56819]]]}}]}