{"type":"FeatureCollection","features":[{"type":"Feature","properties":{"unitId":420,"unitName":"Betageri PS"},"geometry":{"type":"Polygon","coordinates":[[[75.66266,15.5071],[75.67151,15.50491],[75.67548,15.5052],[75.68469,15.50406],[75.6826,15.48647],[75.68327,15.48652],[75.68335,15.48442],[75.68744,15.48361],[75.68603,15.48066],[75.68579,15.47732],[75.68403,15.47452],[75.68465,15.47124],[75.68417,15.46834],[75.68271,15.46624],[75.68406,15.46435],[75.68653,15.46249],[75.68735,15.46023],[75.68624,15.45803],[75.68628,15.45621],[75.68433,15.45507],[75.68353,15.45387],[75.68324,15.44796],[75.68534,15.44404],[75.68477,15.44191],[75.68421,15.44071],[75.6735,15.44337],[75.67046,15.44259],[75.669,15.44175],[75.66705,15.4397],[75.66352,15.43828],[75.6472,15.43727],[75.64447,15.43834],[75.64148,15.43787],[75.63911,15.43674],[75.63512,15.43621],[75.62994,15.45169],[75.62806,15.46209],[75.62692,15.4657],[75.62593,15.47395],[75.62591,15.47605],[75.62663,15.47626],[75.6261,15.48404],[75.60896,15.48281],[75.60749,15.49731],[75.61244,15.49862],[75.61725,15.49889],[75.61687,15.5052],[75.62291,15.50514],[75.63013,15.5037],[75.6334,15.50372],[75.6524,15.50699],[75.66266,15.5071]]]}},{"type":"Feature","properties":{"unitId":421,"unitName":"Betageri Extention PS"},"geometry":{"type":"Polygon","coordinates":[[[75.68227,15.43836],[75.682,15.43523],[75.68117,15.43462],[75.67914,15.43509],[75.67734,15.4333],[75.67703,15.43255],[75.67785,15.42977],[75.67621,15.42813],[75.67374,15.42683],[75.67278,15.42395],[75.67024,15.42399],[75.66923,15.42207],[75.66912,15.41799],[75.66629,15.41509],[75.66551,15.41501],[75.66393,15.41182],[75.65871,15.41208],[75.64412,15.41061],[75.63622,15.41062],[75.63459,15.41306],[75.63644,15.42535],[75.63512,15.43621],[75.63911,15.43674],[75.64148,15.43787],[75.64447,15.43834],[75.6472,15.43727],[75.66352,15.43828],[75.66705,15.4397],[75.669,15.44175],[75.67046,15.44259],[75.6735,15.44337],[75.68421,15.44071],[75.68359,15.43904],[75.68227,15.43836]]]}},{"type":"Feature","properties":{"unitId":422,"unitName":"Gadag Rural PS"},"geometry":{"type":"Polygon","coordinates":[[[75.62942,15.63325],[75.62978,15.62613],[75.64144,15.6252],[75.64032,15.62234],[75.64147,15.61953],[75.64138,15.61877],[75.64072,15.61826],[75.64012,15.61455],[75.64083,15.61447],[75.63992,15.60799],[75.64138,15.60801],[75.64089,15.60215],[75.64087,15.58384],[75.64448,15.58269],[75.6491,15.57703],[75.65489,15.57264],[75.65615,15.56961],[75.65448,15.56774],[75.65653,15.56513],[75.65954,15.55891],[75.6618,15.55599],[75.663,15.55206],[75.66413,15.55141],[75.66557,15.55132],[75.66584,15.55082],[75.66545,15.54949],[75.66449,15.54922],[75.66404,15.5447],[75.66421,15.54344],[75.66503,15.54267],[75.66545,15.54044],[75.67318,15.54042],[75.67509,15.53624],[75.68045,15.52931],[75.68601,15.52867],[75.68649,15.52288],[75.69262,15.52404],[75.71673,15.52684],[75.71793,15.52665],[75.71741,15.52518],[75.71854,15.52347],[75.71778,15.52288],[75.71899,15.52201],[75.72077,15.52169],[75.72274,15.52231],[75.72538,15.52227],[75.72685,15.52173],[75.72778,15.52229],[75.73131,15.52696],[75.73274,15.52752],[75.733,15.52673],[75.73372,15.5264],[75.7359,15.52668],[75.73749,15.52793],[75.73889,15.52838],[75.73905,15.53291],[75.74145,15.53292],[75.74162,15.53574],[75.74024,15.55284],[75.74641,15.55142],[75.75306,15.55068],[75.75309,15.54894],[75.75853,15.5499],[75.76159,15.54986],[75.76079,15.55464],[75.76866,15.55528],[75.77943,15.55407],[75.77964,15.54848],[75.78368,15.54803],[75.78649,15.54679],[75.78649,15.54517],[75.78927,15.54374],[75.79367,15.54256],[75.80004,15.54178],[75.80025,15.53383],[75.80249,15.53322],[75.80359,15.53343],[75.80404,15.52983],[75.80705,15.52927],[75.80659,15.52687],[75.81146,15.52629],[75.81326,15.5245],[75.81379,15.52276],[75.81306,15.51909],[75.81364,15.5168],[75.81499,15.51522],[75.81492,15.51421],[75.81643,15.51118],[75.81756,15.51057],[75.81842,15.50932],[75.8189,15.50593],[75.8229,15.49909],[75.82306,15.49694],[75.81445,15.49575],[75.8154,15.4873],[75.80914,15.48784],[75.81041,15.47569],[75.81145,15.47584],[75.8124,15.46731],[75.81824,15.4691],[75.81808,15.46353],[75.8192,15.45612],[75.82077,15.45509],[75.82401,15.45419],[75.82506,15.45324],[75.82472,15.45144],[75.82324,15.45151],[75.82554,15.45066],[75.82681,15.44957],[75.82921,15.44851],[75.8319,15.44831],[75.83239,15.4473],[75.83641,15.44709],[75.83913,15.44297],[75.84171,15.44279],[75.84218,15.44379],[75.84511,15.44414],[75.84491,15.44293],[75.84749,15.44271],[75.85061,15.44493],[75.85161,15.44352],[75.85304,15.44393],[75.85327,15.4445],[75.85826,15.44362],[75.85945,15.42326],[75.85333,15.42306],[75.84788,15.42348],[75.83137,15.42575],[75.8238,15.42513],[75.81022,15.42165],[75.81019,15.41712],[75.80936,15.41411],[75.80641,15.41413],[75.79858,15.41234],[75.78946,15.41132],[75.78914,15.41046],[75.78669,15.40974],[75.78597,15.40886],[75.77994,15.40899],[75.77912,15.40816],[75.77699,15.40769],[75.76601,15.40637],[75.7604,15.40621],[75.76063,15.40066],[75.75779,15.3755],[75.75857,15.3729],[75.75821,15.36608],[75.75897,15.35643],[75.74316,15.35821],[75.71318,15.35787],[75.70721,15.35816],[75.6993,15.35716],[75.69185,15.35413],[75.69086,15.34833],[75.68808,15.347],[75.68443,15.34656],[75.67933,15.34691],[75.67758,15.34224],[75.67427,15.33699],[75.67106,15.33455],[75.66408,15.33223],[75.65176,15.33278],[75.65386,15.31531],[75.65612,15.30782],[75.65731,15.30795],[75.65788,15.30618],[75.63972,15.30544],[75.6355,15.30414],[75.62175,15.30171],[75.61661,15.31057],[75.61418,15.31047],[75.60517,15.31204],[75.59984,15.31198],[75.5984,15.32366],[75.59433,15.32308],[75.59089,15.32152],[75.5883,15.32222],[75.58241,15.32224],[75.57391,15.32103],[75.57387,15.32051],[75.55897,15.31902],[75.55844,15.31827],[75.55847,15.31632],[75.54807,15.31619],[75.54541,15.3168],[75.54577,15.31918],[75.54167,15.32113],[75.53848,15.32178],[75.53772,15.32483],[75.53342,15.33213],[75.53282,15.33435],[75.52274,15.3334],[75.51327,15.33405],[75.5039,15.33375],[75.50282,15.33479],[75.49956,15.33559],[75.49903,15.33694],[75.49641,15.33725],[75.49404,15.33952],[75.49321,15.34127],[75.48727,15.34289],[75.48472,15.34459],[75.48514,15.34225],[75.47996,15.34194],[75.47624,15.34113],[75.47489,15.34384],[75.45746,15.34188],[75.45631,15.35114],[75.45454,15.36043],[75.45162,15.35946],[75.44851,15.35913],[75.44535,15.38625],[75.46886,15.3856],[75.46937,15.39709],[75.47117,15.39691],[75.47625,15.39468],[75.48226,15.39284],[75.48138,15.39073],[75.48092,15.38753],[75.48129,15.38741],[75.48113,15.38196],[75.48156,15.38182],[75.48172,15.37866],[75.48388,15.37878],[75.48401,15.37826],[75.48517,15.37821],[75.48499,15.37678],[75.48589,15.37671],[75.48596,15.37211],[75.48993,15.37257],[75.49042,15.3682],[75.493,15.36828],[75.49191,15.3771],[75.49273,15.38569],[75.49397,15.38746],[75.49381,15.38984],[75.49432,15.38987],[75.49454,15.39447],[75.49517,15.39579],[75.49603,15.40243],[75.49634,15.41003],[75.49704,15.41062],[75.49871,15.42333],[75.49459,15.44133],[75.49391,15.44174],[75.49436,15.44256],[75.4942,15.44343],[75.49351,15.44348],[75.49272,15.44786],[75.49284,15.46486],[75.49377,15.46485],[75.49371,15.46736],[75.49483,15.47018],[75.49392,15.47175],[75.49296,15.47659],[75.49173,15.47858],[75.48855,15.4866],[75.48638,15.48986],[75.47093,15.49309],[75.47273,15.50309],[75.47349,15.51971],[75.47654,15.51997],[75.47677,15.52194],[75.47991,15.52525],[75.47992,15.52864],[75.4827,15.53184],[75.49095,15.53219],[75.49481,15.53155],[75.49507,15.5321],[75.49498,15.53153],[75.49826,15.53102],[75.50529,15.53053],[75.52925,15.5378],[75.52959,15.54351],[75.52818,15.5586],[75.52826,15.56703],[75.53012,15.56665],[75.53482,15.59115],[75.53786,15.59152],[75.53921,15.59558],[75.54,15.59612],[75.54015,15.59723],[75.54098,15.5972],[75.54111,15.59876],[75.54055,15.60034],[75.54207,15.60106],[75.54279,15.60852],[75.54242,15.60859],[75.54386,15.61219],[75.54895,15.61306],[75.54979,15.61672],[75.54929,15.61835],[75.54948,15.62073],[75.57103,15.62125],[75.58123,15.62401],[75.59761,15.63044],[75.60061,15.63073],[75.60241,15.62794],[75.61094,15.62881],[75.6112,15.63017],[75.61194,15.62892],[75.61314,15.62904],[75.61321,15.62769],[75.62175,15.62801],[75.62114,15.63222],[75.62239,15.6322],[75.62258,15.63291],[75.62198,15.63796],[75.62401,15.63907],[75.6279,15.64024],[75.62942,15.63325]],[[75.65717,15.50701],[75.6524,15.50699],[75.6334,15.50372],[75.63013,15.5037],[75.62291,15.50514],[75.61687,15.5052],[75.61725,15.49889],[75.61244,15.49862],[75.60749,15.49731],[75.60896,15.48281],[75.6261,15.48404],[75.62663,15.47626],[75.62591,15.47605],[75.62593,15.47395],[75.62669,15.46699],[75.62806,15.46209],[75.62994,15.45169],[75.63347,15.44173],[75.62932,15.44127],[75.62937,15.4408],[75.62568,15.44065],[75.62215,15.43841],[75.61578,15.43857],[75.61597,15.4325],[75.61423,15.43177],[75.61082,15.42919],[75.6107,15.42855],[75.61246,15.42576],[75.61501,15.42302],[75.61694,15.41861],[75.61649,15.41701],[75.61937,15.41263],[75.61987,15.40802],[75.62256,15.40476],[75.62258,15.40411],[75.6216,15.40301],[75.62292,15.40115],[75.6252,15.40111],[75.62546,15.404],[75.6284,15.40416],[75.62841,15.40586],[75.63425,15.40659],[75.63405,15.40827],[75.63798,15.40837],[75.63622,15.41062],[75.64412,15.41061],[75.65871,15.41208],[75.66393,15.41182],[75.66551,15.41501],[75.66629,15.41509],[75.66912,15.41799],[75.66923,15.42207],[75.67024,15.42399],[75.67278,15.42395],[75.67374,15.42683],[75.67621,15.42813],[75.67785,15.42977],[75.67703,15.43255],[75.67734,15.4333],[75.67914,15.43509],[75.68117,15.43462],[75.682,15.43523],[75.68227,15.43836],[75.68359,15.43904],[75.68477,15.44191],[75.68534,15.44404],[75.68324,15.44796],[75.68353,15.45387],[75.68433,15.45507],[75.68628,15.45621],[75.68624,15.45803],[75.68735,15.46023],[75.68653,15.46249],[75.68406,15.46435],[75.68271,15.46624],[75.68417,15.46834],[75.68465,15.47124],[75.68403,15.47452],[75.68579,15.47732],[75.68603,15.48066],[75.68744,15.48361],[75.68335,15.48442],[75.68327,15.48652],[75.6826,15.48647],[75.68469,15.50406],[75.67548,15.5052],[75.67151,15.50491],[75.66223,15.50718],[75.65717,15.50701]]]}},{"type":"Feature","properties":{"unitId":423,"unitName":"Mulagund PS"},"geometry":{"type":"Polygon","coordinates":[[[75.49321,15.34127],[75.49404,15.33952],[75.49641,15.33725],[75.49903,15.33694],[75.49956,15.33559],[75.50282,15.33479],[75.5039,15.33375],[75.51327,15.33405],[75.52274,15.3334],[75.53282,15.33435],[75.53342,15.33213],[75.53772,15.32483],[75.53848,15.32178],[75.54167,15.32113],[75.54577,15.31918],[75.54541,15.3168],[75.54729,15.31635],[75.55847,15.31632],[75.55844,15.31827],[75.55897,15.31902],[75.57387,15.32051],[75.57391,15.32103],[75.58241,15.32224],[75.5883,15.32222],[75.59089,15.32152],[75.59433,15.32308],[75.5984,15.32366],[75.59984,15.31198],[75.60517,15.31204],[75.61418,15.31047],[75.61661,15.31057],[75.62175,15.30171],[75.6355,15.30414],[75.63972,15.30544],[75.65788,15.30618],[75.65984,15.28948],[75.66194,15.28926],[75.66225,15.28663],[75.65246,15.28474],[75.6397,15.28151],[75.64322,15.263],[75.64392,15.26144],[75.66703,15.26028],[75.67705,15.24205],[75.67058,15.24295],[75.66215,15.23897],[75.65678,15.23743],[75.6396,15.23464],[75.63362,15.22306],[75.63072,15.21283],[75.62757,15.21042],[75.61524,15.21632],[75.61397,15.21622],[75.60908,15.21798],[75.60591,15.21823],[75.60149,15.22014],[75.59521,15.22139],[75.59488,15.23292],[75.59339,15.24596],[75.59226,15.24824],[75.59127,15.25271],[75.58748,15.25431],[75.5845,15.25641],[75.58128,15.25585],[75.58092,15.25732],[75.57031,15.25597],[75.56302,15.25222],[75.55133,15.24724],[75.54856,15.24542],[75.54365,15.24406],[75.54553,15.23949],[75.5416,15.23759],[75.5306,15.23685],[75.523,15.23789],[75.50059,15.23886],[75.49971,15.23963],[75.49807,15.24627],[75.49645,15.24974],[75.49581,15.25257],[75.49517,15.26126],[75.49496,15.26246],[75.49408,15.26234],[75.49353,15.2684],[75.49301,15.26962],[75.48913,15.26873],[75.44763,15.26369],[75.44436,15.2721],[75.44323,15.27642],[75.4411,15.28827],[75.44104,15.29498],[75.44161,15.30104],[75.45009,15.30163],[75.44887,15.32229],[75.44989,15.3296],[75.4537,15.34129],[75.47489,15.34384],[75.47624,15.34113],[75.47996,15.34194],[75.48514,15.34225],[75.48472,15.34459],[75.48727,15.34289],[75.49321,15.34127]]]}},{"type":"Feature","properties":{"unitId":424,"unitName":"Gadag Town PS"},"geometry":{"type":"Polygon","coordinates":[[[75.63418,15.43905],[75.63516,15.43612],[75.63644,15.42535],[75.63459,15.41306],[75.63798,15.40837],[75.63405,15.40827],[75.63425,15.40659],[75.62841,15.40586],[75.6284,15.40416],[75.62546,15.404],[75.6252,15.40111],[75.62292,15.40115],[75.6216,15.40301],[75.62258,15.40411],[75.62256,15.40476],[75.61987,15.40802],[75.61937,15.41263],[75.61649,15.41701],[75.61694,15.41861],[75.61501,15.42302],[75.61246,15.42576],[75.6107,15.42855],[75.61082,15.42919],[75.61423,15.43177],[75.61597,15.4325],[75.61578,15.43857],[75.62215,15.43841],[75.62568,15.44065],[75.62937,15.4408],[75.62932,15.44127],[75.63347,15.44173],[75.63418,15.43905]]]}},{"type":"Feature","properties":{"unitId":425,"unitName":"Shirahatti PS"},"geometry":{"type":"Polygon","coordinates":[[[75.43236,15.30189],[75.44184,15.30179],[75.44104,15.29498],[75.4411,15.28827],[75.44436,15.2721],[75.44763,15.26369],[75.48913,15.26873],[75.49301,15.26962],[75.49353,15.2684],[75.49408,15.26234],[75.49496,15.26246],[75.49559,15.25402],[75.49645,15.24974],[75.49807,15.24627],[75.49971,15.23963],[75.50059,15.23886],[75.523,15.23789],[75.53095,15.23683],[75.5416,15.23759],[75.54553,15.23949],[75.54365,15.24406],[75.54856,15.24542],[75.55133,15.24724],[75.56302,15.25222],[75.57031,15.25597],[75.58092,15.25732],[75.58128,15.25585],[75.5845,15.25641],[75.58748,15.25431],[75.59132,15.25261],[75.59226,15.24824],[75.59339,15.24596],[75.59413,15.24135],[75.59521,15.22139],[75.60149,15.22014],[75.60591,15.21823],[75.60908,15.21798],[75.61397,15.21622],[75.61524,15.21632],[75.62757,15.21042],[75.63072,15.21283],[75.63362,15.22306],[75.6396,15.23464],[75.65678,15.23743],[75.66215,15.23897],[75.67058,15.24295],[75.67705,15.24205],[75.68075,15.23618],[75.69773,15.23597],[75.70587,15.23973],[75.71493,15.2401],[75.71497,15.23867],[75.72603,15.24641],[75.73105,15.22523],[75.73429,15.2088],[75.73374,15.20877],[75.73047,15.21178],[75.72535,15.21347],[75.7255,15.21552],[75.72488,15.21701],[75.72339,15.21753],[75.71145,15.2142],[75.71173,15.1891],[75.71348,15.18277],[75.71433,15.18231],[75.71522,15.17634],[75.71582,15.17557],[75.7145,15.1727],[75.71532,15.17015],[75.71489,15.16867],[75.71527,15.16799],[75.71438,15.16787],[75.71321,15.16876],[75.70594,15.16619],[75.70348,15.16657],[75.71352,15.14665],[75.71796,15.13963],[75.71562,15.13738],[75.71805,15.13595],[75.72069,15.13526],[75.72271,15.13359],[75.72565,15.13319],[75.73641,15.12445],[75.73982,15.12011],[75.74363,15.11636],[75.74578,15.11504],[75.74601,15.1137],[75.74702,15.11265],[75.74394,15.10589],[75.74351,15.10081],[75.73941,15.08677],[75.73899,15.08114],[75.74013,15.08026],[75.74761,15.08109],[75.76341,15.08141],[75.76997,15.08277],[75.7707,15.07492],[75.77165,15.07243],[75.76631,15.06789],[75.76718,15.06444],[75.76656,15.06053],[75.76399,15.05419],[75.76306,15.0528],[75.76018,15.05303],[75.7584,15.0544],[75.75488,15.05437],[75.75425,15.05425],[75.75354,15.05264],[75.75158,15.05296],[75.74896,15.05469],[75.74573,15.05455],[75.74611,15.05052],[75.74526,15.0395],[75.74745,15.03161],[75.74713,15.03032],[75.75029,15.01517],[75.75235,14.99923],[75.7645,15.00026],[75.76946,15.00134],[75.77233,15.00299],[75.77629,15.00235],[75.78266,15.00232],[75.78416,15.00172],[75.7843,15],[75.78207,14.99638],[75.77965,14.98825],[75.7803,14.9825],[75.77893,14.97701],[75.77532,14.97522],[75.76972,14.97081],[75.76119,14.96677],[75.75985,14.96535],[75.75466,14.95685],[75.74537,14.94767],[75.74254,14.94539],[75.73952,14.9439],[75.73709,14.94348],[75.73423,14.9443],[75.72645,14.94899],[75.72132,14.95072],[75.71729,14.95082],[75.71245,14.9498],[75.71099,14.94881],[75.70115,14.94694],[75.6951,14.96457],[75.6951,14.96751],[75.69292,14.9712],[75.69063,14.97387],[75.68885,14.97515],[75.68195,14.97714],[75.67963,14.97843],[75.67865,14.97987],[75.67526,14.98165],[75.67895,14.99302],[75.67764,14.99652],[75.67943,15.00239],[75.68014,15.00292],[75.68009,15.00431],[75.68093,15.00527],[75.68028,15.00631],[75.68066,15.01109],[75.67916,15.02037],[75.67978,15.02275],[75.68016,15.02283],[75.6714,15.02687],[75.67032,15.02812],[75.66985,15.0312],[75.6612,15.03187],[75.6594,15.03258],[75.65772,15.03234],[75.65816,15.04061],[75.667,15.04262],[75.66573,15.04957],[75.66517,15.0594],[75.65134,15.0588],[75.64924,15.06518],[75.6455,15.06237],[75.64364,15.06165],[75.64206,15.05981],[75.64094,15.05988],[75.63954,15.05854],[75.63747,15.05866],[75.63639,15.05743],[75.63551,15.05745],[75.63466,15.05886],[75.63268,15.05792],[75.63179,15.05799],[75.63065,15.05707],[75.62762,15.05903],[75.62687,15.0588],[75.62633,15.05778],[75.62365,15.05837],[75.62295,15.06108],[75.61779,15.05913],[75.61145,15.05853],[75.61086,15.05854],[75.61083,15.06117],[75.60667,15.061],[75.6063,15.06011],[75.60376,15.05796],[75.60321,15.05428],[75.59944,15.05474],[75.59917,15.05294],[75.59019,15.05325],[75.58474,15.05402],[75.58461,15.05665],[75.59156,15.06349],[75.59033,15.06456],[75.59564,15.06878],[75.59541,15.07294],[75.59638,15.08479],[75.59518,15.09179],[75.59706,15.09204],[75.59578,15.09773],[75.59932,15.09822],[75.60155,15.09744],[75.60546,15.09808],[75.6033,15.11884],[75.6034,15.12734],[75.60167,15.12841],[75.60012,15.13028],[75.60326,15.12971],[75.60379,15.13511],[75.60267,15.13466],[75.60154,15.13683],[75.60224,15.13725],[75.60151,15.13832],[75.59817,15.14002],[75.59526,15.14393],[75.59062,15.14402],[75.58941,15.14452],[75.58904,15.14605],[75.58807,15.14668],[75.58392,15.14721],[75.57867,15.14871],[75.57816,15.15076],[75.57879,15.15318],[75.57929,15.15334],[75.57719,15.15597],[75.57781,15.15595],[75.57754,15.15743],[75.57842,15.16073],[75.57762,15.16189],[75.57665,15.16897],[75.5776,15.17302],[75.57463,15.17473],[75.55685,15.17683],[75.55587,15.17263],[75.55573,15.16844],[75.55121,15.16742],[75.55022,15.15668],[75.54565,15.15554],[75.54554,15.15636],[75.54459,15.15655],[75.54464,15.15746],[75.54389,15.15787],[75.54256,15.15993],[75.54175,15.15986],[75.53993,15.15721],[75.53831,15.15867],[75.53612,15.17256],[75.53636,15.17686],[75.53682,15.18058],[75.5402,15.17997],[75.54091,15.18679],[75.54173,15.18946],[75.54157,15.19375],[75.53785,15.1948],[75.53115,15.19543],[75.52688,15.19522],[75.52299,15.19579],[75.52305,15.19673],[75.52231,15.19709],[75.51742,15.19685],[75.5157,15.19546],[75.51456,15.19785],[75.50255,15.19798],[75.49389,15.1994],[75.49093,15.20235],[75.49112,15.20339],[75.46526,15.20679],[75.4653,15.208],[75.44806,15.21152],[75.44645,15.21737],[75.44051,15.22739],[75.43461,15.22671],[75.42284,15.22635],[75.42162,15.23512],[75.41604,15.23434],[75.41468,15.24294],[75.41404,15.25076],[75.41737,15.25587],[75.41648,15.26227],[75.4117,15.26458],[75.41174,15.26417],[75.40591,15.26371],[75.40594,15.26312],[75.40457,15.26287],[75.40464,15.26088],[75.40228,15.26044],[75.40225,15.27336],[75.41652,15.27472],[75.41649,15.27547],[75.41706,15.27554],[75.41673,15.27951],[75.40646,15.27822],[75.40622,15.28427],[75.41049,15.28525],[75.41141,15.29705],[75.41201,15.29721],[75.41233,15.30003],[75.4257,15.29976],[75.42578,15.3019],[75.43236,15.30189]]]}},{"type":"Feature","properties":{"unitId":426,"unitName":"Mundargi PS"},"geometry":{"type":"Polygon","coordinates":[[[75.85315,15.42307],[75.86474,15.42316],[75.86528,15.40798],[75.87305,15.40897],[75.87766,15.40842],[75.88022,15.40891],[75.88648,15.40826],[75.90391,15.40279],[75.90344,15.38973],[75.90192,15.38229],[75.90169,15.37569],[75.90202,15.36586],[75.90281,15.35935],[75.90342,15.35907],[75.9034,15.35375],[75.8935,15.35369],[75.88811,15.35302],[75.88899,15.33678],[75.89121,15.33717],[75.89138,15.33383],[75.89078,15.33375],[75.89089,15.33251],[75.89151,15.33254],[75.89155,15.33184],[75.89126,15.32498],[75.89175,15.3217],[75.89309,15.31906],[75.89309,15.31764],[75.89304,15.31659],[75.89265,15.31657],[75.89075,15.31139],[75.88997,15.3113],[75.88966,15.30859],[75.88968,15.30729],[75.89024,15.30733],[75.8897,15.29994],[75.89003,15.2999],[75.88759,15.29738],[75.88892,15.29645],[75.88925,15.29442],[75.88877,15.29275],[75.89031,15.29014],[75.88963,15.28727],[75.89174,15.28623],[75.89197,15.28284],[75.89246,15.28204],[75.895,15.28043],[75.89477,15.27991],[75.89829,15.27586],[75.89468,15.2742],[75.8962,15.26402],[75.89941,15.25457],[75.8992,15.25011],[75.9,15.24567],[75.90182,15.24579],[75.90202,15.2439],[75.90264,15.24393],[75.9029,15.24164],[75.90386,15.23938],[75.91194,15.24094],[75.91466,15.22942],[75.91908,15.21976],[75.92306,15.20755],[75.92435,15.2058],[75.92598,15.19473],[75.92452,15.18296],[75.93145,15.17923],[75.93614,15.17755],[75.94034,15.17541],[75.94294,15.17439],[75.94719,15.17378],[75.94803,15.17309],[75.94836,15.16661],[75.94982,15.15961],[75.95046,15.1488],[75.95125,15.14422],[75.95158,15.13533],[75.94633,15.13536],[75.9387,15.13779],[75.93691,15.13907],[75.93381,15.13984],[75.92715,15.13963],[75.92704,15.14121],[75.92128,15.13903],[75.91912,15.13719],[75.9154,15.13527],[75.91074,15.13536],[75.911,15.13481],[75.90656,15.13316],[75.90222,15.13047],[75.90186,15.12846],[75.90211,15.12592],[75.89788,15.11785],[75.89288,15.11561],[75.89016,15.11329],[75.88895,15.11132],[75.88743,15.11057],[75.88594,15.10834],[75.885,15.10447],[75.88505,15.10266],[75.8859,15.09941],[75.88755,15.09674],[75.89272,15.09187],[75.89673,15.08942],[75.90111,15.08596],[75.9063,15.08154],[75.90831,15.07921],[75.90946,15.0734],[75.90615,15.05866],[75.90375,15.05596],[75.90028,15.05475],[75.89253,15.05435],[75.88405,15.05289],[75.88033,15.04712],[75.87751,15.03931],[75.87573,15.03817],[75.87482,15.03818],[75.87198,15.03489],[75.86754,15.03513],[75.86539,15.03581],[75.85966,15.03623],[75.85802,15.03674],[75.85434,15.03911],[75.85213,15.04264],[75.84934,15.0446],[75.8466,15.04446],[75.84416,15.04356],[75.84044,15.04108],[75.83711,15.0399],[75.8368,15.03585],[75.83464,15.03115],[75.83382,15.03005],[75.83082,15.02813],[75.82523,15.02745],[75.81617,15.02808],[75.80915,15.0263],[75.81019,15.02548],[75.80748,15.02433],[75.80075,15.01367],[75.79711,15.01012],[75.79476,15.00974],[75.79265,15.00812],[75.79028,15.00504],[75.79001,15.00548],[75.78926,15.00498],[75.78661,15.00157],[75.78416,15.00172],[75.78266,15.00232],[75.77629,15.00235],[75.77233,15.00299],[75.76946,15.00134],[75.7645,15.00026],[75.75267,14.99911],[75.74964,15.01892],[75.74887,15.02067],[75.74713,15.03032],[75.74745,15.03161],[75.74526,15.0395],[75.74611,15.05052],[75.74573,15.05455],[75.74896,15.05469],[75.75158,15.05296],[75.75354,15.05264],[75.75425,15.05425],[75.7584,15.0544],[75.76018,15.05303],[75.76306,15.0528],[75.76518,15.05669],[75.76656,15.06053],[75.76718,15.06444],[75.76631,15.06789],[75.77165,15.07243],[75.7707,15.07492],[75.76997,15.08277],[75.76341,15.08141],[75.74761,15.08109],[75.74013,15.08026],[75.73899,15.08114],[75.73941,15.08677],[75.74351,15.10081],[75.74394,15.10589],[75.74702,15.11265],[75.74601,15.1137],[75.74578,15.11504],[75.74363,15.11636],[75.73982,15.12011],[75.73641,15.12445],[75.72565,15.13319],[75.72271,15.13359],[75.72069,15.13526],[75.71805,15.13595],[75.71562,15.13738],[75.71796,15.13963],[75.71352,15.14665],[75.70348,15.16657],[75.70594,15.16619],[75.71321,15.16876],[75.71438,15.16787],[75.71527,15.16799],[75.71489,15.16867],[75.71532,15.17015],[75.7145,15.1727],[75.71582,15.17557],[75.71522,15.17634],[75.71433,15.18231],[75.71348,15.18277],[75.71173,15.1891],[75.71145,15.2142],[75.72339,15.21753],[75.72488,15.21701],[75.7255,15.21552],[75.72535,15.21347],[75.73047,15.21178],[75.73374,15.20877],[75.73429,15.2088],[75.73105,15.22523],[75.72603,15.24641],[75.71497,15.23867],[75.71493,15.2401],[75.70587,15.23973],[75.69773,15.23597],[75.68075,15.23618],[75.67705,15.24205],[75.66703,15.26028],[75.64392,15.26144],[75.64322,15.263],[75.6397,15.28151],[75.65246,15.28474],[75.66225,15.28663],[75.66194,15.28926],[75.65984,15.28948],[75.65791,15.30605],[75.65731,15.30795],[75.65612,15.30782],[75.65386,15.31531],[75.65176,15.33278],[75.66408,15.33223],[75.67106,15.33455],[75.67427,15.33699],[75.67758,15.34224],[75.67933,15.34691],[75.68443,15.34656],[75.68808,15.347],[75.69086,15.34833],[75.69185,15.35413],[75.6993,15.35716],[75.70721,15.35816],[75.71318,15.35787],[75.7411,15.35825],[75.74562,15.35811],[75.75897,15.35643],[75.75821,15.36608],[75.75857,15.3729],[75.75779,15.3755],[75.76063,15.40066],[75.7604,15.40621],[75.76601,15.40637],[75.77699,15.40769],[75.77912,15.40816],[75.77994,15.40899],[75.78597,15.40886],[75.78669,15.40974],[75.78914,15.41046],[75.78946,15.41132],[75.79858,15.41234],[75.80641,15.41413],[75.80936,15.41411],[75.81019,15.41712],[75.81022,15.42165],[75.8238,15.42513],[75.83137,15.42575],[75.83565,15.42529],[75.8362,15.42485],[75.85315,15.42307]]]}},{"type":"Feature","properties":{"unitId":427,"unitName":"Naragund PS"},"geometry":{"type":"Polygon","coordinates":[[[75.46176,15.88722],[75.46175,15.88564],[75.46012,15.88504],[75.45934,15.88376],[75.46018,15.88023],[75.46144,15.87916],[75.46234,15.87898],[75.46299,15.87908],[75.46365,15.88092],[75.46486,15.88141],[75.46613,15.88107],[75.46728,15.88018],[75.46627,15.87694],[75.46699,15.87694],[75.46751,15.87629],[75.46911,15.87626],[75.46895,15.87685],[75.47047,15.87735],[75.476,15.87568],[75.47579,15.87505],[75.474,15.87455],[75.47499,15.87255],[75.47742,15.87256],[75.47903,15.87105],[75.48158,15.87196],[75.4788,15.87478],[75.47991,15.8766],[75.48052,15.87671],[75.4821,15.87641],[75.48255,15.87431],[75.48327,15.87341],[75.4849,15.87536],[75.48646,15.8761],[75.48758,15.87579],[75.48804,15.87644],[75.4888,15.87628],[75.4896,15.87477],[75.49166,15.87384],[75.49606,15.87293],[75.49679,15.87084],[75.49984,15.86783],[75.50177,15.8666],[75.50467,15.86319],[75.50454,15.86249],[75.50389,15.8626],[75.50277,15.86139],[75.50218,15.86],[75.50229,15.85803],[75.50683,15.85644],[75.50746,15.86044],[75.50816,15.86059],[75.50823,15.86021],[75.51263,15.85952],[75.51537,15.8585],[75.51801,15.85813],[75.5191,15.85847],[75.52081,15.85311],[75.51832,15.85195],[75.51604,15.85307],[75.51453,15.85287],[75.5141,15.85194],[75.51426,15.85089],[75.51314,15.85105],[75.51299,15.85034],[75.51671,15.84772],[75.5212,15.84657],[75.5208,15.84303],[75.52158,15.84186],[75.5237,15.84104],[75.52653,15.84297],[75.53099,15.84177],[75.53157,15.84116],[75.52913,15.83549],[75.53489,15.83521],[75.53499,15.83652],[75.53795,15.83587],[75.54044,15.83639],[75.54689,15.83654],[75.54887,15.83514],[75.55368,15.83453],[75.55589,15.8331],[75.55503,15.83197],[75.55452,15.82937],[75.55113,15.82748],[75.55073,15.82599],[75.55105,15.82517],[75.55278,15.82454],[75.55507,15.82608],[75.5555,15.82398],[75.5462,15.82359],[75.54558,15.81926],[75.54475,15.79927],[75.53474,15.79777],[75.53391,15.79355],[75.5303,15.7834],[75.54237,15.7788],[75.53988,15.77399],[75.53906,15.77399],[75.53728,15.7729],[75.53558,15.77061],[75.53554,15.76711],[75.53417,15.76554],[75.53313,15.76187],[75.53327,15.75618],[75.53283,15.75501],[75.53084,15.75308],[75.52755,15.74087],[75.52599,15.72633],[75.52634,15.72303],[75.5248,15.72001],[75.52233,15.71777],[75.52207,15.71645],[75.52253,15.71496],[75.52214,15.71443],[75.52212,15.71193],[75.52207,15.71463],[75.52086,15.71514],[75.52005,15.71432],[75.51951,15.71202],[75.51721,15.70947],[75.51342,15.7114],[75.51234,15.71149],[75.51069,15.71047],[75.51102,15.70703],[75.50889,15.70546],[75.50899,15.70372],[75.50613,15.70322],[75.50692,15.70028],[75.50523,15.69956],[75.50328,15.69992],[75.50263,15.70078],[75.50287,15.70192],[75.50032,15.70243],[75.49786,15.70019],[75.49678,15.70097],[75.49061,15.70045],[75.48912,15.6997],[75.48758,15.70316],[75.47769,15.70281],[75.46898,15.70159],[75.47189,15.68843],[75.4722,15.68729],[75.47272,15.68734],[75.47274,15.68673],[75.47201,15.68666],[75.46984,15.6835],[75.4548,15.68048],[75.45397,15.68212],[75.45319,15.68144],[75.45166,15.68131],[75.45163,15.68028],[75.45061,15.67953],[75.45073,15.67813],[75.45028,15.6779],[75.4488,15.67851],[75.4475,15.68111],[75.44655,15.68097],[75.44403,15.67599],[75.44531,15.67575],[75.44542,15.67313],[75.4438,15.67297],[75.44309,15.67365],[75.44276,15.67157],[75.44031,15.67164],[75.42959,15.66971],[75.43017,15.66914],[75.42978,15.66883],[75.42806,15.66912],[75.42594,15.66848],[75.42353,15.66843],[75.42429,15.66291],[75.41737,15.66153],[75.41393,15.65788],[75.41413,15.6573],[75.4135,15.65612],[75.41091,15.65533],[75.40683,15.65536],[75.39861,15.66015],[75.38734,15.66401],[75.38558,15.66508],[75.37628,15.66613],[75.37643,15.66574],[75.3742,15.6664],[75.37438,15.66676],[75.37194,15.66683],[75.36254,15.66895],[75.36155,15.65611],[75.36007,15.64569],[75.33606,15.64778],[75.33581,15.65453],[75.33673,15.66801],[75.33657,15.67382],[75.33276,15.67459],[75.33094,15.67543],[75.33073,15.67502],[75.33022,15.67578],[75.32034,15.67905],[75.3147,15.6801],[75.3115,15.68122],[75.30496,15.68673],[75.29796,15.69025],[75.29528,15.69081],[75.29507,15.69167],[75.2858,15.69114],[75.27855,15.6899],[75.27814,15.70719],[75.27698,15.71477],[75.27728,15.715],[75.27673,15.72208],[75.27615,15.72345],[75.27309,15.72311],[75.27507,15.74086],[75.28227,15.74145],[75.29309,15.74135],[75.29286,15.72816],[75.29822,15.72762],[75.30167,15.72791],[75.30772,15.72959],[75.31377,15.73033],[75.31787,15.74681],[75.3183,15.75318],[75.31782,15.75511],[75.31757,15.76421],[75.31325,15.76458],[75.30547,15.7664],[75.30301,15.78578],[75.304,15.80239],[75.303,15.80768],[75.303,15.81242],[75.31525,15.81227],[75.32007,15.81283],[75.32074,15.81054],[75.32679,15.81296],[75.33302,15.81663],[75.33005,15.82446],[75.33893,15.82766],[75.34014,15.81759],[75.3409,15.80446],[75.36494,15.80432],[75.36603,15.81391],[75.3716,15.83372],[75.37391,15.83922],[75.37561,15.846],[75.38002,15.84406],[75.3824,15.84353],[75.38195,15.8403],[75.38521,15.83855],[75.39558,15.83875],[75.39886,15.83996],[75.39872,15.83946],[75.40308,15.84178],[75.40522,15.83891],[75.40755,15.8385],[75.40937,15.83886],[75.41119,15.84053],[75.41405,15.83962],[75.41563,15.84008],[75.41553,15.841],[75.41694,15.84198],[75.42498,15.84245],[75.42551,15.83631],[75.42408,15.82544],[75.42269,15.81929],[75.41901,15.80769],[75.4154,15.78834],[75.41401,15.7841],[75.42881,15.78059],[75.43659,15.77812],[75.43751,15.78727],[75.43965,15.79511],[75.44769,15.7937],[75.45138,15.81083],[75.45291,15.81046],[75.45531,15.81795],[75.45777,15.81782],[75.45733,15.83188],[75.45818,15.85186],[75.45763,15.86142],[75.45134,15.86193],[75.45166,15.87087],[75.45251,15.87975],[75.4532,15.88215],[75.44918,15.88511],[75.44941,15.88658],[75.44991,15.88658],[75.44982,15.88722],[75.45263,15.88656],[75.4587,15.88708],[75.46205,15.88808],[75.46176,15.88722]]]}},{"type":"Feature","properties":{"unitId":428,"unitName":"Gajendragad PS"},"geometry":{"type":"Polygon","coordinates":[[[75.84242,15.83752],[75.84533,15.83824],[75.84883,15.83808],[75.85245,15.83603],[75.85786,15.83445],[75.86353,15.83166],[75.87093,15.82965],[75.8739,15.82812],[75.87383,15.82767],[75.88358,15.82135],[75.89146,15.81502],[75.90042,15.8097],[75.90864,15.80752],[75.91423,15.80203],[75.91903,15.79913],[75.92141,15.79651],[75.92773,15.79167],[75.93033,15.79101],[75.93822,15.79083],[75.94308,15.7889],[75.96141,15.78488],[75.96329,15.78847],[75.96378,15.79522],[75.96764,15.79441],[75.97291,15.7975],[75.97644,15.80072],[75.98058,15.80112],[75.98275,15.80219],[75.98395,15.8022],[75.98465,15.8015],[75.98845,15.80155],[75.98793,15.79849],[75.98833,15.79577],[75.98941,15.79418],[75.99026,15.78592],[75.99177,15.78549],[75.9934,15.78234],[75.9936,15.78095],[75.99516,15.78065],[75.99968,15.7815],[76.00288,15.78282],[76.00649,15.78277],[76.00994,15.78419],[76.01179,15.78184],[76.01238,15.7799],[76.01548,15.78022],[76.01573,15.77887],[76.01845,15.77912],[76.01952,15.77783],[76.01976,15.77567],[76.0206,15.77588],[76.02404,15.77498],[76.03389,15.77004],[76.03915,15.77109],[76.04049,15.76324],[76.03947,15.76299],[76.03956,15.76221],[76.03882,15.76222],[76.03862,15.76141],[76.03756,15.7613],[76.03688,15.75766],[76.0347,15.75693],[76.03479,15.75495],[76.03829,15.75494],[76.0399,15.75444],[76.03979,15.74715],[76.03891,15.74572],[76.03702,15.73947],[76.03684,15.73725],[76.0433,15.73651],[76.04295,15.7343],[76.04372,15.73025],[76.04294,15.7295],[76.04301,15.72729],[76.04359,15.72518],[76.04492,15.72409],[76.04303,15.72007],[76.04202,15.71963],[76.03997,15.71738],[76.03762,15.71726],[76.03705,15.71652],[76.03045,15.71515],[76.02749,15.71304],[76.02582,15.71075],[76.0225,15.70921],[76.0204,15.71208],[76.01893,15.71515],[76.00474,15.71579],[76.00423,15.71196],[76.00229,15.71166],[76.00134,15.71024],[75.99998,15.70988],[75.9986,15.70849],[75.99233,15.70732],[75.98752,15.69915],[75.9865,15.69621],[75.98565,15.69645],[75.98456,15.69384],[75.98373,15.69404],[75.98357,15.69363],[75.98377,15.69277],[75.9831,15.69022],[75.98673,15.68959],[75.98632,15.68623],[75.98379,15.68068],[75.98232,15.66688],[75.98499,15.66732],[75.9867,15.66939],[75.98956,15.66985],[75.99103,15.67091],[75.99132,15.67342],[75.99314,15.67574],[75.99422,15.67886],[76.00303,15.67917],[76.00979,15.68008],[76.01432,15.68005],[76.01572,15.67974],[76.01644,15.67848],[76.01615,15.67342],[76.01472,15.66921],[76.01065,15.66188],[76.008,15.66281],[75.99082,15.66331],[75.98198,15.66424],[75.97798,15.66372],[75.97738,15.66267],[75.97674,15.66265],[75.9707,15.6645],[75.96726,15.66463],[75.96758,15.66965],[75.96626,15.66981],[75.96658,15.67596],[75.96725,15.67905],[75.96421,15.67757],[75.96105,15.67722],[75.95136,15.67787],[75.94369,15.67712],[75.94335,15.67834],[75.94205,15.67851],[75.94135,15.67996],[75.94088,15.68004],[75.94039,15.68317],[75.93984,15.68342],[75.94067,15.68724],[75.94063,15.68993],[75.93948,15.69384],[75.93052,15.69248],[75.92519,15.69253],[75.92526,15.69333],[75.9199,15.69456],[75.91919,15.69644],[75.91492,15.69797],[75.91498,15.70529],[75.91581,15.71016],[75.91966,15.72147],[75.92067,15.72607],[75.91902,15.72797],[75.90947,15.73185],[75.9106,15.73719],[75.90995,15.74396],[75.90673,15.74707],[75.90429,15.7471],[75.90351,15.74803],[75.9024,15.74813],[75.90154,15.74937],[75.89866,15.7493],[75.89737,15.75056],[75.89547,15.74688],[75.89261,15.73912],[75.88818,15.73891],[75.88513,15.73716],[75.88499,15.73607],[75.88298,15.73719],[75.88208,15.73693],[75.88373,15.73528],[75.88382,15.73426],[75.88513,15.73213],[75.88675,15.73053],[75.88788,15.72853],[75.88886,15.72774],[75.88973,15.72785],[75.88958,15.72542],[75.88699,15.71755],[75.87972,15.71699],[75.87019,15.71501],[75.87094,15.70463],[75.87075,15.68398],[75.8647,15.68377],[75.86058,15.68256],[75.86018,15.6938],[75.85682,15.69385],[75.8497,15.69513],[75.84155,15.69821],[75.8383,15.69881],[75.83631,15.68859],[75.83637,15.68699],[75.83457,15.68663],[75.83443,15.7013],[75.82696,15.70072],[75.82311,15.6983],[75.8215,15.69794],[75.81961,15.70629],[75.80972,15.70631],[75.80893,15.70852],[75.79399,15.70587],[75.79356,15.71086],[75.78969,15.71176],[75.78934,15.71223],[75.79016,15.71286],[75.79236,15.71654],[75.79577,15.71888],[75.79632,15.7201],[75.79599,15.72184],[75.79491,15.72363],[75.7957,15.72371],[75.79533,15.72937],[75.79555,15.73748],[75.80281,15.73757],[75.80414,15.74398],[75.80466,15.75455],[75.80552,15.75454],[75.8063,15.7588],[75.80647,15.76523],[75.80708,15.769],[75.80724,15.77416],[75.8069,15.77485],[75.80779,15.77984],[75.8122,15.78015],[75.81348,15.77968],[75.81568,15.77786],[75.81846,15.77702],[75.82025,15.78578],[75.82075,15.79207],[75.82184,15.79629],[75.82603,15.79586],[75.8268,15.80028],[75.82882,15.7999],[75.83015,15.80592],[75.83019,15.81028],[75.8315,15.81017],[75.83355,15.81588],[75.83441,15.81675],[75.83296,15.81688],[75.8334,15.81995],[75.83293,15.82208],[75.83322,15.82361],[75.83189,15.82875],[75.82511,15.82939],[75.82497,15.83697],[75.82542,15.83848],[75.82934,15.83937],[75.84242,15.83752]]]}},{"type":"Feature","properties":{"unitId":429,"unitName":"Naregal PS"},"geometry":{"type":"Polygon","coordinates":[[[75.80972,15.70631],[75.81961,15.70629],[75.8215,15.69794],[75.82311,15.6983],[75.82696,15.70072],[75.83443,15.7013],[75.83457,15.68663],[75.83637,15.68699],[75.83631,15.68859],[75.8383,15.69881],[75.84155,15.69821],[75.8497,15.69513],[75.85682,15.69385],[75.86018,15.6938],[75.86058,15.68256],[75.8647,15.68377],[75.87075,15.68398],[75.87057,15.67329],[75.87832,15.67186],[75.88465,15.67199],[75.88731,15.66869],[75.88868,15.65382],[75.88606,15.63406],[75.89462,15.63237],[75.89373,15.62511],[75.89838,15.62403],[75.89902,15.62048],[75.89782,15.61413],[75.89774,15.60713],[75.89747,15.60613],[75.89488,15.60618],[75.8947,15.60246],[75.88934,15.60193],[75.88192,15.59965],[75.88268,15.59578],[75.8788,15.59529],[75.87843,15.59726],[75.86616,15.5952],[75.86834,15.57646],[75.86751,15.57634],[75.86715,15.56454],[75.86756,15.56099],[75.8663,15.54902],[75.86456,15.54252],[75.86288,15.53342],[75.86283,15.53011],[75.86024,15.52278],[75.85979,15.51375],[75.85392,15.51566],[75.84982,15.51571],[75.84891,15.51297],[75.84204,15.51256],[75.83223,15.50981],[75.83161,15.50712],[75.8186,15.5083],[75.81756,15.51057],[75.81643,15.51118],[75.81492,15.51421],[75.81499,15.51522],[75.81364,15.5168],[75.81306,15.51909],[75.81379,15.52276],[75.81326,15.5245],[75.81146,15.52629],[75.80659,15.52687],[75.80705,15.52927],[75.80404,15.52983],[75.80359,15.53343],[75.80249,15.53322],[75.80025,15.53383],[75.80004,15.54178],[75.79367,15.54256],[75.78927,15.54374],[75.78649,15.54517],[75.78649,15.54679],[75.78368,15.54803],[75.77964,15.54848],[75.77943,15.55407],[75.76866,15.55528],[75.76079,15.55464],[75.76159,15.54986],[75.75853,15.5499],[75.75309,15.54894],[75.75306,15.55068],[75.74641,15.55142],[75.74024,15.55284],[75.74162,15.53574],[75.74145,15.53292],[75.73905,15.53291],[75.73889,15.52838],[75.73749,15.52793],[75.7359,15.52668],[75.73372,15.5264],[75.733,15.52673],[75.73274,15.52752],[75.73131,15.52696],[75.72778,15.52229],[75.72685,15.52173],[75.72538,15.52227],[75.72274,15.52231],[75.72077,15.52169],[75.71899,15.52201],[75.71778,15.52288],[75.71854,15.52347],[75.71741,15.52518],[75.71793,15.52665],[75.71673,15.52684],[75.69262,15.52404],[75.68649,15.52288],[75.68601,15.52867],[75.68045,15.52931],[75.67509,15.53624],[75.67318,15.54042],[75.66545,15.54044],[75.66503,15.54267],[75.66421,15.54344],[75.66404,15.5447],[75.66449,15.54922],[75.66545,15.54949],[75.66584,15.55082],[75.66557,15.55132],[75.66413,15.55141],[75.663,15.55206],[75.6618,15.55599],[75.65954,15.55891],[75.65653,15.56513],[75.65448,15.56774],[75.65615,15.56961],[75.65489,15.57264],[75.6491,15.57703],[75.64448,15.58269],[75.64087,15.58384],[75.64089,15.60215],[75.6414,15.60827],[75.64407,15.62274],[75.64571,15.62688],[75.64715,15.62688],[75.64738,15.63121],[75.65016,15.63156],[75.65058,15.63116],[75.65268,15.62275],[75.65345,15.62268],[75.6531,15.62169],[75.65364,15.62068],[75.65534,15.6193],[75.65628,15.61772],[75.65622,15.61447],[75.6584,15.61222],[75.65807,15.61151],[75.65941,15.61108],[75.66079,15.60947],[75.66536,15.60685],[75.66611,15.60423],[75.6681,15.60313],[75.6695,15.6013],[75.67187,15.59984],[75.67306,15.59975],[75.674,15.59772],[75.6738,15.59688],[75.67423,15.59619],[75.67497,15.59636],[75.67562,15.59439],[75.67934,15.59411],[75.67958,15.59114],[75.68247,15.59112],[75.68275,15.5921],[75.68341,15.59218],[75.6947,15.59261],[75.70038,15.59134],[75.70107,15.5921],[75.70146,15.60466],[75.70817,15.60446],[75.70768,15.60766],[75.71455,15.60804],[75.7152,15.6168],[75.71656,15.623],[75.71682,15.6283],[75.718,15.62914],[75.72029,15.63238],[75.72442,15.6347],[75.73175,15.63491],[75.73431,15.63551],[75.75485,15.63747],[75.75515,15.64177],[75.75861,15.646],[75.76157,15.65058],[75.76345,15.65147],[75.76789,15.65568],[75.77284,15.6591],[75.78396,15.66156],[75.78382,15.6651],[75.78462,15.66511],[75.78448,15.66707],[75.78491,15.66757],[75.78777,15.66602],[75.7877,15.66461],[75.79208,15.66496],[75.79222,15.66181],[75.79414,15.6619],[75.79482,15.66509],[75.79357,15.66505],[75.79369,15.66798],[75.79574,15.66754],[75.79736,15.66813],[75.79903,15.66686],[75.79975,15.66882],[75.79618,15.66988],[75.79638,15.68963],[75.796,15.69439],[75.79399,15.70587],[75.80893,15.70852],[75.80972,15.70631]]]}},{"type":"Feature","properties":{"unitId":430,"unitName":"Ron PS"},"geometry":{"type":"Polygon","coordinates":[[[75.78464,15.84972],[75.78727,15.84869],[75.79383,15.84945],[75.79689,15.84752],[75.80487,15.85113],[75.8096,15.85117],[75.81201,15.84723],[75.82,15.85124],[75.82017,15.84735],[75.82071,15.84543],[75.82658,15.84226],[75.82497,15.83697],[75.82511,15.82939],[75.83189,15.82875],[75.83322,15.82361],[75.83293,15.82208],[75.8334,15.81995],[75.83296,15.81688],[75.83441,15.81675],[75.83355,15.81588],[75.8315,15.81017],[75.83019,15.81028],[75.83015,15.80592],[75.82882,15.7999],[75.8268,15.80028],[75.82603,15.79586],[75.82184,15.79629],[75.82075,15.79207],[75.82025,15.78578],[75.81846,15.77702],[75.81568,15.77786],[75.81348,15.77968],[75.8122,15.78015],[75.80779,15.77984],[75.8069,15.77485],[75.80724,15.77416],[75.80708,15.769],[75.80647,15.76523],[75.8063,15.7588],[75.80552,15.75454],[75.80466,15.75455],[75.80414,15.74398],[75.80281,15.73757],[75.79555,15.73748],[75.79533,15.72937],[75.7957,15.72371],[75.79491,15.72363],[75.79599,15.72184],[75.79632,15.7201],[75.79577,15.71888],[75.79236,15.71654],[75.79016,15.71286],[75.78934,15.71223],[75.78969,15.71176],[75.79356,15.71086],[75.79638,15.68963],[75.79618,15.66988],[75.79975,15.66882],[75.79903,15.66686],[75.79736,15.66813],[75.79574,15.66754],[75.79369,15.66798],[75.79357,15.66505],[75.79482,15.66509],[75.79414,15.6619],[75.79222,15.66181],[75.79208,15.66496],[75.7877,15.66461],[75.78777,15.66602],[75.78491,15.66757],[75.78448,15.66707],[75.78462,15.66511],[75.78382,15.6651],[75.78396,15.66156],[75.77322,15.65927],[75.77127,15.65829],[75.766,15.65412],[75.76345,15.65147],[75.76157,15.65058],[75.75861,15.646],[75.75515,15.64177],[75.75485,15.63747],[75.73431,15.63551],[75.73175,15.63491],[75.72442,15.6347],[75.72029,15.63238],[75.718,15.62914],[75.71682,15.6283],[75.71656,15.623],[75.7152,15.6168],[75.71455,15.60804],[75.70768,15.60766],[75.70817,15.60446],[75.70146,15.60466],[75.70107,15.5921],[75.70038,15.59134],[75.6947,15.59261],[75.68341,15.59218],[75.68275,15.5921],[75.68247,15.59112],[75.67958,15.59114],[75.67934,15.59411],[75.67562,15.59439],[75.67497,15.59636],[75.67423,15.59619],[75.6738,15.59688],[75.674,15.59772],[75.67306,15.59975],[75.67187,15.59984],[75.6695,15.6013],[75.6681,15.60313],[75.66611,15.60423],[75.66536,15.60685],[75.66079,15.60947],[75.65941,15.61108],[75.65807,15.61151],[75.6584,15.61222],[75.65622,15.61447],[75.65628,15.61772],[75.65579,15.61872],[75.6531,15.62169],[75.65345,15.62268],[75.65268,15.62275],[75.65016,15.63156],[75.64738,15.63121],[75.64715,15.62688],[75.64571,15.62688],[75.64407,15.62274],[75.64276,15.61728],[75.64138,15.60801],[75.63992,15.60799],[75.64083,15.61447],[75.64012,15.61455],[75.64072,15.61826],[75.64138,15.61877],[75.64147,15.61953],[75.64032,15.62234],[75.64144,15.6252],[75.62978,15.62613],[75.62942,15.63325],[75.6279,15.64024],[75.62401,15.63907],[75.62198,15.63796],[75.62258,15.63291],[75.62239,15.6322],[75.62114,15.63222],[75.62175,15.62801],[75.61321,15.62769],[75.61314,15.62904],[75.61194,15.62892],[75.6112,15.63017],[75.61094,15.62881],[75.60241,15.62794],[75.60061,15.63073],[75.59761,15.63044],[75.58123,15.62401],[75.57103,15.62125],[75.55012,15.62065],[75.5497,15.62316],[75.54989,15.62866],[75.55306,15.64328],[75.55433,15.64705],[75.54935,15.64802],[75.5493,15.6477],[75.54531,15.6482],[75.51734,15.64667],[75.50221,15.64754],[75.50236,15.64893],[75.50064,15.66042],[75.49615,15.67582],[75.49402,15.68535],[75.48912,15.6997],[75.49061,15.70045],[75.49678,15.70097],[75.49786,15.70019],[75.50032,15.70243],[75.50287,15.70192],[75.50263,15.70078],[75.50328,15.69992],[75.50567,15.69966],[75.50692,15.70028],[75.50613,15.70322],[75.50899,15.70372],[75.50889,15.70546],[75.51102,15.70703],[75.51069,15.71047],[75.51234,15.71149],[75.51342,15.7114],[75.51721,15.70947],[75.51951,15.71202],[75.52005,15.71432],[75.52086,15.71514],[75.52207,15.71463],[75.52212,15.71193],[75.52214,15.71443],[75.52253,15.71496],[75.52207,15.71645],[75.52233,15.71777],[75.5248,15.72001],[75.52634,15.72303],[75.52599,15.72633],[75.52755,15.74087],[75.53084,15.75308],[75.53283,15.75501],[75.53327,15.75618],[75.53313,15.76187],[75.53417,15.76554],[75.53554,15.76711],[75.53558,15.77061],[75.53728,15.7729],[75.53906,15.77399],[75.53988,15.77399],[75.54237,15.7788],[75.5303,15.7834],[75.53391,15.79355],[75.53474,15.79777],[75.54475,15.79927],[75.54558,15.81926],[75.5462,15.82359],[75.5555,15.82398],[75.55514,15.82684],[75.55978,15.83006],[75.55996,15.83072],[75.55896,15.83113],[75.5594,15.83362],[75.56017,15.83479],[75.56019,15.83568],[75.56221,15.83716],[75.56478,15.8372],[75.56692,15.83588],[75.57,15.83618],[75.57016,15.83531],[75.56959,15.83382],[75.56624,15.83383],[75.56615,15.83192],[75.56503,15.83185],[75.5649,15.83102],[75.56915,15.83117],[75.57637,15.83041],[75.57524,15.82524],[75.57678,15.82426],[75.57928,15.82563],[75.58109,15.82843],[75.58521,15.83291],[75.58651,15.83361],[75.58603,15.83375],[75.58618,15.8347],[75.5889,15.83331],[75.58979,15.83223],[75.59022,15.8327],[75.59005,15.83387],[75.59081,15.83399],[75.59127,15.83113],[75.59477,15.82969],[75.59952,15.82918],[75.60282,15.82955],[75.60339,15.82891],[75.60647,15.83112],[75.60736,15.82949],[75.60885,15.8295],[75.60886,15.82898],[75.60833,15.82893],[75.60861,15.82769],[75.60608,15.82588],[75.60612,15.82542],[75.61238,15.82476],[75.61554,15.82385],[75.6159,15.82135],[75.61862,15.82135],[75.61948,15.82193],[75.62073,15.83596],[75.62436,15.83498],[75.62678,15.83286],[75.62899,15.83474],[75.63199,15.83434],[75.63133,15.83192],[75.63472,15.83348],[75.63541,15.83755],[75.63679,15.8419],[75.64383,15.84175],[75.64329,15.83619],[75.64263,15.83622],[75.64224,15.83332],[75.64553,15.83129],[75.64764,15.83191],[75.64988,15.83155],[75.65531,15.82805],[75.65744,15.82932],[75.65795,15.82831],[75.65787,15.8289],[75.65973,15.83223],[75.66359,15.83704],[75.66613,15.83773],[75.66919,15.83746],[75.67196,15.83647],[75.67182,15.83591],[75.67389,15.83233],[75.67422,15.83029],[75.67561,15.83013],[75.67435,15.82603],[75.67438,15.82382],[75.67488,15.82291],[75.67647,15.82213],[75.67935,15.82262],[75.67946,15.82181],[75.68036,15.82257],[75.68182,15.82678],[75.68107,15.82682],[75.68103,15.82805],[75.68154,15.828],[75.68078,15.82812],[75.68025,15.82908],[75.68106,15.82987],[75.68748,15.83084],[75.68861,15.8302],[75.6912,15.82691],[75.6958,15.82487],[75.70063,15.82614],[75.70152,15.8269],[75.70565,15.82726],[75.70691,15.82947],[75.70686,15.82904],[75.70849,15.82891],[75.70851,15.82804],[75.71132,15.82804],[75.71144,15.82741],[75.71496,15.8274],[75.7214,15.81822],[75.72924,15.81718],[75.72926,15.81647],[75.73603,15.81648],[75.73578,15.81394],[75.74365,15.81287],[75.74494,15.81307],[75.74751,15.81444],[75.74749,15.81481],[75.75148,15.81571],[75.76081,15.81662],[75.77761,15.81726],[75.77954,15.8177],[75.77912,15.82053],[75.77765,15.82141],[75.77723,15.82753],[75.77411,15.82801],[75.77453,15.82952],[75.77495,15.82952],[75.77599,15.83403],[75.77632,15.84771],[75.77691,15.84917],[75.7801,15.85318],[75.78247,15.8509],[75.78464,15.84972]]]}},{"type":"Feature","properties":{"unitId":431,"unitName":"Lakshmeshwar PS"},"geometry":{"type":"Polygon","coordinates":[[[75.4653,15.208],[75.46526,15.20679],[75.49112,15.20339],[75.49093,15.20235],[75.49389,15.1994],[75.50255,15.19798],[75.51456,15.19785],[75.5157,15.19546],[75.51742,15.19685],[75.52231,15.19709],[75.52305,15.19673],[75.52299,15.19579],[75.52688,15.19522],[75.53115,15.19543],[75.53785,15.1948],[75.54157,15.19375],[75.54173,15.18946],[75.54091,15.18679],[75.5402,15.17997],[75.53682,15.18058],[75.53612,15.17256],[75.53713,15.16447],[75.53816,15.16079],[75.53778,15.16017],[75.53831,15.15867],[75.53993,15.15721],[75.54175,15.15986],[75.54256,15.15993],[75.54389,15.15787],[75.54464,15.15746],[75.54459,15.15655],[75.54554,15.15636],[75.54565,15.15554],[75.55022,15.15668],[75.55121,15.16742],[75.55573,15.16844],[75.55587,15.17263],[75.55685,15.17683],[75.57463,15.17473],[75.5776,15.17302],[75.57665,15.16897],[75.57762,15.16189],[75.57842,15.16073],[75.57754,15.15743],[75.57781,15.15595],[75.57719,15.15597],[75.57929,15.15334],[75.57879,15.15318],[75.57816,15.15076],[75.57867,15.14871],[75.58392,15.14721],[75.58807,15.14668],[75.58904,15.14605],[75.58941,15.14452],[75.59062,15.14402],[75.59526,15.14393],[75.59817,15.14002],[75.60151,15.13832],[75.60224,15.13725],[75.60154,15.13683],[75.60267,15.13466],[75.60379,15.13511],[75.60326,15.12971],[75.60012,15.13028],[75.60167,15.12841],[75.6034,15.12734],[75.6033,15.11884],[75.60546,15.09808],[75.60155,15.09744],[75.59932,15.09822],[75.59578,15.09773],[75.59706,15.09204],[75.59518,15.09179],[75.59638,15.08479],[75.59541,15.07294],[75.59564,15.06878],[75.59033,15.06456],[75.59156,15.06349],[75.58461,15.05665],[75.58474,15.05402],[75.59019,15.05325],[75.59917,15.05294],[75.59944,15.05474],[75.60321,15.05428],[75.60376,15.05796],[75.6063,15.06011],[75.60667,15.061],[75.61083,15.06117],[75.61086,15.05854],[75.61145,15.05853],[75.61779,15.05913],[75.62295,15.06108],[75.62365,15.05837],[75.62633,15.05778],[75.62687,15.0588],[75.62762,15.05903],[75.63065,15.05707],[75.63179,15.05799],[75.63268,15.05792],[75.63466,15.05886],[75.63551,15.05745],[75.63639,15.05743],[75.63747,15.05866],[75.63954,15.05854],[75.64094,15.05988],[75.64206,15.05981],[75.64364,15.06165],[75.6455,15.06237],[75.64924,15.06518],[75.65134,15.0588],[75.66517,15.0594],[75.66573,15.04957],[75.667,15.04262],[75.65816,15.04061],[75.65772,15.03234],[75.6594,15.03258],[75.6612,15.03187],[75.66985,15.0312],[75.67032,15.02812],[75.6714,15.02687],[75.68016,15.02283],[75.67978,15.02275],[75.67916,15.02037],[75.68066,15.01109],[75.68028,15.00631],[75.68093,15.00527],[75.68009,15.00431],[75.68014,15.00292],[75.67943,15.00239],[75.67764,14.99652],[75.67895,14.99302],[75.67532,14.98177],[75.67429,14.98201],[75.66921,14.98623],[75.66658,14.98744],[75.65689,14.98931],[75.65285,14.99067],[75.64125,14.9918],[75.63198,14.99156],[75.6294,14.98404],[75.62294,14.98201],[75.61775,14.98096],[75.61878,14.97413],[75.60968,14.9738],[75.60863,14.96841],[75.60891,14.96605],[75.61107,14.95901],[75.61182,14.95931],[75.61124,14.95797],[75.60869,14.95776],[75.60704,14.95615],[75.6038,14.9565],[75.60361,14.95519],[75.60276,14.95475],[75.6015,14.95479],[75.59976,14.95615],[75.59859,14.95637],[75.59855,14.9559],[75.59712,14.95638],[75.59572,14.95602],[75.59627,14.9567],[75.59561,14.95658],[75.59504,14.95729],[75.5944,14.95716],[75.59247,14.95834],[75.59193,14.95797],[75.59004,14.95896],[75.58967,14.95857],[75.58682,14.96333],[75.58696,14.96443],[75.58592,14.96506],[75.58355,14.96859],[75.576,14.96977],[75.57353,14.9706],[75.56515,14.97134],[75.5649,14.97102],[75.56373,14.97213],[75.56338,14.97366],[75.56365,14.97495],[75.56421,14.97501],[75.56546,14.97645],[75.56548,14.97877],[75.5651,14.97932],[75.54768,14.97897],[75.54139,14.97828],[75.54073,14.98675],[75.54091,14.99021],[75.5417,14.99519],[75.54322,14.99927],[75.54242,15.01497],[75.54184,15.01449],[75.53819,15.01927],[75.54085,15.01998],[75.54072,15.02052],[75.5385,15.02718],[75.5334,15.03483],[75.52063,15.03306],[75.50756,15.04416],[75.5001,15.04521],[75.49486,15.04681],[75.48414,15.04418],[75.48067,15.0445],[75.4763,15.04384],[75.47182,15.04491],[75.46824,15.04702],[75.46084,15.04379],[75.46054,15.04995],[75.45796,15.0505],[75.45391,15.05054],[75.45207,15.04948],[75.4508,15.05937],[75.44908,15.05949],[75.44903,15.06038],[75.42595,15.0612],[75.42482,15.06053],[75.42182,15.06134],[75.41691,15.06141],[75.41681,15.06324],[75.4184,15.06558],[75.418,15.0736],[75.41656,15.08494],[75.42034,15.08585],[75.42009,15.09053],[75.42425,15.0916],[75.42362,15.09513],[75.42247,15.09623],[75.42259,15.09877],[75.43296,15.1043],[75.43414,15.10789],[75.43236,15.11281],[75.42982,15.11635],[75.42875,15.12668],[75.42093,15.13521],[75.41598,15.14208],[75.41451,15.14767],[75.41195,15.16202],[75.40601,15.16226],[75.40555,15.16567],[75.40336,15.16543],[75.4032,15.1661],[75.39556,15.16517],[75.3948,15.17266],[75.40035,15.1735],[75.39779,15.18711],[75.39814,15.20083],[75.40846,15.20058],[75.40855,15.20016],[75.40988,15.20008],[75.42028,15.20041],[75.43278,15.19881],[75.43342,15.20964],[75.44571,15.20872],[75.44938,15.20804],[75.44814,15.21158],[75.4653,15.208]]]}}]}