{"type":"FeatureCollection","features":[{"type":"Feature","properties":{"unitId":461,"unitName":"Byadagi PS"},"geometry":{"type":"Polygon","coordinates":[[[75.55384,14.78365],[75.55605,14.77936],[75.56632,14.7641],[75.57056,14.75658],[75.57411,14.74984],[75.57465,14.74618],[75.57559,14.74473],[75.57926,14.74045],[75.58022,14.74001],[75.58223,14.7376],[75.58581,14.73465],[75.59078,14.73405],[75.60423,14.71607],[75.60484,14.7131],[75.60574,14.71151],[75.60454,14.70034],[75.60236,14.70071],[75.60084,14.69813],[75.59953,14.69812],[75.58988,14.70004],[75.58196,14.70252],[75.57633,14.7008],[75.57241,14.70186],[75.56511,14.70579],[75.55138,14.70744],[75.55161,14.70685],[75.55005,14.70524],[75.54751,14.70568],[75.54419,14.6889],[75.53597,14.68759],[75.53122,14.686],[75.52557,14.68482],[75.5215,14.68418],[75.5192,14.6851],[75.51536,14.684],[75.51489,14.68312],[75.51608,14.68013],[75.52015,14.6751],[75.5227,14.67518],[75.53001,14.66544],[75.53548,14.66295],[75.53248,14.63885],[75.53253,14.6227],[75.53309,14.61881],[75.52979,14.61741],[75.52948,14.61916],[75.52892,14.61896],[75.52813,14.61626],[75.52632,14.61535],[75.52553,14.61579],[75.52547,14.6168],[75.52409,14.61829],[75.52134,14.61719],[75.51993,14.61772],[75.5191,14.61741],[75.51774,14.60777],[75.51656,14.60772],[75.51617,14.60559],[75.51273,14.60308],[75.50059,14.58759],[75.49002,14.58739],[75.48382,14.59043],[75.48156,14.5876],[75.47643,14.58306],[75.46011,14.58413],[75.45391,14.59599],[75.45306,14.60225],[75.45341,14.60433],[75.44358,14.60652],[75.44153,14.60759],[75.43925,14.60798],[75.43728,14.59726],[75.43794,14.5942],[75.43728,14.59131],[75.43052,14.59204],[75.42611,14.59142],[75.42686,14.58959],[75.42439,14.58981],[75.42428,14.58849],[75.42348,14.58789],[75.42034,14.59139],[75.41724,14.59133],[75.41684,14.59634],[75.41707,14.60491],[75.4158,14.60844],[75.41309,14.60943],[75.40847,14.60951],[75.39132,14.60754],[75.3865,14.60648],[75.38566,14.60657],[75.38446,14.60781],[75.38306,14.60726],[75.38192,14.60796],[75.38119,14.60763],[75.37973,14.6086],[75.37634,14.60765],[75.37162,14.6074],[75.37104,14.6114],[75.36226,14.61528],[75.35583,14.61995],[75.35604,14.62399],[75.35382,14.62798],[75.35414,14.62946],[75.35705,14.63463],[75.35962,14.63601],[75.35938,14.63866],[75.35818,14.64034],[75.36255,14.64294],[75.36758,14.64369],[75.37274,14.64382],[75.37442,14.64219],[75.37519,14.64029],[75.37841,14.63541],[75.38056,14.63332],[75.38271,14.63236],[75.38521,14.63203],[75.38473,14.63096],[75.38639,14.63083],[75.38708,14.62937],[75.38702,14.6281],[75.38996,14.62867],[75.3906,14.63009],[75.39307,14.63236],[75.3949,14.63333],[75.3953,14.63129],[75.40272,14.6275],[75.40975,14.6291],[75.41318,14.62756],[75.41567,14.62601],[75.41674,14.62477],[75.41869,14.62628],[75.41879,14.62967],[75.42026,14.63048],[75.42081,14.63251],[75.4228,14.63364],[75.42316,14.635],[75.42828,14.63652],[75.42862,14.63756],[75.43135,14.63715],[75.43226,14.6417],[75.43265,14.64752],[75.43221,14.65217],[75.43061,14.65268],[75.42934,14.65435],[75.42688,14.65391],[75.42534,14.655],[75.42406,14.66104],[75.42027,14.66651],[75.42023,14.66796],[75.41766,14.67602],[75.41377,14.68342],[75.4149,14.68526],[75.41917,14.68778],[75.4194,14.6889],[75.41877,14.69065],[75.41951,14.69759],[75.41873,14.70011],[75.41823,14.70492],[75.41837,14.70905],[75.42114,14.7093],[75.42445,14.71096],[75.42436,14.71513],[75.4259,14.71602],[75.43164,14.71713],[75.43263,14.71792],[75.45287,14.71987],[75.45191,14.72317],[75.45106,14.73107],[75.45106,14.73868],[75.4515,14.74102],[75.45174,14.742],[75.45328,14.7426],[75.45187,14.74534],[75.45177,14.75361],[75.45232,14.75578],[75.45127,14.75657],[75.45119,14.75804],[75.45006,14.75804],[75.44886,14.7614],[75.4501,14.76108],[75.45589,14.76174],[75.46568,14.76056],[75.469,14.76103],[75.47048,14.76127],[75.47512,14.76559],[75.49736,14.76375],[75.49728,14.76501],[75.50346,14.76545],[75.50359,14.76822],[75.50407,14.76908],[75.50329,14.77237],[75.50446,14.77461],[75.50534,14.77503],[75.50907,14.77516],[75.51736,14.77397],[75.52432,14.77406],[75.52413,14.78142],[75.54125,14.78296],[75.54749,14.78266],[75.55384,14.78365]]]}},{"type":"Feature","properties":{"unitId":462,"unitName":"Kaginele PS"},"geometry":{"type":"Polygon","coordinates":[[[75.36217,14.71713],[75.36835,14.71708],[75.37441,14.71592],[75.38195,14.71614],[75.38387,14.70952],[75.39225,14.70703],[75.39522,14.70442],[75.3967,14.70411],[75.39892,14.70188],[75.40783,14.71056],[75.41126,14.70951],[75.41837,14.70905],[75.41823,14.70492],[75.41873,14.70011],[75.41951,14.69759],[75.41877,14.69065],[75.4194,14.6889],[75.41917,14.68778],[75.4149,14.68526],[75.41377,14.68342],[75.41766,14.67602],[75.42023,14.66796],[75.42027,14.66651],[75.42406,14.66104],[75.42534,14.655],[75.42688,14.65391],[75.42934,14.65435],[75.43061,14.65268],[75.43221,14.65217],[75.43253,14.65102],[75.43238,14.64297],[75.43135,14.63715],[75.42862,14.63756],[75.42828,14.63652],[75.42316,14.635],[75.4228,14.63364],[75.42081,14.63251],[75.42026,14.63048],[75.41879,14.62967],[75.41869,14.62628],[75.41674,14.62477],[75.41567,14.62601],[75.41318,14.62756],[75.40975,14.6291],[75.40272,14.6275],[75.3953,14.63129],[75.3949,14.63333],[75.39307,14.63236],[75.3906,14.63009],[75.38996,14.62867],[75.38702,14.6281],[75.38708,14.62937],[75.38639,14.63083],[75.38473,14.63096],[75.38521,14.63203],[75.38271,14.63236],[75.38056,14.63332],[75.37841,14.63541],[75.37519,14.64029],[75.37442,14.64219],[75.37274,14.64382],[75.36758,14.64369],[75.36255,14.64294],[75.35818,14.64034],[75.35938,14.63866],[75.35962,14.63601],[75.35705,14.63463],[75.35524,14.63176],[75.35382,14.62798],[75.35604,14.62399],[75.35583,14.61995],[75.36226,14.61528],[75.37104,14.6114],[75.37162,14.6074],[75.37042,14.60338],[75.37065,14.59927],[75.37026,14.59604],[75.3713,14.5926],[75.37179,14.58779],[75.37407,14.57994],[75.3734,14.57508],[75.36651,14.57744],[75.35825,14.57752],[75.35508,14.57845],[75.35068,14.57867],[75.34363,14.58006],[75.34358,14.58984],[75.33839,14.58916],[75.33371,14.58962],[75.32861,14.59217],[75.32702,14.59344],[75.32515,14.59714],[75.32204,14.60028],[75.32022,14.59862],[75.32056,14.60514],[75.31154,14.60283],[75.30826,14.60332],[75.30598,14.60475],[75.30454,14.60487],[75.30316,14.60402],[75.29811,14.6053],[75.29669,14.60398],[75.29458,14.60322],[75.29093,14.60029],[75.28998,14.60092],[75.28811,14.60083],[75.28721,14.59829],[75.2869,14.59802],[75.28606,14.5988],[75.28282,14.59707],[75.28055,14.5937],[75.27949,14.59389],[75.27876,14.5959],[75.27725,14.59793],[75.27338,14.60084],[75.27228,14.60076],[75.2706,14.59959],[75.2683,14.60228],[75.26716,14.60292],[75.26618,14.60481],[75.26108,14.60684],[75.25928,14.6059],[75.25859,14.60617],[75.25202,14.6115],[75.25097,14.61872],[75.25183,14.62287],[75.24763,14.62933],[75.24912,14.63088],[75.25106,14.63037],[75.25707,14.63143],[75.25637,14.63342],[75.25309,14.6387],[75.25181,14.64251],[75.25488,14.6411],[75.25593,14.6441],[75.25788,14.64404],[75.25785,14.64465],[75.25857,14.64452],[75.25862,14.64489],[75.26002,14.64414],[75.2591,14.64587],[75.25961,14.64628],[75.25942,14.64773],[75.26,14.64819],[75.26262,14.64859],[75.26307,14.64778],[75.26346,14.64809],[75.26406,14.64771],[75.265,14.64851],[75.26548,14.64978],[75.26621,14.64957],[75.26667,14.65052],[75.26926,14.65039],[75.27134,14.6509],[75.27209,14.65026],[75.27343,14.65074],[75.27476,14.6504],[75.27827,14.65262],[75.27899,14.65242],[75.28026,14.65297],[75.28348,14.65189],[75.28392,14.65117],[75.28842,14.65227],[75.29093,14.6581],[75.29032,14.65947],[75.29111,14.66284],[75.29376,14.66456],[75.29771,14.66541],[75.31025,14.66673],[75.31447,14.6663],[75.31581,14.66562],[75.31838,14.66971],[75.32263,14.67496],[75.32498,14.67492],[75.32501,14.6803],[75.32948,14.68535],[75.33008,14.68758],[75.33082,14.68842],[75.33298,14.69369],[75.33442,14.69509],[75.33576,14.69738],[75.33504,14.70288],[75.33532,14.70608],[75.33855,14.70339],[75.3433,14.70545],[75.35149,14.7072],[75.35164,14.70644],[75.35291,14.70762],[75.35768,14.70804],[75.359,14.70863],[75.35824,14.71005],[75.35879,14.71064],[75.35831,14.71163],[75.35833,14.71349],[75.35965,14.71747],[75.36217,14.71713]]]}},{"type":"Feature","properties":{"unitId":463,"unitName":"Guttal PS"},"geometry":{"type":"Polygon","coordinates":[[[75.64379,14.99151],[75.65168,14.99088],[75.65689,14.98931],[75.66658,14.98744],[75.66921,14.98623],[75.67429,14.98201],[75.67865,14.97987],[75.67963,14.97843],[75.68195,14.97714],[75.68885,14.97515],[75.69063,14.97387],[75.69292,14.9712],[75.6951,14.96751],[75.6951,14.96457],[75.70115,14.94694],[75.69126,14.94471],[75.68744,14.9427],[75.68316,14.93923],[75.68272,14.93688],[75.68292,14.93087],[75.68393,14.92517],[75.68734,14.91481],[75.68955,14.91123],[75.68964,14.90868],[75.69171,14.9021],[75.69408,14.89604],[75.69673,14.89137],[75.69807,14.89208],[75.70639,14.8941],[75.72776,14.89736],[75.72811,14.89605],[75.72774,14.8941],[75.73002,14.89379],[75.73296,14.89218],[75.73353,14.8909],[75.73492,14.89075],[75.73606,14.89009],[75.73685,14.88892],[75.73816,14.88837],[75.73901,14.88694],[75.73603,14.88423],[75.73557,14.88302],[75.73415,14.88291],[75.73362,14.87107],[75.73239,14.86386],[75.72848,14.86347],[75.72222,14.8642],[75.7214,14.86155],[75.7168,14.85762],[75.71557,14.85707],[75.71269,14.85282],[75.71162,14.85234],[75.71125,14.85297],[75.7094,14.85269],[75.70232,14.85413],[75.70157,14.85261],[75.69546,14.85267],[75.69475,14.85629],[75.69358,14.8592],[75.69294,14.85909],[75.69058,14.8569],[75.68611,14.85105],[75.68137,14.8437],[75.68001,14.84047],[75.67755,14.83648],[75.67036,14.81736],[75.66476,14.80802],[75.66354,14.8033],[75.66533,14.80107],[75.66302,14.80002],[75.66128,14.79983],[75.66153,14.79672],[75.65895,14.79675],[75.65922,14.79501],[75.66346,14.7952],[75.66046,14.79366],[75.6609,14.79172],[75.65782,14.79011],[75.65368,14.78886],[75.65325,14.78788],[75.65352,14.78613],[75.65151,14.78439],[75.64801,14.78744],[75.64587,14.79413],[75.64411,14.79365],[75.62802,14.79409],[75.62069,14.79289],[75.61321,14.79259],[75.61326,14.79002],[75.60941,14.78331],[75.60983,14.77044],[75.60873,14.77042],[75.60871,14.76648],[75.60188,14.76636],[75.59494,14.76756],[75.58607,14.76993],[75.5754,14.76975],[75.57367,14.76542],[75.5718,14.76423],[75.56617,14.76411],[75.55949,14.77478],[75.55701,14.77783],[75.55376,14.78385],[75.54749,14.78266],[75.54125,14.78296],[75.52413,14.78142],[75.52432,14.77406],[75.51736,14.77397],[75.5081,14.77514],[75.50777,14.78272],[75.50724,14.78485],[75.50747,14.78782],[75.50789,14.7883],[75.50601,14.78835],[75.50576,14.78939],[75.50426,14.79089],[75.50211,14.79573],[75.50072,14.79576],[75.49975,14.79744],[75.49455,14.79683],[75.49481,14.80718],[75.49577,14.81291],[75.49468,14.82083],[75.49424,14.8297],[75.49479,14.83747],[75.49458,14.84132],[75.50694,14.84056],[75.50696,14.84109],[75.50778,14.84104],[75.50867,14.84212],[75.50886,14.84396],[75.50848,14.84411],[75.50926,14.84735],[75.50815,14.8473],[75.50735,14.85008],[75.50589,14.8499],[75.50601,14.85249],[75.49822,14.85128],[75.49266,14.85134],[75.4911,14.86545],[75.4892,14.86568],[75.48891,14.86834],[75.49771,14.86731],[75.49801,14.87789],[75.49708,14.88313],[75.50331,14.88437],[75.50324,14.88708],[75.51189,14.88823],[75.51333,14.89184],[75.51332,14.89378],[75.51487,14.89654],[75.51414,14.89797],[75.51144,14.89778],[75.51163,14.9042],[75.51101,14.90548],[75.51157,14.90586],[75.51161,14.90886],[75.51241,14.91215],[75.5096,14.91333],[75.5103,14.91665],[75.50963,14.91862],[75.51017,14.92046],[75.50942,14.92209],[75.50979,14.92393],[75.50625,14.93979],[75.50521,14.94259],[75.50287,14.94532],[75.50065,14.9501],[75.49955,14.95708],[75.4984,14.96044],[75.49939,14.96658],[75.50524,14.96754],[75.51079,14.96711],[75.51879,14.96417],[75.52201,14.96352],[75.52448,14.95699],[75.52602,14.95101],[75.52849,14.9522],[75.5303,14.95128],[75.53072,14.95023],[75.53139,14.94987],[75.53014,14.94754],[75.53012,14.94667],[75.52832,14.94561],[75.52823,14.94421],[75.52689,14.94386],[75.52666,14.94311],[75.54298,14.94201],[75.56034,14.94271],[75.56547,14.94346],[75.56707,14.9457],[75.56707,14.94637],[75.56644,14.96433],[75.56514,14.97134],[75.57353,14.9706],[75.576,14.96977],[75.58355,14.96859],[75.58592,14.96506],[75.58696,14.96443],[75.58682,14.96333],[75.58967,14.95857],[75.59004,14.95896],[75.59193,14.95797],[75.59247,14.95834],[75.5944,14.95716],[75.59504,14.95729],[75.59561,14.95658],[75.59627,14.9567],[75.59572,14.95602],[75.59712,14.95638],[75.59855,14.9559],[75.59859,14.95637],[75.59976,14.95615],[75.6015,14.95479],[75.60276,14.95475],[75.60361,14.95519],[75.6038,14.9565],[75.60704,14.95615],[75.60869,14.95776],[75.61124,14.95797],[75.61182,14.95931],[75.61107,14.95901],[75.60891,14.96605],[75.6087,14.96989],[75.60968,14.9738],[75.61878,14.97413],[75.61775,14.98096],[75.62294,14.98201],[75.6294,14.98404],[75.63198,14.99156],[75.64379,14.99151]]]}},{"type":"Feature","properties":{"unitId":464,"unitName":"Haveri Rural PS"},"geometry":{"type":"Polygon","coordinates":[[[75.50967,14.91921],[75.5103,14.91665],[75.5096,14.91333],[75.51241,14.91215],[75.51161,14.90886],[75.51157,14.90586],[75.51101,14.90548],[75.51163,14.9042],[75.51144,14.89778],[75.51414,14.89797],[75.51487,14.89654],[75.51332,14.89378],[75.51333,14.89184],[75.51189,14.88823],[75.50324,14.88708],[75.50331,14.88437],[75.49708,14.88313],[75.49801,14.87789],[75.49771,14.86731],[75.48891,14.86834],[75.4892,14.86568],[75.4911,14.86545],[75.49266,14.85134],[75.49822,14.85128],[75.50601,14.85249],[75.50589,14.8499],[75.50735,14.85008],[75.50815,14.8473],[75.50926,14.84735],[75.50848,14.84411],[75.50886,14.84396],[75.50867,14.84212],[75.50778,14.84104],[75.50696,14.84109],[75.50694,14.84056],[75.49458,14.84132],[75.49479,14.83747],[75.49424,14.8297],[75.49468,14.82083],[75.49577,14.81291],[75.49481,14.80718],[75.49455,14.79683],[75.49975,14.79744],[75.50072,14.79576],[75.50211,14.79573],[75.50426,14.79089],[75.50576,14.78939],[75.50601,14.78835],[75.50789,14.7883],[75.50747,14.78782],[75.50724,14.78485],[75.50777,14.78272],[75.5081,14.77514],[75.50446,14.77461],[75.50329,14.77237],[75.50407,14.76908],[75.50359,14.76822],[75.50346,14.76545],[75.49728,14.76501],[75.49736,14.76375],[75.47512,14.76559],[75.47048,14.76127],[75.469,14.76103],[75.46568,14.76056],[75.45589,14.76174],[75.4501,14.76108],[75.44886,14.7614],[75.45006,14.75804],[75.45119,14.75804],[75.45127,14.75657],[75.45232,14.75578],[75.45177,14.75361],[75.45187,14.74534],[75.45328,14.7426],[75.45174,14.742],[75.4515,14.74102],[75.45106,14.73868],[75.45106,14.73107],[75.45191,14.72317],[75.45287,14.71987],[75.43644,14.718],[75.43519,14.71832],[75.43263,14.71792],[75.42998,14.71664],[75.4259,14.71602],[75.42436,14.71513],[75.42445,14.71096],[75.42114,14.7093],[75.41533,14.70908],[75.41126,14.70951],[75.40783,14.71056],[75.39892,14.70188],[75.3967,14.70411],[75.39522,14.70442],[75.39225,14.70703],[75.38387,14.70952],[75.38195,14.71614],[75.37441,14.71592],[75.36835,14.71708],[75.35965,14.71747],[75.35833,14.71349],[75.35831,14.71163],[75.35879,14.71064],[75.35824,14.71005],[75.359,14.70863],[75.35708,14.70782],[75.35291,14.70762],[75.35164,14.70644],[75.35149,14.7072],[75.3433,14.70545],[75.33855,14.70339],[75.33535,14.70598],[75.33369,14.70802],[75.33059,14.70999],[75.32846,14.71475],[75.32545,14.71676],[75.32245,14.71981],[75.31893,14.72156],[75.3142,14.72304],[75.31419,14.7254],[75.31344,14.72641],[75.30681,14.72999],[75.30478,14.73155],[75.29924,14.73196],[75.29343,14.73435],[75.28887,14.73544],[75.28599,14.73557],[75.28417,14.73494],[75.28308,14.73523],[75.28239,14.73847],[75.28253,14.73934],[75.28294,14.73937],[75.28305,14.74658],[75.27919,14.75011],[75.27906,14.75098],[75.2782,14.75111],[75.27831,14.75197],[75.27226,14.75305],[75.27317,14.75493],[75.27276,14.75648],[75.2731,14.75748],[75.2768,14.76068],[75.27767,14.76203],[75.27862,14.76467],[75.27942,14.77222],[75.27992,14.77313],[75.2868,14.7755],[75.28889,14.77573],[75.29386,14.77523],[75.29515,14.77561],[75.29562,14.77622],[75.2962,14.77882],[75.29614,14.78232],[75.29534,14.78401],[75.29578,14.78538],[75.29369,14.78968],[75.29305,14.79393],[75.29346,14.79491],[75.29442,14.7955],[75.29769,14.79449],[75.29832,14.79467],[75.30118,14.7983],[75.30118,14.80142],[75.30518,14.8129],[75.3048,14.81418],[75.30305,14.81592],[75.29791,14.81906],[75.29752,14.82129],[75.29834,14.82256],[75.29861,14.8246],[75.30259,14.82699],[75.30439,14.82971],[75.30871,14.82993],[75.30957,14.83114],[75.30909,14.83519],[75.30979,14.83704],[75.31023,14.84137],[75.30802,14.84344],[75.30338,14.84555],[75.30262,14.84786],[75.30275,14.84974],[75.30529,14.85308],[75.30785,14.85471],[75.31723,14.85796],[75.32093,14.86165],[75.32244,14.86257],[75.32494,14.86187],[75.3292,14.8595],[75.33202,14.85876],[75.33637,14.85976],[75.33794,14.86175],[75.33812,14.86282],[75.33859,14.86267],[75.34111,14.86462],[75.34249,14.86513],[75.34555,14.8635],[75.34668,14.86343],[75.34817,14.8646],[75.34901,14.86454],[75.35294,14.86233],[75.35509,14.86282],[75.3571,14.86446],[75.3581,14.86907],[75.36156,14.87373],[75.36224,14.87885],[75.36508,14.88222],[75.36987,14.88545],[75.37305,14.8855],[75.37465,14.8872],[75.37592,14.88768],[75.37853,14.8882],[75.38463,14.8879],[75.38648,14.88867],[75.38626,14.88912],[75.38751,14.89021],[75.38902,14.89058],[75.38906,14.88969],[75.39378,14.88083],[75.39457,14.87528],[75.40184,14.87057],[75.40427,14.87094],[75.40604,14.87298],[75.40651,14.87475],[75.40846,14.87626],[75.41427,14.87796],[75.41806,14.87735],[75.41955,14.87756],[75.42032,14.87896],[75.42013,14.88169],[75.42072,14.88301],[75.42786,14.88198],[75.43068,14.88024],[75.43181,14.8788],[75.43327,14.87819],[75.43572,14.87896],[75.43799,14.88276],[75.44014,14.89021],[75.44067,14.89087],[75.44207,14.89133],[75.44541,14.89118],[75.44967,14.88712],[75.45164,14.88296],[75.45296,14.88129],[75.45277,14.87734],[75.45504,14.86737],[75.45599,14.86637],[75.45701,14.86605],[75.46175,14.86577],[75.46468,14.86471],[75.46611,14.86515],[75.46771,14.86601],[75.46888,14.86934],[75.47087,14.87128],[75.48238,14.8746],[75.48733,14.87952],[75.48824,14.88406],[75.48801,14.88491],[75.48716,14.88511],[75.48622,14.88628],[75.4857,14.88778],[75.48777,14.89026],[75.48767,14.89166],[75.49023,14.89129],[75.4912,14.8918],[75.49184,14.89429],[75.49139,14.89605],[75.4888,14.89847],[75.4873,14.90501],[75.48652,14.90549],[75.48457,14.90553],[75.47933,14.90385],[75.46932,14.90498],[75.46816,14.90575],[75.46758,14.90718],[75.46851,14.90991],[75.47013,14.91116],[75.4732,14.91241],[75.47603,14.91146],[75.47814,14.91203],[75.4786,14.91333],[75.48472,14.92043],[75.49059,14.91952],[75.49482,14.92],[75.49801,14.92091],[75.49962,14.92078],[75.50328,14.91922],[75.5052,14.91984],[75.50729,14.92167],[75.50839,14.92181],[75.51002,14.92149],[75.51017,14.92046],[75.50967,14.91921]],[[75.41938,14.82009],[75.41848,14.8187],[75.41143,14.81872],[75.40682,14.81786],[75.40105,14.81915],[75.39495,14.81921],[75.38598,14.81645],[75.37908,14.81495],[75.3689,14.81426],[75.36849,14.81383],[75.36796,14.81411],[75.36644,14.80346],[75.36913,14.80448],[75.37286,14.80505],[75.3733,14.80083],[75.37292,14.8008],[75.37391,14.79469],[75.37579,14.78784],[75.38008,14.76675],[75.38237,14.76633],[75.39381,14.76788],[75.39551,14.76954],[75.39655,14.76976],[75.39738,14.77279],[75.39888,14.77274],[75.40048,14.77369],[75.40145,14.77454],[75.40163,14.77565],[75.40245,14.77594],[75.40317,14.77544],[75.40414,14.77726],[75.40569,14.77778],[75.40934,14.77232],[75.41091,14.76687],[75.41454,14.75849],[75.41601,14.75624],[75.41921,14.75503],[75.42536,14.76467],[75.42871,14.76712],[75.42518,14.77371],[75.4215,14.77915],[75.41938,14.78828],[75.41596,14.78736],[75.41562,14.78657],[75.41381,14.78593],[75.41336,14.78714],[75.41163,14.78675],[75.41192,14.78913],[75.40893,14.79],[75.40892,14.79039],[75.40821,14.79042],[75.4073,14.79127],[75.40701,14.79203],[75.40804,14.79451],[75.40955,14.79547],[75.41222,14.79573],[75.41191,14.79741],[75.41264,14.79776],[75.41685,14.7984],[75.41937,14.80061],[75.41988,14.80242],[75.42556,14.80178],[75.4255,14.8005],[75.42734,14.80095],[75.42804,14.79985],[75.42931,14.79995],[75.42946,14.79697],[75.42913,14.79673],[75.4304,14.79394],[75.44499,14.79572],[75.44304,14.80542],[75.43657,14.80571],[75.43603,14.81169],[75.43466,14.8109],[75.43323,14.81153],[75.43314,14.81982],[75.43266,14.82338],[75.43317,14.82801],[75.43047,14.8285],[75.42521,14.82833],[75.41938,14.82009]]]}},{"type":"Feature","properties":{"unitId":465,"unitName":"Haveri Town PS"},"geometry":{"type":"Polygon","coordinates":[[[75.43314,14.81982],[75.43323,14.81153],[75.43466,14.8109],[75.43603,14.81169],[75.43657,14.80571],[75.44304,14.80542],[75.44499,14.79572],[75.4304,14.79394],[75.42913,14.79673],[75.42946,14.79697],[75.42931,14.79995],[75.42804,14.79985],[75.42734,14.80095],[75.4255,14.8005],[75.42556,14.80178],[75.41988,14.80242],[75.41937,14.80061],[75.41685,14.7984],[75.41264,14.79776],[75.41191,14.79741],[75.41222,14.79573],[75.40955,14.79547],[75.40804,14.79451],[75.40701,14.79203],[75.40821,14.79042],[75.41192,14.78913],[75.41163,14.78675],[75.41336,14.78714],[75.41381,14.78593],[75.41562,14.78657],[75.41596,14.78736],[75.41938,14.78828],[75.4215,14.77915],[75.42518,14.77371],[75.42871,14.76712],[75.42536,14.76467],[75.41921,14.75503],[75.41601,14.75624],[75.41454,14.75849],[75.41091,14.76687],[75.40934,14.77232],[75.40569,14.77778],[75.40414,14.77726],[75.40317,14.77544],[75.40245,14.77594],[75.40163,14.77565],[75.40145,14.77454],[75.40048,14.77369],[75.39888,14.77274],[75.39738,14.77279],[75.39655,14.76976],[75.39551,14.76954],[75.39381,14.76788],[75.38237,14.76633],[75.38008,14.76675],[75.37579,14.78784],[75.37391,14.79469],[75.37292,14.8008],[75.3733,14.80083],[75.37286,14.80505],[75.36913,14.80448],[75.36644,14.80346],[75.36796,14.81411],[75.36849,14.81383],[75.3689,14.81426],[75.37908,14.81495],[75.38598,14.81645],[75.39495,14.81921],[75.40105,14.81915],[75.40682,14.81786],[75.41143,14.81872],[75.41848,14.8187],[75.42521,14.82833],[75.43047,14.8285],[75.43317,14.82801],[75.43266,14.82338],[75.43314,14.81982]]]}},{"type":"Feature","properties":{"unitId":466,"unitName":"Hansabhavi PS"},"geometry":{"type":"Polygon","coordinates":[[[75.4162,14.60727],[75.41707,14.60491],[75.41684,14.59634],[75.41724,14.59133],[75.42034,14.59139],[75.42348,14.58789],[75.42428,14.58849],[75.42439,14.58981],[75.42686,14.58959],[75.42611,14.59142],[75.43052,14.59204],[75.43728,14.59131],[75.43794,14.5942],[75.43728,14.59726],[75.43925,14.60798],[75.44153,14.60759],[75.44358,14.60652],[75.45341,14.60433],[75.45306,14.60225],[75.45391,14.59599],[75.46011,14.58413],[75.47643,14.58306],[75.48156,14.5876],[75.48382,14.59043],[75.48998,14.58741],[75.48871,14.57456],[75.48723,14.57083],[75.48715,14.56883],[75.4857,14.5687],[75.48564,14.56411],[75.48605,14.56211],[75.48879,14.56077],[75.48913,14.5601],[75.49317,14.55755],[75.49549,14.55549],[75.49543,14.55116],[75.497,14.5494],[75.49718,14.54476],[75.49795,14.54479],[75.49814,14.54161],[75.49713,14.53838],[75.49993,14.53643],[75.50144,14.53639],[75.50879,14.53719],[75.51596,14.53886],[75.51645,14.5361],[75.51964,14.53485],[75.52518,14.53002],[75.52579,14.52828],[75.52632,14.52013],[75.525,14.51097],[75.52415,14.51025],[75.51407,14.5096],[75.51353,14.5073],[75.51443,14.50477],[75.51386,14.50334],[75.51335,14.50321],[75.51368,14.50284],[75.51326,14.50243],[75.51385,14.50212],[75.51346,14.50086],[75.50225,14.50051],[75.50108,14.50239],[75.49922,14.50363],[75.49706,14.50447],[75.49256,14.50761],[75.48959,14.50898],[75.48398,14.51451],[75.48017,14.51407],[75.47063,14.51698],[75.46376,14.51659],[75.46135,14.51619],[75.46102,14.51314],[75.45958,14.50858],[75.45928,14.50798],[75.45834,14.50832],[75.45794,14.50671],[75.45697,14.50637],[75.45696,14.5059],[75.4509,14.50372],[75.44833,14.50373],[75.44835,14.50315],[75.44756,14.50302],[75.44665,14.50449],[75.44514,14.50465],[75.44424,14.49853],[75.44253,14.49337],[75.42984,14.50324],[75.42994,14.50521],[75.42709,14.50889],[75.42274,14.51036],[75.42075,14.5117],[75.41609,14.51243],[75.41136,14.51193],[75.40341,14.51319],[75.39953,14.50981],[75.39751,14.50958],[75.39698,14.50895],[75.39294,14.50801],[75.3918,14.50806],[75.38969,14.50668],[75.37147,14.5168],[75.36983,14.51797],[75.36922,14.5192],[75.36561,14.52111],[75.36545,14.52198],[75.36441,14.52259],[75.35763,14.52409],[75.35787,14.52483],[75.35746,14.52566],[75.35693,14.52568],[75.35651,14.52444],[75.35414,14.52456],[75.35041,14.52233],[75.34364,14.52013],[75.3427,14.51893],[75.34135,14.51919],[75.34067,14.51788],[75.34183,14.51556],[75.34168,14.51204],[75.34102,14.51023],[75.34098,14.50747],[75.33986,14.50096],[75.34011,14.50021],[75.33821,14.49756],[75.33649,14.49633],[75.33562,14.49254],[75.33132,14.49364],[75.32879,14.49526],[75.32901,14.49585],[75.3272,14.49723],[75.32642,14.5028],[75.32525,14.50455],[75.3257,14.50622],[75.32456,14.50981],[75.32061,14.51301],[75.31731,14.51334],[75.31056,14.51293],[75.30647,14.51242],[75.30137,14.51076],[75.29506,14.51113],[75.29158,14.51065],[75.29092,14.51128],[75.28702,14.51132],[75.2867,14.5139],[75.2822,14.5141],[75.28291,14.51255],[75.2811,14.5128],[75.2799,14.51218],[75.2802,14.51166],[75.27985,14.51206],[75.27856,14.51195],[75.27814,14.51266],[75.2775,14.51248],[75.27625,14.51051],[75.27403,14.51106],[75.27396,14.51076],[75.2672,14.51433],[75.26888,14.51818],[75.26894,14.52254],[75.26994,14.52536],[75.26891,14.52612],[75.26828,14.52799],[75.27027,14.52749],[75.27305,14.5312],[75.27682,14.53393],[75.27951,14.53503],[75.2805,14.53259],[75.28253,14.53231],[75.28306,14.53167],[75.2847,14.53162],[75.28497,14.52934],[75.28542,14.53008],[75.28663,14.52987],[75.28705,14.53055],[75.28665,14.5311],[75.28783,14.53297],[75.28852,14.53311],[75.28921,14.5326],[75.289,14.53174],[75.28964,14.53144],[75.29064,14.53172],[75.2916,14.53399],[75.29351,14.53426],[75.29317,14.53557],[75.29377,14.53456],[75.29447,14.53476],[75.29447,14.53531],[75.29505,14.53563],[75.29408,14.537],[75.29561,14.53691],[75.29532,14.53809],[75.29616,14.53794],[75.29592,14.53907],[75.29644,14.53932],[75.29579,14.53997],[75.29611,14.5402],[75.29674,14.53944],[75.29763,14.53961],[75.29772,14.54042],[75.2959,14.54177],[75.29572,14.54338],[75.29505,14.54368],[75.29453,14.54302],[75.2937,14.5432],[75.29307,14.54413],[75.29493,14.54435],[75.29524,14.5451],[75.29432,14.54616],[75.29476,14.5468],[75.29448,14.5474],[75.29353,14.5485],[75.29274,14.54791],[75.2913,14.55058],[75.29028,14.55004],[75.29004,14.55032],[75.29108,14.55249],[75.28989,14.55417],[75.28978,14.55622],[75.28897,14.55586],[75.28715,14.55749],[75.28653,14.55951],[75.28502,14.56131],[75.28438,14.5614],[75.28333,14.56065],[75.28231,14.56135],[75.28106,14.56144],[75.27905,14.56368],[75.27635,14.56425],[75.27654,14.5651],[75.2752,14.56596],[75.27391,14.56587],[75.27388,14.56765],[75.27556,14.5675],[75.2757,14.56817],[75.27384,14.56884],[75.27515,14.56996],[75.27031,14.57249],[75.26967,14.57384],[75.26545,14.57852],[75.26579,14.57973],[75.26534,14.5796],[75.26538,14.58087],[75.24942,14.58108],[75.24853,14.58057],[75.24896,14.57986],[75.24696,14.5797],[75.24391,14.57772],[75.24527,14.5667],[75.24413,14.56723],[75.24314,14.5671],[75.24365,14.56417],[75.24325,14.56397],[75.24233,14.56072],[75.24247,14.55878],[75.24178,14.55816],[75.2417,14.55671],[75.24094,14.55534],[75.24006,14.55565],[75.23975,14.55802],[75.23477,14.55572],[75.234,14.55712],[75.22823,14.56125],[75.22917,14.56146],[75.2255,14.56706],[75.22747,14.57347],[75.22819,14.57395],[75.2278,14.57432],[75.22819,14.5754],[75.22935,14.57635],[75.23095,14.5791],[75.22892,14.58013],[75.2294,14.58052],[75.22873,14.58311],[75.22562,14.58444],[75.2253,14.5852],[75.22326,14.58493],[75.22347,14.58757],[75.22282,14.58927],[75.22262,14.59351],[75.22337,14.59386],[75.22346,14.59512],[75.22273,14.59752],[75.22396,14.60456],[75.22295,14.60775],[75.223,14.60893],[75.2261,14.60962],[75.22688,14.60872],[75.22584,14.60716],[75.22651,14.60702],[75.22676,14.60774],[75.2279,14.60813],[75.2277,14.60567],[75.2288,14.60558],[75.22999,14.60409],[75.23005,14.60273],[75.23063,14.60293],[75.23103,14.60248],[75.2309,14.60166],[75.2316,14.60194],[75.23205,14.60394],[75.23573,14.60472],[75.23692,14.60147],[75.24126,14.59989],[75.24411,14.59807],[75.24516,14.59832],[75.24904,14.6009],[75.25355,14.60484],[75.25838,14.60632],[75.25928,14.6059],[75.26108,14.60684],[75.26618,14.60481],[75.26716,14.60292],[75.2683,14.60228],[75.2706,14.59959],[75.27228,14.60076],[75.27338,14.60084],[75.27725,14.59793],[75.27876,14.5959],[75.27949,14.59389],[75.28055,14.5937],[75.28282,14.59707],[75.28606,14.5988],[75.2869,14.59802],[75.28721,14.59829],[75.28811,14.60083],[75.28998,14.60092],[75.29093,14.60029],[75.29458,14.60322],[75.29669,14.60398],[75.29811,14.6053],[75.30316,14.60402],[75.30454,14.60487],[75.30598,14.60475],[75.30826,14.60332],[75.31154,14.60283],[75.32056,14.60514],[75.32022,14.59862],[75.32204,14.60028],[75.32515,14.59714],[75.32702,14.59344],[75.32861,14.59217],[75.33371,14.58962],[75.33839,14.58916],[75.34358,14.58984],[75.34363,14.58006],[75.35068,14.57867],[75.35508,14.57845],[75.35825,14.57752],[75.36651,14.57744],[75.3734,14.57508],[75.37407,14.57994],[75.37179,14.58779],[75.3713,14.5926],[75.37026,14.59604],[75.37065,14.59927],[75.37042,14.60338],[75.37162,14.6074],[75.37634,14.60765],[75.37973,14.6086],[75.38119,14.60763],[75.38192,14.60796],[75.38306,14.60726],[75.38446,14.60781],[75.38566,14.60657],[75.38677,14.60649],[75.39132,14.60754],[75.40981,14.60957],[75.41309,14.60943],[75.4158,14.60844],[75.4162,14.60727]]]}},{"type":"Feature","properties":{"unitId":467,"unitName":"Hirekerur PS"},"geometry":{"type":"Polygon","coordinates":[[[75.35787,14.52483],[75.35763,14.52409],[75.36441,14.52259],[75.36545,14.52198],[75.36561,14.52111],[75.36922,14.5192],[75.36983,14.51797],[75.37147,14.5168],[75.38969,14.50668],[75.3918,14.50806],[75.39294,14.50801],[75.39698,14.50895],[75.39751,14.50958],[75.39953,14.50981],[75.40341,14.51319],[75.41136,14.51193],[75.41609,14.51243],[75.42075,14.5117],[75.42274,14.51036],[75.42709,14.50889],[75.42994,14.50521],[75.42984,14.50324],[75.44253,14.49337],[75.44424,14.49853],[75.44514,14.50465],[75.44665,14.50449],[75.44756,14.50302],[75.44835,14.50315],[75.44833,14.50373],[75.4509,14.50372],[75.45696,14.5059],[75.45697,14.50637],[75.45794,14.50671],[75.45834,14.50832],[75.45928,14.50798],[75.45958,14.50858],[75.46102,14.51314],[75.46135,14.51619],[75.47063,14.51698],[75.48039,14.51409],[75.47799,14.50576],[75.47729,14.50532],[75.47781,14.50496],[75.4779,14.5039],[75.47667,14.50229],[75.4766,14.50078],[75.47441,14.49499],[75.47269,14.48446],[75.47092,14.48095],[75.47305,14.47588],[75.47797,14.47126],[75.48056,14.47008],[75.47345,14.45777],[75.47227,14.45292],[75.47124,14.44525],[75.47601,14.44302],[75.47711,14.4369],[75.4785,14.4329],[75.47887,14.42229],[75.47768,14.41726],[75.4837,14.41372],[75.48598,14.41549],[75.48734,14.41289],[75.48754,14.40839],[75.48681,14.40634],[75.48518,14.40574],[75.48406,14.40459],[75.48244,14.40176],[75.47916,14.40006],[75.4781,14.3988],[75.47574,14.39746],[75.47508,14.39607],[75.47259,14.39573],[75.47208,14.39448],[75.4849,14.39473],[75.48519,14.38462],[75.49755,14.38118],[75.49607,14.37518],[75.49298,14.37592],[75.49018,14.37089],[75.48739,14.36742],[75.47963,14.36639],[75.47903,14.36533],[75.47848,14.36555],[75.47794,14.36486],[75.47675,14.36582],[75.47174,14.36723],[75.46911,14.36867],[75.47079,14.36492],[75.47068,14.36246],[75.46793,14.35474],[75.46819,14.35025],[75.46736,14.3445],[75.4679,14.34282],[75.46755,14.34111],[75.46334,14.34102],[75.46366,14.32826],[75.46334,14.32588],[75.45581,14.32783],[75.45506,14.32969],[75.45094,14.33285],[75.45083,14.33235],[75.44688,14.33591],[75.44331,14.33755],[75.44193,14.33996],[75.43517,14.34254],[75.43225,14.3456],[75.43227,14.34688],[75.42962,14.34903],[75.42712,14.34952],[75.42341,14.35099],[75.42329,14.35148],[75.41923,14.35249],[75.4134,14.35332],[75.41091,14.35246],[75.40917,14.3527],[75.40647,14.35688],[75.40339,14.35845],[75.39864,14.36463],[75.39414,14.36737],[75.39081,14.3664],[75.38741,14.36756],[75.38643,14.36858],[75.38371,14.36963],[75.38151,14.36863],[75.37745,14.37022],[75.3747,14.37035],[75.37003,14.37298],[75.36333,14.38093],[75.34936,14.38881],[75.35461,14.40065],[75.35625,14.4061],[75.35901,14.40911],[75.36251,14.41074],[75.36529,14.411],[75.37762,14.40748],[75.38046,14.41507],[75.38032,14.41929],[75.3814,14.42177],[75.3822,14.42975],[75.38225,14.43371],[75.38034,14.43455],[75.378,14.43438],[75.37707,14.43519],[75.37525,14.4357],[75.3679,14.43955],[75.3659,14.44004],[75.36611,14.44118],[75.36478,14.44158],[75.3613,14.44029],[75.35994,14.43834],[75.35884,14.43791],[75.35782,14.43472],[75.35876,14.43164],[75.35504,14.42877],[75.35535,14.4319],[75.3448,14.43396],[75.34248,14.43558],[75.34029,14.43641],[75.3406,14.43754],[75.33912,14.43743],[75.34002,14.43908],[75.34197,14.44013],[75.3425,14.44294],[75.3426,14.45046],[75.34615,14.45607],[75.34704,14.45669],[75.34694,14.45853],[75.34558,14.46169],[75.34566,14.46258],[75.34519,14.4629],[75.34466,14.46251],[75.34448,14.46338],[75.34334,14.46361],[75.3429,14.46401],[75.34321,14.46424],[75.34112,14.46547],[75.34033,14.46857],[75.34105,14.47565],[75.34389,14.4795],[75.34508,14.48258],[75.34602,14.48379],[75.34636,14.48561],[75.33562,14.49254],[75.33649,14.49633],[75.33821,14.49756],[75.34011,14.50021],[75.33986,14.50096],[75.34098,14.50747],[75.34102,14.51023],[75.34168,14.51204],[75.34183,14.51556],[75.34067,14.51788],[75.34135,14.51919],[75.3427,14.51893],[75.34364,14.52013],[75.35041,14.52233],[75.35414,14.52456],[75.35651,14.52444],[75.35693,14.52568],[75.35746,14.52566],[75.35787,14.52483]]]}},{"type":"Feature","properties":{"unitId":468,"unitName":"Rattihalli PS"},"geometry":{"type":"Polygon","coordinates":[[[75.54205,14.51004],[75.54483,14.50562],[75.54927,14.50427],[75.55184,14.50204],[75.55335,14.49957],[75.5511,14.49621],[75.55158,14.49523],[75.55105,14.49451],[75.55158,14.49327],[75.55058,14.49286],[75.54938,14.49328],[75.54795,14.49253],[75.5491,14.48561],[75.54926,14.47865],[75.55265,14.47771],[75.56446,14.47785],[75.5661,14.4679],[75.56607,14.46406],[75.56689,14.46343],[75.56663,14.46257],[75.56552,14.4625],[75.56546,14.45962],[75.57005,14.45712],[75.57013,14.45642],[75.56905,14.45519],[75.56959,14.45296],[75.57336,14.45365],[75.57576,14.45679],[75.5758,14.45769],[75.57665,14.45823],[75.57704,14.45721],[75.58746,14.45518],[75.6048,14.45485],[75.6046,14.45029],[75.60327,14.4427],[75.60319,14.43801],[75.59784,14.43771],[75.59706,14.43095],[75.59699,14.42497],[75.59517,14.4154],[75.60269,14.41243],[75.60937,14.41135],[75.61009,14.4029],[75.61755,14.40365],[75.62223,14.40359],[75.62742,14.40444],[75.62733,14.40758],[75.6386,14.40573],[75.63762,14.39901],[75.63469,14.3883],[75.63215,14.38531],[75.6309,14.38591],[75.63114,14.38645],[75.63074,14.38631],[75.629,14.38199],[75.63388,14.37932],[75.63209,14.37633],[75.6299,14.37407],[75.62863,14.37018],[75.62921,14.36824],[75.62405,14.36943],[75.62325,14.3662],[75.62357,14.36188],[75.62282,14.35973],[75.62391,14.35967],[75.62319,14.3563],[75.6224,14.34595],[75.62321,14.34031],[75.62801,14.32903],[75.63144,14.32628],[75.63318,14.32398],[75.63387,14.32131],[75.63308,14.31486],[75.61094,14.31579],[75.61005,14.31347],[75.60975,14.30928],[75.60916,14.30736],[75.60607,14.29856],[75.60358,14.29297],[75.60038,14.29256],[75.59838,14.28984],[75.58993,14.2862],[75.58739,14.28881],[75.58769,14.28797],[75.58316,14.2796],[75.58319,14.27815],[75.58059,14.2773],[75.5783,14.27734],[75.57449,14.27636],[75.56535,14.27657],[75.56564,14.27712],[75.56097,14.27747],[75.55705,14.27404],[75.54925,14.27378],[75.5466,14.27557],[75.54004,14.27741],[75.53514,14.27754],[75.53363,14.29037],[75.52787,14.29082],[75.52177,14.29388],[75.52027,14.29603],[75.52088,14.29858],[75.51818,14.29941],[75.51852,14.29994],[75.51776,14.30142],[75.51673,14.30149],[75.51455,14.30291],[75.51488,14.30306],[75.50998,14.30483],[75.50819,14.30621],[75.50387,14.30774],[75.50537,14.31659],[75.50155,14.32597],[75.50046,14.34129],[75.501,14.34377],[75.49969,14.34368],[75.48941,14.34769],[75.48882,14.33919],[75.48781,14.3392],[75.48152,14.33993],[75.48137,14.34257],[75.48044,14.34518],[75.47666,14.34516],[75.47696,14.34096],[75.48017,14.33062],[75.47971,14.3261],[75.47733,14.31782],[75.4703,14.32295],[75.46334,14.32588],[75.46366,14.32826],[75.46334,14.34102],[75.46755,14.34111],[75.4679,14.34282],[75.46736,14.3445],[75.46819,14.35025],[75.46793,14.35474],[75.47068,14.36246],[75.47079,14.36492],[75.46911,14.36867],[75.47174,14.36723],[75.47675,14.36582],[75.47794,14.36486],[75.47848,14.36555],[75.47903,14.36533],[75.47963,14.36639],[75.48739,14.36742],[75.49018,14.37089],[75.49298,14.37592],[75.49607,14.37518],[75.49755,14.38118],[75.48519,14.38462],[75.4849,14.39473],[75.47208,14.39448],[75.47259,14.39573],[75.47508,14.39607],[75.47574,14.39746],[75.4781,14.3988],[75.47916,14.40006],[75.48244,14.40176],[75.48406,14.40459],[75.48518,14.40574],[75.48681,14.40634],[75.48754,14.40839],[75.48734,14.41289],[75.48598,14.41549],[75.4837,14.41372],[75.47768,14.41726],[75.47887,14.42229],[75.4785,14.4329],[75.47711,14.4369],[75.47601,14.44302],[75.47124,14.44525],[75.47227,14.45292],[75.47345,14.45777],[75.48056,14.47008],[75.47797,14.47126],[75.47305,14.47588],[75.47092,14.48095],[75.47269,14.48446],[75.47441,14.49499],[75.4766,14.50078],[75.47667,14.50229],[75.4779,14.5039],[75.47781,14.50496],[75.47729,14.50532],[75.47799,14.50576],[75.48039,14.51409],[75.48398,14.51451],[75.48959,14.50898],[75.49256,14.50761],[75.49706,14.50447],[75.49922,14.50363],[75.50108,14.50239],[75.50225,14.50051],[75.51346,14.50086],[75.51385,14.50212],[75.51326,14.50243],[75.51368,14.50284],[75.51335,14.50321],[75.51386,14.50334],[75.51443,14.50477],[75.51353,14.5073],[75.51407,14.5096],[75.52415,14.51025],[75.525,14.51097],[75.52636,14.52114],[75.53498,14.51832],[75.53861,14.51646],[75.53937,14.51436],[75.54205,14.51004]]]}},{"type":"Feature","properties":{"unitId":469,"unitName":"Halageri PS"},"geometry":{"type":"Polygon","coordinates":[[[75.55747,14.61743],[75.55884,14.61729],[75.55839,14.61162],[75.55869,14.60597],[75.57894,14.60763],[75.5908,14.60749],[75.59109,14.60232],[75.59441,14.60238],[75.59461,14.60102],[75.59783,14.60148],[75.59802,14.59781],[75.59721,14.59182],[75.6055,14.58988],[75.60587,14.5918],[75.61234,14.5907],[75.61886,14.59107],[75.62021,14.59075],[75.62137,14.59025],[75.62013,14.5859],[75.62665,14.58526],[75.62598,14.58291],[75.62657,14.58268],[75.6404,14.58081],[75.64027,14.57894],[75.64192,14.57895],[75.64235,14.57953],[75.64891,14.58203],[75.64773,14.58464],[75.64771,14.58574],[75.64673,14.58721],[75.65157,14.58873],[75.65099,14.59121],[75.651,14.59507],[75.65855,14.59554],[75.66864,14.59387],[75.67034,14.59722],[75.67629,14.59671],[75.68126,14.59197],[75.69286,14.58648],[75.69136,14.58243],[75.70094,14.57112],[75.702,14.56857],[75.70051,14.54435],[75.7168,14.54301],[75.71588,14.53729],[75.71617,14.52857],[75.71993,14.52589],[75.72035,14.52377],[75.72389,14.52363],[75.72424,14.52291],[75.72574,14.52208],[75.73204,14.5201],[75.73161,14.51179],[75.73182,14.4951],[75.73198,14.49422],[75.73337,14.4929],[75.72824,14.48456],[75.72294,14.4776],[75.72061,14.47567],[75.71478,14.47289],[75.71115,14.47318],[75.70846,14.47502],[75.70163,14.49114],[75.69942,14.49277],[75.69735,14.49322],[75.69773,14.49435],[75.69285,14.49415],[75.68879,14.49331],[75.68641,14.49217],[75.68455,14.4904],[75.68602,14.48937],[75.685,14.48568],[75.68232,14.48435],[75.68593,14.48303],[75.68245,14.4785],[75.68078,14.47372],[75.67887,14.47093],[75.6792,14.47028],[75.6766,14.46683],[75.67693,14.46666],[75.67567,14.46402],[75.67446,14.46244],[75.66967,14.45677],[75.66883,14.45643],[75.66359,14.45095],[75.66194,14.45156],[75.66031,14.45333],[75.66058,14.45354],[75.65988,14.45543],[75.66108,14.45662],[75.66102,14.45774],[75.66141,14.45786],[75.66169,14.45933],[75.66092,14.46056],[75.65935,14.45957],[75.65827,14.45945],[75.65724,14.46108],[75.65361,14.46352],[75.63661,14.46663],[75.6319,14.45176],[75.63059,14.44593],[75.63187,14.44528],[75.63303,14.44324],[75.63542,14.44284],[75.6353,14.44196],[75.6375,14.44172],[75.6369,14.43989],[75.63541,14.43787],[75.63579,14.43605],[75.63421,14.43293],[75.64392,14.43112],[75.64105,14.42151],[75.64048,14.41222],[75.6386,14.40573],[75.62733,14.40758],[75.62742,14.40444],[75.62223,14.40359],[75.61755,14.40365],[75.61009,14.4029],[75.60937,14.41135],[75.60269,14.41243],[75.59517,14.4154],[75.59699,14.42497],[75.59706,14.43095],[75.59784,14.43771],[75.60319,14.43801],[75.60327,14.4427],[75.6046,14.45029],[75.6048,14.45485],[75.58746,14.45518],[75.57704,14.45721],[75.57665,14.45823],[75.5758,14.45769],[75.57576,14.45679],[75.57336,14.45365],[75.56959,14.45296],[75.56905,14.45519],[75.57013,14.45642],[75.57005,14.45712],[75.56546,14.45962],[75.56552,14.4625],[75.56663,14.46257],[75.56689,14.46343],[75.56607,14.46406],[75.5661,14.4679],[75.56446,14.47785],[75.55265,14.47771],[75.54926,14.47865],[75.5491,14.48561],[75.54795,14.49253],[75.54938,14.49328],[75.55058,14.49286],[75.55164,14.49336],[75.55105,14.49451],[75.55158,14.49523],[75.5511,14.49621],[75.55335,14.49957],[75.55184,14.50204],[75.54927,14.50427],[75.54483,14.50562],[75.53937,14.51436],[75.53861,14.51646],[75.53498,14.51832],[75.52636,14.52114],[75.52633,14.52425],[75.52518,14.53002],[75.51964,14.53485],[75.51645,14.5361],[75.51596,14.53886],[75.50879,14.53719],[75.50144,14.53639],[75.49993,14.53643],[75.49713,14.53838],[75.49814,14.54161],[75.49795,14.54479],[75.49718,14.54476],[75.497,14.5494],[75.49543,14.55116],[75.49549,14.55549],[75.49317,14.55755],[75.48913,14.5601],[75.48879,14.56077],[75.48605,14.56211],[75.48564,14.56411],[75.4857,14.5687],[75.48715,14.56883],[75.48723,14.57083],[75.48871,14.57456],[75.48998,14.58741],[75.50059,14.58759],[75.51273,14.60308],[75.51617,14.60559],[75.51656,14.60772],[75.51774,14.60777],[75.51913,14.61744],[75.51993,14.61772],[75.52134,14.61719],[75.52409,14.61829],[75.52547,14.6168],[75.52553,14.61579],[75.52632,14.61535],[75.52813,14.61626],[75.52868,14.61862],[75.52944,14.61916],[75.52979,14.61741],[75.536,14.62008],[75.53895,14.6202],[75.54154,14.61997],[75.54631,14.61864],[75.55747,14.61743]]]}},{"type":"Feature","properties":{"unitId":470,"unitName":"Kumarapattanam PS"},"geometry":{"type":"Polygon","coordinates":[[[75.75492,14.6001],[75.7557,14.60003],[75.75618,14.60084],[75.75989,14.59054],[75.76662,14.58337],[75.76756,14.58077],[75.77145,14.57666],[75.77467,14.57343],[75.78255,14.57172],[75.78611,14.57152],[75.78466,14.56783],[75.78963,14.56409],[75.79792,14.56433],[75.80642,14.56625],[75.81974,14.56816],[75.8197,14.56567],[75.81871,14.56271],[75.81268,14.55498],[75.80813,14.55051],[75.80091,14.54475],[75.79982,14.54265],[75.79816,14.53694],[75.79728,14.53144],[75.79933,14.51227],[75.79647,14.51049],[75.79294,14.51042],[75.78876,14.51172],[75.78307,14.51566],[75.77511,14.51812],[75.77279,14.51849],[75.76537,14.51767],[75.7622,14.5166],[75.76035,14.51534],[75.75778,14.51472],[75.75064,14.5106],[75.74845,14.50751],[75.73911,14.49826],[75.73501,14.49502],[75.73337,14.4929],[75.73198,14.49422],[75.73182,14.4951],[75.73161,14.51179],[75.73204,14.5201],[75.72574,14.52208],[75.72424,14.52291],[75.72389,14.52363],[75.72035,14.52377],[75.71993,14.52589],[75.71617,14.52857],[75.71588,14.53729],[75.71645,14.54138],[75.7168,14.54301],[75.72034,14.54302],[75.7259,14.54389],[75.72873,14.54338],[75.7284,14.5462],[75.7313,14.54725],[75.73132,14.55269],[75.73321,14.56511],[75.73312,14.57143],[75.73595,14.59514],[75.74287,14.59993],[75.74735,14.60136],[75.75492,14.6001]]]}},{"type":"Feature","properties":{"unitId":471,"unitName":"Ranebennur Rural PS"},"geometry":{"type":"Polygon","coordinates":[[[75.68,14.7968],[75.68712,14.79054],[75.69183,14.78497],[75.69439,14.78362],[75.6997,14.7822],[75.7128,14.78087],[75.71542,14.77995],[75.72106,14.77576],[75.72266,14.77407],[75.72361,14.7708],[75.72203,14.75935],[75.72199,14.75434],[75.71988,14.7499],[75.71621,14.7465],[75.71433,14.74249],[75.70408,14.73201],[75.70398,14.72851],[75.70679,14.72495],[75.7085,14.72372],[75.71445,14.72173],[75.71884,14.72207],[75.72819,14.72907],[75.73074,14.72949],[75.73706,14.73201],[75.74056,14.73274],[75.74973,14.73791],[75.75143,14.73783],[75.75654,14.73895],[75.76009,14.73771],[75.76314,14.73318],[75.76441,14.72999],[75.76452,14.72326],[75.76397,14.72161],[75.76067,14.71883],[75.75676,14.71699],[75.75362,14.71279],[75.74775,14.70737],[75.74143,14.70004],[75.73905,14.69414],[75.73894,14.69071],[75.74169,14.68464],[75.75027,14.67995],[75.75377,14.67869],[75.75452,14.67939],[75.75658,14.67902],[75.75841,14.67704],[75.76327,14.67527],[75.77225,14.6754],[75.77648,14.67628],[75.78028,14.67877],[75.78191,14.68077],[75.78608,14.68082],[75.78909,14.6827],[75.79593,14.68319],[75.79888,14.68192],[75.80057,14.67797],[75.79899,14.67114],[75.79892,14.66815],[75.79944,14.66658],[75.80148,14.66334],[75.80854,14.65698],[75.80669,14.61951],[75.80948,14.61901],[75.80589,14.61175],[75.80541,14.60532],[75.80422,14.60151],[75.80442,14.59906],[75.80602,14.59378],[75.81044,14.58826],[75.81593,14.57622],[75.81887,14.57219],[75.81974,14.56816],[75.80642,14.56625],[75.79792,14.56433],[75.78963,14.56409],[75.78466,14.56783],[75.78611,14.57152],[75.78255,14.57172],[75.77467,14.57343],[75.76756,14.58077],[75.76662,14.58337],[75.75989,14.59054],[75.75618,14.60084],[75.7557,14.60003],[75.74735,14.60136],[75.74287,14.59993],[75.73595,14.59514],[75.73312,14.57143],[75.73321,14.56511],[75.73132,14.55269],[75.7313,14.54725],[75.7284,14.5462],[75.72873,14.54338],[75.7259,14.54389],[75.72034,14.54302],[75.7168,14.54301],[75.70051,14.54435],[75.702,14.56857],[75.70094,14.57112],[75.69136,14.58243],[75.69286,14.58648],[75.68126,14.59197],[75.67629,14.59671],[75.66995,14.59725],[75.67058,14.60412],[75.67392,14.61308],[75.67716,14.61525],[75.6787,14.62258],[75.68124,14.63012],[75.68035,14.63283],[75.67925,14.63364],[75.67883,14.63461],[75.67815,14.63834],[75.67601,14.64127],[75.67586,14.64334],[75.67654,14.64465],[75.67942,14.6467],[75.67952,14.64719],[75.67331,14.64993],[75.66211,14.6495],[75.63797,14.6464],[75.63601,14.6458],[75.63519,14.64436],[75.63331,14.64487],[75.63121,14.64443],[75.63116,14.64365],[75.62661,14.64456],[75.623,14.64457],[75.62225,14.64649],[75.61009,14.65132],[75.60736,14.63859],[75.60386,14.6357],[75.60169,14.63228],[75.60105,14.63242],[75.60122,14.62536],[75.60031,14.62013],[75.59723,14.60895],[75.59508,14.60766],[75.58906,14.60734],[75.57894,14.60763],[75.55869,14.60597],[75.55839,14.61162],[75.55884,14.61729],[75.54631,14.61864],[75.54154,14.61997],[75.53895,14.6202],[75.536,14.62008],[75.53309,14.61881],[75.53253,14.6227],[75.53248,14.63885],[75.53548,14.66295],[75.53001,14.66544],[75.5227,14.67518],[75.52015,14.6751],[75.51608,14.68013],[75.51489,14.68312],[75.51536,14.684],[75.5192,14.6851],[75.5215,14.68418],[75.52557,14.68482],[75.53122,14.686],[75.53597,14.68759],[75.54419,14.6889],[75.54751,14.70568],[75.55005,14.70524],[75.55161,14.70685],[75.55138,14.70744],[75.56511,14.70579],[75.57241,14.70186],[75.57633,14.7008],[75.58196,14.70252],[75.58988,14.70004],[75.59953,14.69812],[75.60084,14.69813],[75.60236,14.70071],[75.60454,14.70034],[75.60574,14.71151],[75.60484,14.7131],[75.60423,14.71607],[75.59078,14.73405],[75.58581,14.73465],[75.58223,14.7376],[75.58022,14.74001],[75.57926,14.74045],[75.57559,14.74473],[75.57465,14.74618],[75.57411,14.74984],[75.56632,14.7641],[75.5718,14.76423],[75.57367,14.76542],[75.5754,14.76975],[75.58607,14.76993],[75.59494,14.76756],[75.60188,14.76636],[75.60871,14.76648],[75.60873,14.77042],[75.60983,14.77044],[75.60941,14.78331],[75.61326,14.79002],[75.61321,14.79259],[75.62069,14.79289],[75.62802,14.79409],[75.64411,14.79365],[75.64587,14.79413],[75.64801,14.78744],[75.65151,14.78439],[75.65352,14.78613],[75.65325,14.78788],[75.65368,14.78886],[75.65782,14.79011],[75.6609,14.79172],[75.66046,14.79366],[75.66346,14.7952],[75.65922,14.79501],[75.65895,14.79675],[75.66153,14.79672],[75.66128,14.79983],[75.66302,14.80002],[75.66533,14.80107],[75.66873,14.799],[75.67718,14.79842],[75.67829,14.79815],[75.68,14.7968]]]}},{"type":"Feature","properties":{"unitId":472,"unitName":"Ranebennur Town PS"},"geometry":{"type":"Polygon","coordinates":[[[75.62917,14.64385],[75.63116,14.64365],[75.63121,14.64443],[75.63386,14.64494],[75.63519,14.64436],[75.63601,14.6458],[75.63797,14.6464],[75.66211,14.6495],[75.67331,14.64993],[75.67952,14.64719],[75.67942,14.6467],[75.67654,14.64465],[75.67586,14.64334],[75.67601,14.64127],[75.67815,14.63834],[75.67883,14.63461],[75.67925,14.63364],[75.68035,14.63283],[75.68124,14.63012],[75.6787,14.62258],[75.67716,14.61525],[75.67392,14.61308],[75.67058,14.60412],[75.66995,14.59725],[75.67034,14.59722],[75.66864,14.59387],[75.65855,14.59554],[75.651,14.59507],[75.65099,14.59121],[75.65157,14.58873],[75.64673,14.58721],[75.64771,14.58574],[75.64773,14.58464],[75.64891,14.58203],[75.64235,14.57953],[75.64192,14.57895],[75.64027,14.57894],[75.6404,14.58081],[75.62598,14.58291],[75.62665,14.58526],[75.62013,14.5859],[75.62137,14.59025],[75.62021,14.59075],[75.61886,14.59107],[75.61234,14.5907],[75.60587,14.5918],[75.6055,14.58988],[75.59721,14.59182],[75.59802,14.59781],[75.59783,14.60148],[75.59461,14.60102],[75.59441,14.60238],[75.59109,14.60232],[75.5908,14.60749],[75.59508,14.60766],[75.59723,14.60895],[75.60103,14.62332],[75.60105,14.63242],[75.60169,14.63228],[75.60386,14.6357],[75.60736,14.63859],[75.61009,14.65132],[75.62225,14.64649],[75.623,14.64457],[75.62661,14.64456],[75.62917,14.64385]]]}},{"type":"Feature","properties":{"unitId":473,"unitName":"Adur PS"},"geometry":{"type":"Polygon","coordinates":[[[75.30046,14.85699],[75.30148,14.85057],[75.30258,14.84921],[75.30338,14.84555],[75.30802,14.84344],[75.31013,14.84154],[75.31032,14.8407],[75.30909,14.83519],[75.30961,14.83218],[75.30913,14.8301],[75.30439,14.82971],[75.30259,14.82699],[75.29861,14.8246],[75.29834,14.82256],[75.29752,14.82129],[75.29791,14.81906],[75.30305,14.81592],[75.3048,14.81418],[75.30518,14.8129],[75.30118,14.80142],[75.30118,14.7983],[75.29832,14.79467],[75.29769,14.79449],[75.29442,14.7955],[75.29346,14.79491],[75.29305,14.79393],[75.29369,14.78968],[75.29578,14.78538],[75.29534,14.78401],[75.29614,14.78232],[75.2962,14.77882],[75.29562,14.77622],[75.29515,14.77561],[75.29386,14.77523],[75.28889,14.77573],[75.2868,14.7755],[75.27992,14.77313],[75.27942,14.77222],[75.27862,14.76467],[75.27767,14.76203],[75.2768,14.76068],[75.2731,14.75748],[75.27269,14.75596],[75.27317,14.75493],[75.27226,14.75305],[75.27831,14.75197],[75.2782,14.75111],[75.27906,14.75098],[75.27919,14.75011],[75.28305,14.74658],[75.28294,14.73937],[75.28253,14.73934],[75.28239,14.73847],[75.28308,14.73523],[75.28417,14.73494],[75.28599,14.73557],[75.28887,14.73544],[75.29343,14.73435],[75.29924,14.73196],[75.30478,14.73155],[75.30681,14.72999],[75.31344,14.72641],[75.31419,14.7254],[75.3142,14.72304],[75.31893,14.72156],[75.32245,14.71981],[75.32545,14.71676],[75.32846,14.71475],[75.33059,14.70999],[75.33369,14.70802],[75.33527,14.70622],[75.33504,14.70288],[75.33576,14.69738],[75.33442,14.69509],[75.33298,14.69369],[75.33082,14.68842],[75.33008,14.68758],[75.32948,14.68535],[75.32501,14.6803],[75.32498,14.67492],[75.32263,14.67496],[75.31838,14.66971],[75.31581,14.66562],[75.31447,14.6663],[75.31025,14.66673],[75.29771,14.66541],[75.29376,14.66456],[75.29111,14.66284],[75.29032,14.65947],[75.29093,14.6581],[75.28842,14.65227],[75.28392,14.65117],[75.28348,14.65189],[75.28026,14.65297],[75.27899,14.65242],[75.27827,14.65262],[75.27476,14.6504],[75.27343,14.65074],[75.27209,14.65026],[75.27134,14.6509],[75.26926,14.65039],[75.26667,14.65052],[75.26621,14.64957],[75.26548,14.64978],[75.265,14.64851],[75.26406,14.64771],[75.26346,14.64809],[75.26307,14.64778],[75.26262,14.64859],[75.26,14.64819],[75.25942,14.64773],[75.25961,14.64628],[75.2591,14.64587],[75.26002,14.64414],[75.25862,14.64489],[75.25857,14.64452],[75.25785,14.64465],[75.25788,14.64404],[75.25593,14.6441],[75.25488,14.6411],[75.25181,14.64251],[75.25309,14.6387],[75.25637,14.63342],[75.25707,14.63143],[75.25106,14.63037],[75.24912,14.63088],[75.24763,14.62933],[75.25183,14.62287],[75.25097,14.61872],[75.25176,14.61179],[75.25838,14.60624],[75.25355,14.60484],[75.24904,14.6009],[75.24516,14.59832],[75.24411,14.59807],[75.24126,14.59989],[75.23692,14.60147],[75.23573,14.60472],[75.23205,14.60394],[75.2316,14.60194],[75.2309,14.60166],[75.23103,14.60248],[75.23063,14.60293],[75.23005,14.60273],[75.22999,14.60409],[75.2288,14.60558],[75.2277,14.60567],[75.2279,14.60813],[75.22599,14.60705],[75.22613,14.60797],[75.22688,14.60872],[75.22625,14.60962],[75.223,14.60893],[75.22295,14.60775],[75.22396,14.60456],[75.22273,14.59752],[75.22346,14.59512],[75.22337,14.59386],[75.22262,14.59351],[75.22282,14.58927],[75.22347,14.58757],[75.22326,14.5849],[75.22088,14.58481],[75.22099,14.58396],[75.21991,14.58236],[75.22036,14.58057],[75.21899,14.57962],[75.21901,14.57914],[75.21781,14.57871],[75.21699,14.57746],[75.21595,14.57739],[75.21441,14.57626],[75.21359,14.57682],[75.21216,14.57614],[75.21109,14.57496],[75.21045,14.57253],[75.20742,14.57178],[75.20593,14.57241],[75.20457,14.57231],[75.20464,14.57288],[75.19901,14.57597],[75.19719,14.57747],[75.19781,14.58249],[75.18987,14.58495],[75.18394,14.58587],[75.18121,14.59784],[75.18536,14.59922],[75.18536,14.59986],[75.19338,14.59929],[75.19498,14.59764],[75.19849,14.59663],[75.20527,14.5975],[75.20572,14.60815],[75.20754,14.61457],[75.20841,14.6164],[75.21002,14.61797],[75.21053,14.62063],[75.2106,14.62333],[75.21028,14.6235],[75.21069,14.62351],[75.20945,14.62656],[75.21031,14.62776],[75.20948,14.62829],[75.20801,14.62633],[75.20702,14.62748],[75.2083,14.6287],[75.20842,14.62936],[75.20713,14.62934],[75.20672,14.63072],[75.2082,14.63124],[75.20849,14.6321],[75.20805,14.63318],[75.20867,14.63353],[75.20731,14.63423],[75.20652,14.63434],[75.20604,14.63364],[75.2053,14.63405],[75.20577,14.63562],[75.2067,14.63597],[75.20779,14.63555],[75.20771,14.63652],[75.20713,14.63696],[75.2064,14.63672],[75.2054,14.63804],[75.20458,14.6381],[75.20384,14.6371],[75.20265,14.63766],[75.20162,14.63861],[75.20191,14.63904],[75.20106,14.63939],[75.20015,14.63568],[75.20062,14.63403],[75.20309,14.63046],[75.20243,14.62775],[75.20015,14.62625],[75.1966,14.62278],[75.19585,14.6228],[75.19448,14.62404],[75.1881,14.62308],[75.18458,14.62346],[75.18215,14.62464],[75.18071,14.627],[75.17569,14.63098],[75.16948,14.63462],[75.16793,14.63339],[75.16463,14.63255],[75.16426,14.63194],[75.16385,14.62955],[75.16295,14.6277],[75.165,14.62682],[75.16535,14.62484],[75.16489,14.62239],[75.1637,14.61929],[75.16121,14.61703],[75.15822,14.61751],[75.15616,14.6228],[75.15417,14.62471],[75.15336,14.62623],[75.15079,14.62606],[75.14849,14.62387],[75.14694,14.62149],[75.14335,14.62042],[75.14334,14.62354],[75.143,14.62364],[75.14225,14.6292],[75.14273,14.6305],[75.14205,14.63261],[75.14242,14.63377],[75.14178,14.63578],[75.14177,14.63699],[75.14232,14.63719],[75.14272,14.63886],[75.14258,14.64072],[75.14455,14.64045],[75.14613,14.64417],[75.14662,14.64755],[75.14588,14.64852],[75.14613,14.65154],[75.14814,14.65278],[75.15191,14.65203],[75.15468,14.65844],[75.15521,14.65845],[75.15784,14.6669],[75.16134,14.66801],[75.16357,14.66796],[75.16808,14.66626],[75.17472,14.66706],[75.1756,14.67139],[75.17637,14.67266],[75.17686,14.68254],[75.18,14.68476],[75.1821,14.68511],[75.1822,14.68659],[75.18297,14.68788],[75.18392,14.68841],[75.18445,14.6881],[75.1847,14.6856],[75.18576,14.68468],[75.18587,14.68507],[75.18867,14.6849],[75.19083,14.68568],[75.19583,14.68539],[75.1959,14.68491],[75.19703,14.68482],[75.20123,14.68519],[75.20215,14.68453],[75.20509,14.68434],[75.20587,14.6861],[75.20532,14.68899],[75.20619,14.69069],[75.2067,14.69396],[75.20669,14.69797],[75.2061,14.6986],[75.20452,14.70307],[75.20384,14.70428],[75.20065,14.70592],[75.19766,14.70677],[75.19507,14.7069],[75.19719,14.71355],[75.19862,14.71577],[75.19431,14.71603],[75.19231,14.71718],[75.18029,14.71979],[75.18001,14.7212],[75.18054,14.722],[75.18042,14.72304],[75.18105,14.72302],[75.18116,14.72622],[75.18052,14.72869],[75.17987,14.72856],[75.17933,14.73072],[75.1794,14.73499],[75.1773,14.74009],[75.18003,14.75054],[75.17847,14.7549],[75.17777,14.75953],[75.17618,14.76066],[75.17527,14.76317],[75.17604,14.76551],[75.17574,14.76614],[75.17686,14.76846],[75.17737,14.76854],[75.17694,14.77049],[75.17791,14.77306],[75.17795,14.77551],[75.17555,14.77834],[75.17443,14.77842],[75.17047,14.7805],[75.16982,14.78404],[75.16994,14.78537],[75.17065,14.78654],[75.16916,14.78846],[75.16946,14.78951],[75.16874,14.79033],[75.16899,14.79164],[75.16855,14.79239],[75.17034,14.79474],[75.17145,14.79498],[75.17185,14.7964],[75.17352,14.7967],[75.17372,14.79756],[75.17298,14.79988],[75.17405,14.80019],[75.17191,14.80929],[75.17117,14.80937],[75.171,14.81056],[75.17179,14.81293],[75.1714,14.81639],[75.17456,14.81394],[75.17853,14.81467],[75.183,14.81239],[75.18475,14.81318],[75.18852,14.81228],[75.18885,14.81171],[75.19176,14.81192],[75.20733,14.81621],[75.21272,14.81536],[75.21392,14.81094],[75.21395,14.80818],[75.21473,14.80802],[75.21711,14.81206],[75.21802,14.81252],[75.21785,14.81357],[75.21894,14.81429],[75.21818,14.81523],[75.21841,14.81583],[75.22251,14.81709],[75.22042,14.81905],[75.221,14.81994],[75.21745,14.82067],[75.21362,14.82229],[75.21155,14.82125],[75.20795,14.82731],[75.20744,14.83064],[75.20633,14.83042],[75.2047,14.83432],[75.20233,14.8347],[75.20193,14.83652],[75.20217,14.8412],[75.20426,14.84464],[75.20233,14.84634],[75.20013,14.84979],[75.19979,14.85254],[75.2001,14.85731],[75.19514,14.85695],[75.19229,14.85941],[75.19145,14.86259],[75.19234,14.8634],[75.19182,14.86536],[75.18933,14.86906],[75.19644,14.86935],[75.20209,14.8675],[75.20507,14.86604],[75.2062,14.86367],[75.20799,14.86271],[75.21079,14.85725],[75.21306,14.85415],[75.21372,14.85471],[75.21645,14.85368],[75.22057,14.85357],[75.22574,14.85204],[75.22761,14.85323],[75.22981,14.85638],[75.2319,14.85783],[75.23312,14.86026],[75.23485,14.86641],[75.23676,14.86475],[75.2414,14.8647],[75.24173,14.86244],[75.24252,14.86261],[75.24264,14.86152],[75.24462,14.86157],[75.24474,14.86054],[75.25062,14.86178],[75.25077,14.86118],[75.25492,14.86119],[75.25472,14.85923],[75.25836,14.85809],[75.26583,14.85931],[75.26769,14.85683],[75.27468,14.85875],[75.27404,14.86401],[75.2725,14.86944],[75.28598,14.87126],[75.2912,14.87084],[75.29267,14.86957],[75.29806,14.86788],[75.30046,14.85699]]]}},{"type":"Feature","properties":{"unitId":474,"unitName":"Hanagal PS"},"geometry":{"type":"Polygon","coordinates":[[[75.09652,14.90465],[75.10559,14.90503],[75.10617,14.90377],[75.10938,14.9018],[75.10998,14.90087],[75.11148,14.90092],[75.11196,14.89974],[75.11315,14.89877],[75.1152,14.89794],[75.11603,14.89586],[75.11796,14.89655],[75.11913,14.89639],[75.11902,14.8968],[75.11943,14.8969],[75.11957,14.89627],[75.12142,14.89667],[75.12136,14.8961],[75.12336,14.89534],[75.12344,14.8946],[75.12409,14.89414],[75.12516,14.89457],[75.12549,14.89406],[75.12821,14.89467],[75.13252,14.89472],[75.13353,14.89584],[75.13476,14.89606],[75.13491,14.89681],[75.13625,14.89706],[75.13564,14.89793],[75.13612,14.89928],[75.13687,14.89898],[75.13746,14.89849],[75.13784,14.89676],[75.13888,14.89662],[75.1384,14.89574],[75.13855,14.89337],[75.13925,14.8928],[75.14113,14.89234],[75.14171,14.89308],[75.14247,14.89305],[75.14563,14.89133],[75.1474,14.89107],[75.1476,14.89143],[75.14883,14.89144],[75.14886,14.89189],[75.15071,14.89082],[75.15036,14.89002],[75.1507,14.8856],[75.15037,14.88236],[75.15219,14.87992],[75.15389,14.87915],[75.16,14.87864],[75.16326,14.87924],[75.16536,14.88035],[75.16614,14.88144],[75.16673,14.88128],[75.1672,14.88302],[75.16853,14.88282],[75.16902,14.8855],[75.16697,14.8899],[75.16628,14.8941],[75.1679,14.89374],[75.17094,14.89396],[75.17306,14.89462],[75.17297,14.8953],[75.17512,14.89467],[75.17794,14.89468],[75.17813,14.89286],[75.17948,14.89236],[75.17975,14.89061],[75.18039,14.89065],[75.18052,14.88851],[75.18175,14.88859],[75.18257,14.88712],[75.18259,14.88124],[75.1831,14.88039],[75.17964,14.8788],[75.18075,14.87391],[75.18155,14.87361],[75.18334,14.87471],[75.18586,14.87243],[75.18833,14.87216],[75.18908,14.86906],[75.19182,14.86536],[75.19234,14.8634],[75.19145,14.86259],[75.19229,14.85941],[75.19514,14.85695],[75.2001,14.85731],[75.19979,14.85254],[75.20013,14.84979],[75.20233,14.84634],[75.20426,14.84464],[75.20217,14.8412],[75.20193,14.83652],[75.20233,14.8347],[75.2047,14.83432],[75.20633,14.83042],[75.20744,14.83064],[75.20795,14.82731],[75.21155,14.82125],[75.21362,14.82229],[75.21745,14.82067],[75.221,14.81994],[75.22042,14.81905],[75.22251,14.81709],[75.21841,14.81583],[75.21818,14.81523],[75.21894,14.81429],[75.21785,14.81357],[75.21802,14.81252],[75.21711,14.81206],[75.21473,14.80802],[75.21395,14.80818],[75.21392,14.81094],[75.21272,14.81536],[75.20733,14.81621],[75.19176,14.81192],[75.18885,14.81171],[75.18852,14.81228],[75.18475,14.81318],[75.183,14.81239],[75.17853,14.81467],[75.17456,14.81394],[75.1714,14.81639],[75.17179,14.81293],[75.171,14.81056],[75.17117,14.80937],[75.17191,14.80929],[75.17405,14.80019],[75.17298,14.79988],[75.17372,14.79756],[75.17352,14.7967],[75.17185,14.7964],[75.17145,14.79498],[75.17034,14.79474],[75.16855,14.79239],[75.16899,14.79164],[75.16874,14.79033],[75.16946,14.78951],[75.16916,14.78846],[75.17065,14.78654],[75.16994,14.78537],[75.16982,14.78404],[75.17047,14.7805],[75.17443,14.77842],[75.17555,14.77834],[75.17795,14.77551],[75.17791,14.77306],[75.17694,14.77049],[75.17737,14.76854],[75.17686,14.76846],[75.17574,14.76614],[75.17604,14.76551],[75.17527,14.76317],[75.17618,14.76066],[75.17777,14.75953],[75.17847,14.7549],[75.18003,14.75054],[75.1773,14.74009],[75.1794,14.73499],[75.17933,14.73072],[75.17987,14.72856],[75.18052,14.72869],[75.18116,14.72622],[75.18105,14.72302],[75.18042,14.72304],[75.18054,14.722],[75.18001,14.7212],[75.18029,14.71979],[75.19231,14.71718],[75.19431,14.71603],[75.19862,14.71577],[75.19719,14.71355],[75.19507,14.7069],[75.19766,14.70677],[75.20065,14.70592],[75.20384,14.70428],[75.20452,14.70307],[75.2061,14.6986],[75.20669,14.69797],[75.2067,14.69396],[75.20619,14.69069],[75.20532,14.68899],[75.20587,14.6861],[75.20509,14.68434],[75.20215,14.68453],[75.20123,14.68519],[75.19703,14.68482],[75.1959,14.68491],[75.19583,14.68539],[75.19083,14.68568],[75.18867,14.6849],[75.18587,14.68507],[75.18576,14.68468],[75.1847,14.6856],[75.18445,14.6881],[75.18392,14.68841],[75.18297,14.68788],[75.1822,14.68659],[75.1821,14.68511],[75.18,14.68476],[75.17686,14.68254],[75.17637,14.67266],[75.1756,14.67139],[75.17472,14.66706],[75.16808,14.66626],[75.16357,14.66796],[75.16134,14.66801],[75.15784,14.6669],[75.15521,14.65845],[75.15468,14.65844],[75.15191,14.65203],[75.14814,14.65278],[75.14613,14.65154],[75.14588,14.64852],[75.14662,14.64755],[75.14613,14.64417],[75.14455,14.64045],[75.14258,14.64072],[75.14272,14.63886],[75.14232,14.63719],[75.14177,14.63699],[75.14223,14.63391],[75.13964,14.63432],[75.1369,14.63379],[75.13529,14.63292],[75.13474,14.63195],[75.13096,14.63108],[75.12463,14.63063],[75.12144,14.63293],[75.11921,14.63535],[75.11664,14.63957],[75.11393,14.64108],[75.10719,14.64318],[75.10159,14.64394],[75.09931,14.65292],[75.09806,14.65239],[75.09,14.65198],[75.07938,14.65289],[75.07464,14.65377],[75.06951,14.65174],[75.06949,14.65127],[75.06933,14.65171],[75.06523,14.65068],[75.06137,14.65034],[75.06061,14.65038],[75.06016,14.65114],[75.05368,14.64918],[75.05269,14.64843],[75.04724,14.65188],[75.04513,14.65393],[75.0448,14.65588],[75.043,14.65918],[75.04098,14.66073],[75.03892,14.6593],[75.03905,14.65853],[75.03535,14.65793],[75.03437,14.66053],[75.03361,14.66057],[75.03131,14.66497],[75.0305,14.67177],[75.03062,14.67242],[75.03167,14.67254],[75.03158,14.67331],[75.036,14.67641],[75.03572,14.67813],[75.03432,14.6806],[75.03369,14.69021],[75.0323,14.69484],[75.03295,14.71006],[75.02958,14.70977],[75.02467,14.70822],[75.02149,14.71137],[75.017,14.71059],[75.01647,14.71503],[75.01599,14.71514],[75.01611,14.71772],[75.01536,14.71781],[75.01543,14.7183],[75.01425,14.71907],[75.01476,14.72052],[75.0177,14.72157],[75.01787,14.72331],[75.01873,14.72368],[75.01914,14.72338],[75.0208,14.72517],[75.02083,14.72457],[75.02164,14.72402],[75.0222,14.72556],[75.02371,14.72519],[75.02607,14.72668],[75.02728,14.72547],[75.02814,14.7253],[75.02762,14.72626],[75.02997,14.72676],[75.03016,14.72929],[75.03099,14.72984],[75.03341,14.72741],[75.03683,14.72819],[75.03734,14.72736],[75.038,14.7275],[75.03848,14.72793],[75.03773,14.72906],[75.03793,14.73213],[75.03756,14.73693],[75.03702,14.73838],[75.0447,14.73906],[75.0438,14.74326],[75.04477,14.74289],[75.04498,14.74361],[75.04767,14.74414],[75.04715,14.74659],[75.04747,14.74853],[75.04636,14.75062],[75.04691,14.75187],[75.04554,14.75145],[75.04551,14.75308],[75.04488,14.75277],[75.04356,14.75364],[75.04363,14.75477],[75.04281,14.75501],[75.04252,14.75817],[75.04168,14.75929],[75.04168,14.76474],[75.04027,14.76628],[75.03972,14.76766],[75.0408,14.76983],[75.04043,14.772],[75.04072,14.77398],[75.04243,14.77334],[75.04614,14.77303],[75.04979,14.77324],[75.04978,14.77499],[75.05233,14.77647],[75.05914,14.77566],[75.05954,14.77638],[75.06364,14.77643],[75.06389,14.77921],[75.06574,14.78115],[75.06634,14.78291],[75.06754,14.78243],[75.06806,14.78308],[75.07073,14.78241],[75.06862,14.7847],[75.06772,14.78508],[75.06717,14.78611],[75.06747,14.78652],[75.06863,14.78655],[75.06933,14.7878],[75.06894,14.78957],[75.06935,14.79243],[75.06834,14.7943],[75.06885,14.79798],[75.06382,14.80174],[75.06286,14.80154],[75.06292,14.80221],[75.05598,14.80541],[75.05533,14.81467],[75.06428,14.81076],[75.07391,14.80816],[75.07901,14.80932],[75.08043,14.8102],[75.08166,14.80899],[75.0836,14.81014],[75.08565,14.80979],[75.09168,14.81106],[75.09141,14.81602],[75.09047,14.82033],[75.08219,14.82381],[75.07375,14.82622],[75.0722,14.83195],[75.07148,14.83305],[75.07166,14.83399],[75.0676,14.83679],[75.06803,14.84132],[75.06896,14.84157],[75.06987,14.84674],[75.07414,14.85634],[75.07212,14.86035],[75.06975,14.86372],[75.07096,14.8685],[75.07397,14.86841],[75.07353,14.86991],[75.0711,14.87299],[75.07021,14.88887],[75.0695,14.88889],[75.06993,14.89595],[75.06864,14.90858],[75.09652,14.90465]]]}},{"type":"Feature","properties":{"unitId":475,"unitName":"Savanoor PS"},"geometry":{"type":"MultiPolygon","coordinates":[[[[75.33449,15.08095],[75.33536,15.0772],[75.33938,15.0699],[75.34201,15.06864],[75.34424,15.0656],[75.3469,15.06461],[75.35226,15.06393],[75.35706,15.06588],[75.36379,15.0569],[75.36702,15.05041],[75.37489,15.05032],[75.38008,15.05255],[75.38589,15.05387],[75.38837,15.05538],[75.39395,15.05724],[75.39779,15.05933],[75.40158,15.06024],[75.41048,15.05996],[75.41654,15.05913],[75.41691,15.06141],[75.42182,15.06134],[75.42482,15.06053],[75.42595,15.0612],[75.44903,15.06038],[75.44908,15.05949],[75.4508,15.05937],[75.45207,15.04948],[75.45391,15.05054],[75.45796,15.0505],[75.46054,15.04995],[75.46084,15.04379],[75.46824,15.04702],[75.47182,15.04491],[75.4763,15.04384],[75.48067,15.0445],[75.48414,15.04418],[75.49486,15.04681],[75.5001,15.04521],[75.50756,15.04416],[75.52063,15.03306],[75.5334,15.03483],[75.5385,15.02718],[75.54072,15.02052],[75.54085,15.01998],[75.53819,15.01927],[75.54184,15.01449],[75.54242,15.01497],[75.54322,14.99927],[75.5417,14.99519],[75.54091,14.99021],[75.54073,14.98675],[75.54139,14.97828],[75.54768,14.97897],[75.5651,14.97932],[75.56548,14.97877],[75.56546,14.97645],[75.56421,14.97501],[75.56365,14.97495],[75.56338,14.97366],[75.56373,14.97213],[75.5649,14.97102],[75.56514,14.97133],[75.56644,14.96433],[75.56707,14.9457],[75.56547,14.94346],[75.56034,14.94271],[75.54298,14.94201],[75.52666,14.94311],[75.52689,14.94386],[75.52823,14.94421],[75.52832,14.94561],[75.53012,14.94667],[75.53014,14.94754],[75.53139,14.94987],[75.53072,14.95023],[75.5303,14.95128],[75.52849,14.9522],[75.52602,14.95101],[75.52448,14.95699],[75.52201,14.96352],[75.51879,14.96417],[75.51079,14.96711],[75.50524,14.96754],[75.49939,14.96658],[75.4984,14.96044],[75.49955,14.95708],[75.50065,14.9501],[75.50287,14.94532],[75.50521,14.94259],[75.50621,14.93995],[75.50979,14.92393],[75.50942,14.92209],[75.50973,14.92153],[75.50729,14.92167],[75.5052,14.91984],[75.50328,14.91922],[75.49962,14.92078],[75.49801,14.92091],[75.49482,14.92],[75.49059,14.91952],[75.48472,14.92043],[75.4786,14.91333],[75.47814,14.91203],[75.47603,14.91146],[75.4732,14.91241],[75.47249,14.91225],[75.46916,14.91064],[75.4677,14.90824],[75.46758,14.90718],[75.46816,14.90575],[75.46932,14.90498],[75.47147,14.90455],[75.47933,14.90385],[75.48457,14.90553],[75.48652,14.90549],[75.4873,14.90501],[75.4888,14.89847],[75.49139,14.89605],[75.49184,14.89429],[75.4912,14.8918],[75.49023,14.89129],[75.48767,14.89166],[75.48777,14.89026],[75.4857,14.88778],[75.48666,14.88567],[75.48801,14.88491],[75.48791,14.88112],[75.48733,14.87952],[75.48309,14.87498],[75.47087,14.87128],[75.46888,14.86934],[75.46771,14.86601],[75.46611,14.86515],[75.46468,14.86471],[75.46175,14.86577],[75.45599,14.86637],[75.45473,14.86828],[75.45277,14.87734],[75.45296,14.88129],[75.45164,14.88296],[75.44967,14.88712],[75.44541,14.89118],[75.44341,14.89154],[75.44067,14.89087],[75.44014,14.89021],[75.43799,14.88276],[75.43572,14.87896],[75.43327,14.87819],[75.43181,14.8788],[75.43068,14.88024],[75.42786,14.88198],[75.42072,14.88301],[75.42013,14.88169],[75.42032,14.87896],[75.41955,14.87756],[75.41806,14.87735],[75.41427,14.87796],[75.40846,14.87626],[75.40651,14.87475],[75.40604,14.87298],[75.40427,14.87094],[75.40184,14.87057],[75.39457,14.87528],[75.39414,14.87954],[75.39324,14.88222],[75.38906,14.88969],[75.38902,14.89058],[75.38799,14.89047],[75.38626,14.88912],[75.38648,14.88867],[75.38463,14.8879],[75.37853,14.8882],[75.37592,14.88768],[75.37465,14.8872],[75.37305,14.8855],[75.36987,14.88545],[75.36508,14.88222],[75.36224,14.87885],[75.36156,14.87373],[75.3581,14.86907],[75.3571,14.86446],[75.35509,14.86282],[75.35294,14.86233],[75.34901,14.86454],[75.34817,14.8646],[75.34668,14.86343],[75.34555,14.8635],[75.34249,14.86513],[75.34111,14.86462],[75.33859,14.86267],[75.33812,14.86282],[75.33794,14.86175],[75.33637,14.85976],[75.33202,14.85876],[75.3292,14.8595],[75.32494,14.86187],[75.32244,14.86257],[75.32093,14.86165],[75.31723,14.85796],[75.30657,14.85408],[75.30443,14.85227],[75.30258,14.84921],[75.30148,14.85057],[75.29806,14.86788],[75.29267,14.86957],[75.2912,14.87084],[75.28683,14.87108],[75.28493,14.87997],[75.28438,14.88698],[75.28459,14.89147],[75.283,14.89591],[75.28303,14.89697],[75.28356,14.89736],[75.28264,14.90041],[75.28757,14.90067],[75.28806,14.91149],[75.2877,14.91556],[75.2861,14.92065],[75.28248,14.92803],[75.28194,14.93007],[75.29394,14.93286],[75.294,14.9336],[75.29276,14.93558],[75.29321,14.93709],[75.29237,14.93808],[75.29001,14.93925],[75.29004,14.9405],[75.29181,14.94136],[75.29162,14.94522],[75.28329,14.94483],[75.27763,14.94377],[75.26893,14.94404],[75.26805,14.94719],[75.26545,14.95074],[75.26491,14.9526],[75.26567,14.95512],[75.26601,14.955],[75.27153,14.96216],[75.27225,14.96453],[75.27785,14.96559],[75.27813,14.96609],[75.27584,14.96728],[75.27655,14.96884],[75.27538,14.9687],[75.27516,14.96911],[75.27593,14.96943],[75.27566,14.97025],[75.27468,14.97054],[75.27412,14.9714],[75.27688,14.97348],[75.27668,14.97428],[75.27542,14.97441],[75.27627,14.97672],[75.27517,14.97678],[75.27475,14.97572],[75.27438,14.97607],[75.27482,14.97651],[75.27422,14.97684],[75.2745,14.97715],[75.27403,14.97797],[75.27374,14.97731],[75.27318,14.97793],[75.27427,14.97853],[75.27327,14.97888],[75.2725,14.97861],[75.27205,14.97902],[75.27303,14.97957],[75.27307,14.98015],[75.27378,14.98011],[75.27369,14.98087],[75.27454,14.98071],[75.27517,14.98177],[75.27384,14.98185],[75.27348,14.98264],[75.27267,14.98152],[75.27224,14.98223],[75.27325,14.98405],[75.27432,14.9842],[75.2743,14.98554],[75.27347,14.98593],[75.27375,14.98778],[75.27308,14.9878],[75.27301,14.98834],[75.27458,14.99009],[75.27417,14.99273],[75.27481,14.99346],[75.27403,14.99447],[75.27451,14.99455],[75.27618,15.00015],[75.277,15.00078],[75.27707,15.00162],[75.27759,15.00175],[75.27804,15.00673],[75.2788,15.00772],[75.28015,15.00796],[75.2803,15.00897],[75.28248,15.01158],[75.28325,15.01648],[75.28275,15.02076],[75.28181,15.02352],[75.27847,15.02297],[75.27496,15.02323],[75.27401,15.02675],[75.2727,15.027],[75.27229,15.0386],[75.2712,15.03857],[75.27064,15.04491],[75.27066,15.04727],[75.27233,15.04996],[75.27034,15.05825],[75.27962,15.06283],[75.28002,15.06497],[75.27702,15.0684],[75.28025,15.06847],[75.29243,15.07088],[75.29929,15.07136],[75.30613,15.07276],[75.3058,15.07533],[75.31693,15.0764],[75.32058,15.07916],[75.32394,15.08051],[75.32611,15.0809],[75.33093,15.08056],[75.33409,15.08205],[75.33449,15.08095]]],[[[75.2918,14.93738],[75.29114,14.93729],[75.29097,14.93778],[75.29174,14.93776],[75.2918,14.93738]]]]}},{"type":"Feature","properties":{"unitId":476,"unitName":"Bankapura PS"},"geometry":{"type":"Polygon","coordinates":[[[75.15141,14.97008],[75.15229,14.9659],[75.15548,14.95957],[75.15613,14.95343],[75.15716,14.9505],[75.16198,14.94814],[75.16649,14.9474],[75.16949,14.94607],[75.16994,14.94841],[75.17189,14.95135],[75.17357,14.96158],[75.17599,14.96099],[75.17669,14.9613],[75.17541,14.96655],[75.18188,14.9669],[75.18441,14.9662],[75.19078,14.96693],[75.19592,14.96623],[75.19746,14.96647],[75.20023,14.96541],[75.20171,14.96602],[75.20599,14.96547],[75.21445,14.9617],[75.22023,14.95745],[75.22029,14.95595],[75.22444,14.95343],[75.22555,14.95092],[75.22586,14.94515],[75.22717,14.94524],[75.22867,14.94444],[75.22864,14.94372],[75.22699,14.94266],[75.22683,14.94077],[75.22877,14.93943],[75.23077,14.93938],[75.23491,14.94071],[75.23507,14.93911],[75.2361,14.93918],[75.23635,14.93858],[75.23851,14.93856],[75.23706,14.94085],[75.23823,14.94096],[75.23998,14.94229],[75.24298,14.94087],[75.24316,14.94773],[75.24075,14.95497],[75.23918,14.96147],[75.24355,14.96158],[75.25461,14.96068],[75.25544,14.95463],[75.25692,14.95453],[75.2569,14.95316],[75.25934,14.95329],[75.2593,14.95406],[75.26059,14.95367],[75.26164,14.95316],[75.26141,14.95216],[75.26241,14.95178],[75.26492,14.95258],[75.26545,14.95074],[75.26805,14.94719],[75.26893,14.94404],[75.27763,14.94377],[75.28329,14.94483],[75.29162,14.94522],[75.29181,14.94136],[75.29004,14.9405],[75.29001,14.93925],[75.29237,14.93808],[75.29321,14.93709],[75.29276,14.93558],[75.294,14.9336],[75.29394,14.93286],[75.28193,14.93],[75.28248,14.92803],[75.2861,14.92065],[75.28777,14.91507],[75.28806,14.91018],[75.28757,14.90067],[75.28264,14.90041],[75.28356,14.89736],[75.28303,14.89697],[75.283,14.89591],[75.28459,14.89147],[75.28438,14.88698],[75.28493,14.87997],[75.28683,14.87108],[75.2725,14.86944],[75.27404,14.86401],[75.27468,14.85875],[75.27075,14.85744],[75.26769,14.85683],[75.26583,14.85931],[75.25836,14.85809],[75.25463,14.85927],[75.25492,14.86119],[75.25077,14.86118],[75.25062,14.86178],[75.24474,14.86054],[75.24462,14.86157],[75.24264,14.86152],[75.24252,14.86261],[75.24173,14.86244],[75.2414,14.8647],[75.23676,14.86475],[75.23485,14.86641],[75.23312,14.86026],[75.2319,14.85783],[75.22981,14.85638],[75.22845,14.85413],[75.22643,14.85243],[75.22574,14.85204],[75.22057,14.85357],[75.21645,14.85368],[75.21372,14.85471],[75.21306,14.85415],[75.21079,14.85725],[75.20799,14.86271],[75.2062,14.86367],[75.20507,14.86604],[75.19644,14.86935],[75.18908,14.86906],[75.18833,14.87216],[75.18586,14.87243],[75.18334,14.87471],[75.18155,14.87361],[75.18075,14.87391],[75.17964,14.8788],[75.1831,14.88039],[75.18259,14.88124],[75.18257,14.88712],[75.18175,14.88859],[75.18052,14.88851],[75.18039,14.89065],[75.17975,14.89061],[75.17948,14.89236],[75.17813,14.89286],[75.17794,14.89468],[75.17512,14.89467],[75.17297,14.8953],[75.17306,14.89462],[75.17094,14.89396],[75.1679,14.89374],[75.16628,14.8941],[75.16697,14.8899],[75.16902,14.8855],[75.16853,14.88282],[75.1672,14.88302],[75.16673,14.88128],[75.16614,14.88144],[75.16536,14.88035],[75.16326,14.87924],[75.16,14.87864],[75.15389,14.87915],[75.15219,14.87992],[75.15037,14.88236],[75.1507,14.8856],[75.15036,14.89002],[75.15071,14.89082],[75.14886,14.89189],[75.14883,14.89144],[75.1476,14.89143],[75.1474,14.89107],[75.14563,14.89133],[75.14247,14.89305],[75.14171,14.89308],[75.14113,14.89234],[75.13925,14.8928],[75.13855,14.89337],[75.1384,14.89574],[75.13888,14.89662],[75.13784,14.89676],[75.13746,14.89849],[75.13612,14.89928],[75.13564,14.89793],[75.13625,14.89706],[75.13491,14.89681],[75.13476,14.89606],[75.13353,14.89584],[75.13252,14.89472],[75.12821,14.89467],[75.12549,14.89406],[75.12516,14.89457],[75.12409,14.89414],[75.12344,14.8946],[75.12336,14.89534],[75.12136,14.8961],[75.12142,14.89667],[75.11957,14.89627],[75.11943,14.8969],[75.11902,14.8968],[75.11913,14.89639],[75.11796,14.89655],[75.11603,14.89586],[75.1152,14.89794],[75.11315,14.89877],[75.11196,14.89974],[75.11148,14.90092],[75.10998,14.90087],[75.10938,14.9018],[75.10617,14.90377],[75.10559,14.90503],[75.10107,14.90455],[75.09592,14.9047],[75.06864,14.90858],[75.06709,14.91899],[75.08031,14.92242],[75.08732,14.92109],[75.08547,14.92676],[75.10209,14.92736],[75.10145,14.93221],[75.10319,14.93481],[75.09691,14.94296],[75.0976,14.94709],[75.09364,14.95197],[75.09496,14.95098],[75.09988,14.95518],[75.09774,14.95531],[75.09771,14.95644],[75.0966,14.95678],[75.08444,14.95658],[75.08152,14.96961],[75.10499,14.9706],[75.1178,14.97007],[75.13118,14.97096],[75.14457,14.97314],[75.15115,14.97143],[75.15141,14.97008]],[[75.29114,14.93729],[75.2918,14.93738],[75.29174,14.93776],[75.29097,14.93778],[75.29114,14.93729]]]}},{"type":"Feature","properties":{"unitId":477,"unitName":"Shiggaon PS"},"geometry":{"type":"Polygon","coordinates":[[[75.33665,15.13854],[75.33634,15.11569],[75.33695,15.11181],[75.33959,15.1067],[75.34567,15.10484],[75.35022,15.10221],[75.35051,15.10149],[75.34972,15.09429],[75.34264,15.09267],[75.34102,15.09151],[75.3391,15.09109],[75.33996,15.08811],[75.33978,15.08672],[75.33644,15.08272],[75.33445,15.08156],[75.33409,15.08205],[75.33093,15.08056],[75.32611,15.0809],[75.32394,15.08051],[75.32058,15.07916],[75.31603,15.07617],[75.3058,15.07533],[75.30613,15.07276],[75.29929,15.07136],[75.29243,15.07088],[75.28025,15.06847],[75.27702,15.0684],[75.28002,15.06497],[75.27962,15.06283],[75.27034,15.05825],[75.27233,15.04996],[75.27066,15.04727],[75.27064,15.04491],[75.2712,15.03857],[75.27229,15.0386],[75.2727,15.027],[75.27401,15.02675],[75.27496,15.02323],[75.27847,15.02297],[75.28181,15.02352],[75.28275,15.02076],[75.28325,15.01648],[75.28248,15.01158],[75.2803,15.00897],[75.28015,15.00796],[75.2788,15.00772],[75.27804,15.00673],[75.27759,15.00175],[75.27707,15.00162],[75.277,15.00078],[75.27618,15.00015],[75.27451,14.99455],[75.27403,14.99447],[75.27481,14.99346],[75.27417,14.99273],[75.27458,14.99009],[75.27301,14.98834],[75.27308,14.9878],[75.27375,14.98778],[75.27347,14.98593],[75.2743,14.98554],[75.27432,14.9842],[75.27325,14.98405],[75.27224,14.98223],[75.27267,14.98152],[75.27348,14.98264],[75.27384,14.98185],[75.27517,14.98177],[75.27454,14.98071],[75.27369,14.98087],[75.27378,14.98011],[75.27307,14.98015],[75.27303,14.97957],[75.27205,14.97902],[75.2725,14.97861],[75.27327,14.97888],[75.27427,14.97853],[75.27318,14.97793],[75.27374,14.97731],[75.27403,14.97797],[75.2745,14.97715],[75.27422,14.97684],[75.27482,14.97651],[75.27438,14.97607],[75.27475,14.97572],[75.27517,14.97678],[75.27627,14.97672],[75.27542,14.97441],[75.27668,14.97428],[75.27688,14.97348],[75.27412,14.9714],[75.27468,14.97054],[75.27566,14.97025],[75.27593,14.96943],[75.27516,14.96911],[75.27538,14.9687],[75.27655,14.96884],[75.27584,14.96728],[75.27813,14.96609],[75.27785,14.96559],[75.27225,14.96453],[75.27153,14.96216],[75.26601,14.955],[75.26567,14.95512],[75.26489,14.95252],[75.26241,14.95178],[75.26141,14.95216],[75.26164,14.95316],[75.26059,14.95367],[75.2593,14.95406],[75.25934,14.95329],[75.2569,14.95316],[75.25692,14.95453],[75.25544,14.95463],[75.25461,14.96068],[75.24355,14.96158],[75.23918,14.96147],[75.24075,14.95497],[75.24316,14.94773],[75.24332,14.94335],[75.24298,14.94087],[75.23998,14.94229],[75.23823,14.94096],[75.23706,14.94085],[75.23851,14.93856],[75.23635,14.93858],[75.2361,14.93918],[75.23507,14.93911],[75.23491,14.94071],[75.23077,14.93938],[75.22877,14.93943],[75.22737,14.94022],[75.22683,14.94077],[75.22669,14.94202],[75.22703,14.94273],[75.22864,14.94372],[75.22867,14.94444],[75.22717,14.94524],[75.22586,14.94515],[75.22555,14.95092],[75.22444,14.95343],[75.22029,14.95595],[75.22023,14.95745],[75.21445,14.9617],[75.20599,14.96547],[75.20459,14.96538],[75.20344,14.96587],[75.20133,14.966],[75.20023,14.96541],[75.19746,14.96647],[75.19592,14.96623],[75.19078,14.96693],[75.18441,14.9662],[75.18188,14.9669],[75.17541,14.96655],[75.17669,14.9613],[75.17599,14.96099],[75.17357,14.96158],[75.17189,14.95135],[75.16994,14.94841],[75.16949,14.94607],[75.16649,14.9474],[75.16198,14.94814],[75.15716,14.9505],[75.15613,14.95343],[75.15548,14.95957],[75.15334,14.96384],[75.15387,14.96353],[75.15624,14.96382],[75.15818,14.96324],[75.15951,14.96841],[75.15892,14.96823],[75.15859,14.97222],[75.15913,14.97227],[75.15978,14.97515],[75.15774,14.97894],[75.16029,14.98113],[75.1642,14.98333],[75.1653,14.98452],[75.16633,14.98405],[75.16655,14.98512],[75.16572,14.98629],[75.16445,14.98683],[75.16371,14.9884],[75.16487,14.9924],[75.16476,14.99523],[75.15991,14.99763],[75.16017,15.00277],[75.15929,15.00518],[75.16039,15.00668],[75.16095,15.00949],[75.1717,15.0145],[75.16921,15.01476],[75.1693,15.02238],[75.16742,15.02886],[75.16751,15.03184],[75.16852,15.03564],[75.17222,15.03971],[75.17686,15.0419],[75.17926,15.04096],[75.18389,15.04072],[75.1876,15.03905],[75.18984,15.03869],[75.19433,15.03978],[75.19631,15.03976],[75.19872,15.0409],[75.19614,15.04502],[75.19912,15.04743],[75.19832,15.05261],[75.1999,15.06151],[75.1984,15.06472],[75.20195,15.0659],[75.20947,15.06431],[75.21175,15.06326],[75.21207,15.06053],[75.21541,15.05769],[75.22517,15.0574],[75.22433,15.06826],[75.22696,15.06876],[75.22613,15.07331],[75.22632,15.07692],[75.23224,15.07646],[75.23847,15.07754],[75.24566,15.0775],[75.24581,15.09631],[75.24858,15.09671],[75.24857,15.09729],[75.25097,15.09788],[75.25783,15.09839],[75.25769,15.10348],[75.25878,15.11758],[75.26981,15.11876],[75.27211,15.12199],[75.27884,15.12419],[75.28507,15.12815],[75.28819,15.12927],[75.28653,15.13666],[75.29908,15.13847],[75.30594,15.13842],[75.30578,15.15432],[75.31448,15.15507],[75.3158,15.15584],[75.3255,15.15757],[75.33096,15.15926],[75.33534,15.16178],[75.33722,15.14761],[75.33665,15.13854]]]}},{"type":"Feature","properties":{"unitId":478,"unitName":"Tadas PS"},"geometry":{"type":"Polygon","coordinates":[[[75.14164,15.15912],[75.14433,15.15583],[75.14675,15.15015],[75.1502,15.14941],[75.15124,15.14739],[75.15296,15.1457],[75.15189,15.14502],[75.15162,15.14565],[75.15127,15.14554],[75.1513,15.14477],[75.15066,15.14483],[75.151,15.14397],[75.14992,15.14422],[75.14937,15.14349],[75.15001,15.14272],[75.14876,15.14253],[75.14984,15.14131],[75.1494,15.1412],[75.14934,15.1402],[75.14821,15.14004],[75.14791,15.13937],[75.14848,15.13887],[75.14837,15.13832],[75.14797,15.13836],[75.14733,15.13733],[75.14676,15.1375],[75.14633,15.13708],[75.14663,15.13569],[75.14557,15.13565],[75.14629,15.13509],[75.14539,15.13439],[75.14549,15.13379],[75.14248,15.13241],[75.14164,15.13308],[75.14159,15.13225],[75.14034,15.13145],[75.1398,15.13168],[75.13988,15.13123],[75.13928,15.13078],[75.13895,15.1311],[75.13812,15.12991],[75.13741,15.13011],[75.13714,15.12945],[75.1372,15.12748],[75.13775,15.12683],[75.13738,15.12567],[75.13855,15.12537],[75.13709,15.12063],[75.13727,15.11966],[75.13365,15.11809],[75.13525,15.11536],[75.13469,15.11402],[75.1358,15.11065],[75.1375,15.10928],[75.13707,15.10761],[75.13761,15.1068],[75.1367,15.10654],[75.13764,15.10554],[75.13817,15.10601],[75.13885,15.10537],[75.13933,15.10244],[75.14427,15.1035],[75.14403,15.10597],[75.15284,15.10717],[75.15267,15.10875],[75.1584,15.11053],[75.15801,15.10198],[75.18654,15.10393],[75.18828,15.09852],[75.19412,15.09897],[75.19875,15.10045],[75.19883,15.09998],[75.21312,15.10073],[75.22517,15.10026],[75.22564,15.10715],[75.23876,15.10937],[75.23919,15.10673],[75.25057,15.1073],[75.25235,15.09802],[75.24857,15.09729],[75.24858,15.09671],[75.24581,15.09631],[75.24566,15.0775],[75.23847,15.07754],[75.23224,15.07646],[75.22632,15.07692],[75.22613,15.07331],[75.22696,15.06876],[75.22433,15.06826],[75.22517,15.0574],[75.21541,15.05769],[75.21207,15.06053],[75.21175,15.06326],[75.20947,15.06431],[75.20195,15.0659],[75.1984,15.06472],[75.1999,15.06151],[75.19832,15.05261],[75.19912,15.04743],[75.19614,15.04502],[75.19872,15.0409],[75.19631,15.03976],[75.19433,15.03978],[75.18984,15.03869],[75.1876,15.03905],[75.18389,15.04072],[75.17926,15.04096],[75.17686,15.0419],[75.17222,15.03971],[75.16864,15.03591],[75.16751,15.03184],[75.16742,15.02886],[75.1693,15.02238],[75.16921,15.01476],[75.1717,15.0145],[75.16095,15.00949],[75.16039,15.00668],[75.15929,15.00518],[75.16017,15.00277],[75.15991,14.99763],[75.16476,14.99523],[75.16487,14.9924],[75.16371,14.9884],[75.16445,14.98683],[75.16572,14.98629],[75.16655,14.98512],[75.16633,14.98405],[75.1653,14.98452],[75.1642,14.98333],[75.16029,14.98113],[75.15774,14.97894],[75.15978,14.97515],[75.15913,14.97227],[75.15859,14.97222],[75.15892,14.96823],[75.15951,14.96841],[75.15818,14.96324],[75.15624,14.96382],[75.15387,14.96353],[75.15334,14.96384],[75.15229,14.9659],[75.15115,14.97143],[75.14457,14.97314],[75.13118,14.97096],[75.1178,14.97007],[75.10499,14.9706],[75.08158,14.96934],[75.07591,14.97393],[75.07337,14.99965],[75.06836,15.01478],[75.07171,15.01793],[75.07226,15.0207],[75.07616,15.03063],[75.07775,15.0367],[75.07566,15.03818],[75.0756,15.03685],[75.07347,15.03654],[75.07354,15.03742],[75.07211,15.04007],[75.0731,15.04312],[75.07409,15.05248],[75.08274,15.07461],[75.08172,15.07429],[75.08079,15.07711],[75.08247,15.08586],[75.08108,15.08732],[75.08025,15.09087],[75.08072,15.09402],[75.08005,15.09875],[75.08045,15.09942],[75.07904,15.10204],[75.07966,15.10361],[75.07914,15.10421],[75.07873,15.10804],[75.07789,15.11055],[75.07863,15.11103],[75.09069,15.11121],[75.09522,15.11031],[75.09522,15.114],[75.10169,15.11603],[75.11101,15.11658],[75.11362,15.1172],[75.11465,15.12124],[75.11268,15.12308],[75.11193,15.12557],[75.10944,15.12785],[75.10965,15.12941],[75.10623,15.13026],[75.10558,15.1327],[75.10701,15.13899],[75.10457,15.14005],[75.10485,15.1407],[75.11065,15.13847],[75.1164,15.14081],[75.11892,15.14105],[75.12192,15.14025],[75.12611,15.1457],[75.12714,15.14427],[75.13044,15.1447],[75.13404,15.14817],[75.13395,15.15055],[75.13443,15.15077],[75.13463,15.15187],[75.1353,15.15183],[75.13491,15.15621],[75.1352,15.1571],[75.14164,15.15912]]]}},{"type":"Feature","properties":{"unitId":479,"unitName":"Gudageri PS"},"geometry":{"type":"Polygon","coordinates":[[[75.41604,15.23436],[75.42162,15.23512],[75.42284,15.22635],[75.43461,15.22671],[75.44051,15.22739],[75.44645,15.21737],[75.44938,15.20804],[75.44571,15.20872],[75.43342,15.20964],[75.43278,15.19881],[75.42028,15.20041],[75.40988,15.20008],[75.40855,15.20016],[75.40846,15.20058],[75.39814,15.20083],[75.39779,15.18711],[75.40035,15.1735],[75.3948,15.17266],[75.39556,15.16517],[75.4032,15.1661],[75.40336,15.16543],[75.40555,15.16567],[75.40601,15.16226],[75.41195,15.16202],[75.41451,15.14767],[75.41598,15.14208],[75.42093,15.13521],[75.42875,15.12668],[75.42982,15.11635],[75.43236,15.11281],[75.43414,15.10789],[75.43296,15.1043],[75.42259,15.09877],[75.42247,15.09623],[75.42362,15.09513],[75.42425,15.0916],[75.42009,15.09053],[75.42034,15.08585],[75.41656,15.08494],[75.418,15.0736],[75.4184,15.06558],[75.41681,15.06324],[75.41682,15.05915],[75.41048,15.05996],[75.40158,15.06024],[75.39779,15.05933],[75.39395,15.05724],[75.38837,15.05538],[75.38589,15.05387],[75.38008,15.05255],[75.37489,15.05032],[75.36702,15.05041],[75.36379,15.0569],[75.35706,15.06588],[75.35226,15.06393],[75.3469,15.06461],[75.34424,15.0656],[75.34201,15.06864],[75.33938,15.0699],[75.33536,15.0772],[75.33436,15.08154],[75.33644,15.08272],[75.33978,15.08672],[75.33996,15.08811],[75.3391,15.09109],[75.34102,15.09151],[75.34264,15.09267],[75.34972,15.09429],[75.3505,15.10166],[75.34937,15.10289],[75.34624,15.10458],[75.33959,15.1067],[75.33695,15.11181],[75.33634,15.11569],[75.33675,15.12903],[75.33639,15.13428],[75.33725,15.14684],[75.33673,15.15354],[75.33561,15.16128],[75.33513,15.16183],[75.33096,15.15926],[75.3255,15.15757],[75.3158,15.15584],[75.31448,15.15507],[75.30578,15.15432],[75.30594,15.13842],[75.29908,15.13847],[75.28653,15.13666],[75.28819,15.12927],[75.28507,15.12815],[75.27884,15.12419],[75.27211,15.12199],[75.26981,15.11876],[75.25878,15.11758],[75.25769,15.10348],[75.25783,15.09839],[75.25235,15.09802],[75.25057,15.1073],[75.23919,15.10673],[75.23876,15.10937],[75.22564,15.10715],[75.22517,15.10026],[75.21312,15.10073],[75.19883,15.09998],[75.19875,15.10045],[75.19412,15.09897],[75.18828,15.09852],[75.18595,15.10582],[75.18562,15.1101],[75.18459,15.1141],[75.18846,15.11541],[75.18857,15.11617],[75.19328,15.1175],[75.19311,15.11857],[75.19627,15.11911],[75.19613,15.12499],[75.19545,15.12728],[75.20171,15.12787],[75.20532,15.13557],[75.20491,15.14084],[75.20536,15.14325],[75.20514,15.14461],[75.22296,15.14877],[75.23409,15.15056],[75.23365,15.1531],[75.23396,15.15575],[75.23725,15.16259],[75.23806,15.16531],[75.24401,15.16562],[75.25053,15.16736],[75.26305,15.16977],[75.26337,15.16844],[75.27184,15.17062],[75.27453,15.16611],[75.27654,15.15932],[75.28999,15.16653],[75.29679,15.17489],[75.31637,15.18492],[75.33808,15.20187],[75.34613,15.22316],[75.35498,15.22752],[75.35845,15.22851],[75.35471,15.24793],[75.36741,15.24961],[75.37563,15.25199],[75.38533,15.25332],[75.39714,15.25578],[75.39692,15.25798],[75.40246,15.25994],[75.40244,15.26047],[75.40464,15.26088],[75.40457,15.26287],[75.40594,15.26312],[75.40591,15.26371],[75.41174,15.26417],[75.4117,15.26458],[75.41648,15.26227],[75.41729,15.25723],[75.41737,15.25587],[75.41404,15.25076],[75.41468,15.24294],[75.41604,15.23436]]]}}]}