{"type":"FeatureCollection","features":[{"type":"Feature","properties":{"unitId":518,"unitName":"Bhagamandala PS"},"geometry":{"type":"Polygon","coordinates":[[[75.42603,12.47134],[75.42736,12.47063],[75.42952,12.47091],[75.43251,12.46969],[75.4333,12.47012],[75.43554,12.47003],[75.43786,12.46884],[75.44024,12.46832],[75.44337,12.46635],[75.44532,12.4666],[75.45317,12.46453],[75.4534,12.46341],[75.45559,12.46136],[75.45621,12.45714],[75.45941,12.45664],[75.46173,12.45749],[75.46245,12.45632],[75.46438,12.45518],[75.46639,12.4563],[75.46798,12.45887],[75.46791,12.46332],[75.4693,12.46744],[75.47015,12.46713],[75.4739,12.46438],[75.4736,12.46363],[75.47469,12.46247],[75.4743,12.46125],[75.4748,12.46107],[75.47613,12.46248],[75.47872,12.45866],[75.48302,12.45421],[75.4904,12.44821],[75.50026,12.44144],[75.50544,12.4351],[75.50795,12.43265],[75.51052,12.43104],[75.51355,12.43002],[75.51808,12.43014],[75.52913,12.43629],[75.53078,12.43611],[75.53346,12.43497],[75.53596,12.43618],[75.53727,12.43616],[75.53883,12.43523],[75.54006,12.43274],[75.54109,12.42481],[75.54172,12.42383],[75.54278,12.42396],[75.5456,12.42582],[75.54761,12.42815],[75.55016,12.4298],[75.5525,12.42884],[75.55347,12.4293],[75.55319,12.43016],[75.55023,12.43324],[75.55043,12.43396],[75.55077,12.43348],[75.55216,12.43376],[75.55402,12.43332],[75.55605,12.43377],[75.55763,12.43243],[75.56179,12.43186],[75.56403,12.4326],[75.56817,12.42974],[75.57193,12.42967],[75.57395,12.43059],[75.57635,12.43272],[75.57862,12.43524],[75.57856,12.43691],[75.58198,12.44051],[75.58372,12.44121],[75.58379,12.43962],[75.58581,12.43799],[75.58481,12.4358],[75.58508,12.43517],[75.58461,12.43368],[75.58509,12.43261],[75.58815,12.43229],[75.59505,12.43014],[75.59675,12.4284],[75.60286,12.42413],[75.60593,12.42273],[75.61045,12.41811],[75.61145,12.41626],[75.62103,12.41016],[75.62871,12.40042],[75.63163,12.39769],[75.63595,12.39495],[75.63761,12.39206],[75.63979,12.38665],[75.64007,12.38486],[75.64116,12.38324],[75.64432,12.38165],[75.6464,12.38165],[75.64109,12.37376],[75.64052,12.37248],[75.64025,12.36907],[75.6427,12.36957],[75.64327,12.36855],[75.64274,12.36706],[75.64299,12.3659],[75.6426,12.36554],[75.64342,12.36462],[75.64432,12.36482],[75.644,12.36609],[75.64642,12.36731],[75.64715,12.36862],[75.64788,12.36897],[75.64656,12.37062],[75.64657,12.3731],[75.64822,12.37271],[75.64841,12.37159],[75.65155,12.37186],[75.65138,12.37141],[75.64864,12.37075],[75.64813,12.36937],[75.65068,12.36727],[75.65247,12.36732],[75.65326,12.36525],[75.65305,12.36415],[75.6539,12.3632],[75.65306,12.35922],[75.65551,12.35902],[75.65565,12.35832],[75.65349,12.35852],[75.65373,12.35731],[75.65253,12.35712],[75.65329,12.35617],[75.65284,12.35518],[75.65485,12.35445],[75.65433,12.35333],[75.65294,12.35384],[75.65148,12.35329],[75.65243,12.35227],[75.65119,12.35115],[75.65043,12.352],[75.64951,12.35211],[75.64878,12.35128],[75.64944,12.35032],[75.64809,12.34903],[75.64624,12.34951],[75.64669,12.34871],[75.64491,12.34733],[75.64284,12.34781],[75.643,12.3471],[75.64418,12.34688],[75.64443,12.34612],[75.64371,12.34478],[75.64391,12.34399],[75.64331,12.34426],[75.64242,12.34073],[75.64176,12.34091],[75.64024,12.33874],[75.63908,12.33986],[75.63822,12.33966],[75.63837,12.33682],[75.63766,12.33679],[75.63773,12.33489],[75.63664,12.33323],[75.63881,12.33093],[75.6399,12.33058],[75.6406,12.3305],[75.64177,12.33204],[75.64287,12.33251],[75.64397,12.33033],[75.6422,12.32877],[75.63952,12.3275],[75.6375,12.32739],[75.62692,12.33217],[75.62531,12.3327],[75.62366,12.33261],[75.62246,12.33179],[75.62243,12.3309],[75.62383,12.32827],[75.6238,12.32728],[75.61268,12.32833],[75.60656,12.33031],[75.60486,12.33158],[75.60529,12.32951],[75.60401,12.3303],[75.6009,12.32963],[75.6003,12.32878],[75.6004,12.32737],[75.59909,12.32569],[75.59845,12.32678],[75.59866,12.32835],[75.59824,12.32878],[75.59439,12.326],[75.59224,12.32619],[75.59143,12.32702],[75.58746,12.32719],[75.58605,12.32832],[75.58619,12.329],[75.58309,12.33015],[75.58005,12.32953],[75.57642,12.32792],[75.57283,12.32474],[75.5715,12.32283],[75.57009,12.322],[75.56719,12.32175],[75.56153,12.32265],[75.55931,12.32207],[75.55646,12.31938],[75.55366,12.31531],[75.55063,12.30943],[75.55079,12.30724],[75.5613,12.29556],[75.56514,12.29335],[75.57065,12.2914],[75.57406,12.29099],[75.57773,12.28916],[75.58639,12.28143],[75.587,12.28017],[75.58012,12.26975],[75.57797,12.26413],[75.57698,12.26266],[75.5749,12.26099],[75.57031,12.26068],[75.56552,12.25869],[75.56534,12.25501],[75.56376,12.25658],[75.56013,12.2562],[75.55661,12.25476],[75.54237,12.2651],[75.54079,12.26557],[75.53918,12.26448],[75.53717,12.26584],[75.53451,12.26586],[75.53387,12.26634],[75.52773,12.26626],[75.5216,12.26268],[75.5192,12.26019],[75.51342,12.25837],[75.51227,12.25839],[75.51185,12.25793],[75.51157,12.26097],[75.50556,12.26568],[75.50646,12.26846],[75.50506,12.27187],[75.49916,12.27279],[75.49653,12.2722],[75.49486,12.27257],[75.49359,12.27346],[75.49148,12.27849],[75.48972,12.28026],[75.48859,12.28317],[75.48678,12.28506],[75.4868,12.28782],[75.48604,12.28963],[75.48122,12.29268],[75.47932,12.29586],[75.47548,12.29627],[75.47234,12.29836],[75.47118,12.29942],[75.47049,12.30114],[75.46391,12.29908],[75.46069,12.29521],[75.45967,12.29475],[75.45055,12.2965],[75.44603,12.298],[75.44146,12.29693],[75.43671,12.29878],[75.43304,12.29779],[75.43133,12.29915],[75.4296,12.29942],[75.42813,12.29887],[75.4267,12.29616],[75.42383,12.29583],[75.4224,12.2951],[75.4209,12.29206],[75.41742,12.29229],[75.41416,12.29125],[75.41397,12.29293],[75.41924,12.2955],[75.42252,12.29941],[75.42495,12.30067],[75.42534,12.30196],[75.42436,12.30353],[75.42839,12.3048],[75.42879,12.30772],[75.43163,12.30843],[75.43249,12.3093],[75.43224,12.31033],[75.43149,12.31096],[75.43011,12.31141],[75.42735,12.31129],[75.42594,12.31365],[75.42354,12.31479],[75.42209,12.31831],[75.42048,12.31951],[75.42001,12.32478],[75.41892,12.32721],[75.41886,12.32949],[75.41661,12.33005],[75.41636,12.33053],[75.41609,12.33519],[75.41555,12.33662],[75.41559,12.34026],[75.41488,12.34177],[75.41119,12.34633],[75.41067,12.34766],[75.41115,12.34889],[75.41222,12.34955],[75.41576,12.35012],[75.41942,12.35653],[75.42075,12.36082],[75.42084,12.36473],[75.422,12.36793],[75.42185,12.37386],[75.41569,12.37932],[75.41325,12.3808],[75.40965,12.38006],[75.40749,12.38014],[75.40569,12.37952],[75.40419,12.38013],[75.40173,12.3829],[75.40042,12.38122],[75.39906,12.38165],[75.39749,12.38306],[75.39554,12.3858],[75.39445,12.38867],[75.39311,12.38984],[75.39085,12.39054],[75.38685,12.39276],[75.38576,12.39271],[75.38372,12.39155],[75.38211,12.39236],[75.37922,12.39283],[75.37965,12.39469],[75.37747,12.39916],[75.37595,12.39996],[75.37301,12.40042],[75.36894,12.40261],[75.36711,12.40437],[75.36532,12.40414],[75.36336,12.40245],[75.35862,12.40073],[75.35922,12.40349],[75.36019,12.40485],[75.36015,12.40632],[75.3611,12.4095],[75.36356,12.41212],[75.36346,12.41368],[75.36292,12.41395],[75.36214,12.4163],[75.36353,12.42015],[75.36426,12.42097],[75.36415,12.42324],[75.36552,12.4252],[75.36594,12.42707],[75.36382,12.42917],[75.36414,12.43173],[75.36652,12.43511],[75.36658,12.43693],[75.36613,12.43718],[75.36673,12.43931],[75.36627,12.4401],[75.36648,12.44098],[75.36537,12.44165],[75.36576,12.44301],[75.36513,12.44384],[75.36358,12.44422],[75.36393,12.44554],[75.36236,12.44828],[75.36321,12.45028],[75.36561,12.45054],[75.36879,12.4491],[75.36978,12.4494],[75.37042,12.45112],[75.37241,12.45189],[75.37417,12.45054],[75.37553,12.45119],[75.37974,12.44992],[75.38045,12.4505],[75.38125,12.45298],[75.38362,12.45269],[75.38602,12.45478],[75.38685,12.45466],[75.38843,12.45284],[75.39077,12.45252],[75.39097,12.45137],[75.3904,12.45031],[75.39074,12.44881],[75.39208,12.44854],[75.39471,12.44916],[75.39632,12.45063],[75.39763,12.45358],[75.40186,12.45441],[75.4068,12.45665],[75.40876,12.45701],[75.41009,12.45865],[75.41275,12.45951],[75.41447,12.46238],[75.41535,12.46673],[75.41619,12.46822],[75.41969,12.47028],[75.42215,12.47063],[75.42509,12.47193],[75.42603,12.47134]]]}},{"type":"Feature","properties":{"unitId":519,"unitName":"Madikeri Rural PS"},"geometry":{"type":"MultiPolygon","coordinates":[[[[75.68126,12.60479],[75.68351,12.60516],[75.68808,12.60752],[75.69091,12.60261],[75.69335,12.6023],[75.69511,12.60112],[75.70148,12.60143],[75.70353,12.60216],[75.70543,12.60197],[75.707,12.59964],[75.70862,12.59311],[75.71427,12.59556],[75.71921,12.59621],[75.72015,12.5957],[75.72238,12.59153],[75.7319,12.5913],[75.73268,12.58518],[75.7339,12.58304],[75.73145,12.57521],[75.73259,12.57216],[75.73485,12.56833],[75.73581,12.56404],[75.73722,12.562],[75.737,12.56082],[75.73275,12.55697],[75.72649,12.55298],[75.7257,12.55109],[75.72102,12.5504],[75.71841,12.54786],[75.71799,12.54698],[75.71806,12.54486],[75.71747,12.54366],[75.71623,12.5424],[75.71304,12.53721],[75.71366,12.53331],[75.71478,12.5333],[75.71804,12.53492],[75.72281,12.53544],[75.72611,12.53463],[75.72742,12.53576],[75.72921,12.53542],[75.73003,12.53608],[75.732,12.53596],[75.73323,12.53647],[75.73669,12.53945],[75.73913,12.54037],[75.73969,12.54177],[75.74257,12.54262],[75.74814,12.53999],[75.75303,12.54004],[75.75682,12.54085],[75.75749,12.53944],[75.75937,12.53754],[75.75969,12.53552],[75.76164,12.53182],[75.76382,12.52988],[75.7669,12.52503],[75.76773,12.52459],[75.769,12.52199],[75.7683,12.52145],[75.76822,12.52],[75.77123,12.51423],[75.77488,12.50925],[75.77661,12.50538],[75.77863,12.50276],[75.77956,12.50048],[75.77911,12.49803],[75.77995,12.49523],[75.78113,12.49297],[75.78231,12.49275],[75.78433,12.4908],[75.78491,12.48888],[75.7848,12.48667],[75.78542,12.48656],[75.78499,12.486],[75.78601,12.48487],[75.78498,12.48373],[75.78338,12.48361],[75.78202,12.47947],[75.78011,12.47935],[75.77753,12.47813],[75.77765,12.47681],[75.77576,12.47424],[75.7741,12.47343],[75.77339,12.47144],[75.77152,12.46987],[75.77284,12.4677],[75.77349,12.46431],[75.77501,12.46321],[75.7763,12.45957],[75.78154,12.45526],[75.7814,12.45442],[75.77944,12.45379],[75.77801,12.45128],[75.77895,12.44656],[75.77964,12.44582],[75.78294,12.4444],[75.78304,12.44173],[75.78375,12.44106],[75.78473,12.44111],[75.78666,12.44231],[75.78805,12.44192],[75.78866,12.44091],[75.78881,12.43908],[75.78723,12.43667],[75.78784,12.43478],[75.78705,12.43257],[75.78723,12.43137],[75.78833,12.43027],[75.79249,12.42861],[75.79408,12.42736],[75.79403,12.42637],[75.79227,12.42333],[75.7888,12.4195],[75.78827,12.41775],[75.7871,12.41609],[75.78647,12.41296],[75.78692,12.41193],[75.78892,12.41],[75.78902,12.40642],[75.79011,12.40523],[75.7908,12.40326],[75.79291,12.4024],[75.7959,12.39866],[75.7993,12.39961],[75.80018,12.39901],[75.80016,12.39342],[75.79936,12.39202],[75.8113,12.39616],[75.81442,12.39861],[75.82034,12.40219],[75.82602,12.40425],[75.83047,12.40529],[75.83345,12.40462],[75.83556,12.40144],[75.83826,12.39921],[75.84,12.39807],[75.84221,12.39741],[75.84614,12.39724],[75.8503,12.39929],[75.85595,12.40099],[75.86631,12.39658],[75.86955,12.39198],[75.86964,12.39143],[75.8635,12.38458],[75.86124,12.37579],[75.86556,12.37376],[75.87194,12.37288],[75.87488,12.37092],[75.87912,12.36421],[75.87481,12.35786],[75.87354,12.35672],[75.86718,12.35333],[75.85605,12.34946],[75.85431,12.3497],[75.86056,12.34409],[75.8653,12.34255],[75.87347,12.33773],[75.88253,12.33612],[75.87189,12.33224],[75.86771,12.32895],[75.86194,12.32317],[75.86033,12.32267],[75.85005,12.32428],[75.84586,12.32438],[75.84255,12.32361],[75.84315,12.32504],[75.84305,12.32649],[75.84476,12.32841],[75.84367,12.33015],[75.84298,12.33049],[75.83947,12.32897],[75.83938,12.3293],[75.83771,12.3288],[75.83735,12.3299],[75.83606,12.33127],[75.83451,12.3314],[75.83345,12.33256],[75.8318,12.33333],[75.83106,12.333],[75.83054,12.33191],[75.82983,12.33199],[75.82597,12.33381],[75.82411,12.33333],[75.82356,12.33517],[75.82106,12.33492],[75.81936,12.33337],[75.81848,12.33002],[75.81635,12.32781],[75.81667,12.32682],[75.81617,12.32554],[75.81798,12.31729],[75.81951,12.31331],[75.81649,12.31008],[75.81502,12.30322],[75.81209,12.30092],[75.81065,12.30054],[75.8076,12.30067],[75.80704,12.30021],[75.80795,12.29817],[75.80961,12.29621],[75.81049,12.29322],[75.8101,12.29218],[75.80502,12.2913],[75.80442,12.29193],[75.80388,12.29557],[75.8032,12.29658],[75.79854,12.29819],[75.79691,12.30113],[75.79563,12.30227],[75.79472,12.30262],[75.794,12.3017],[75.79119,12.3023],[75.78909,12.29923],[75.78622,12.29688],[75.78271,12.29648],[75.78182,12.29565],[75.78018,12.29314],[75.77672,12.28524],[75.77509,12.28435],[75.77374,12.2842],[75.7712,12.27745],[75.76915,12.27571],[75.76637,12.27591],[75.76106,12.2779],[75.75988,12.27976],[75.75991,12.28216],[75.75907,12.28287],[75.75761,12.28191],[75.75526,12.28158],[75.75386,12.2805],[75.75184,12.27996],[75.75166,12.27916],[75.75243,12.27662],[75.75209,12.27563],[75.75141,12.27565],[75.74852,12.28167],[75.74457,12.28608],[75.74131,12.28858],[75.73903,12.28836],[75.74011,12.29007],[75.74197,12.29169],[75.74193,12.29648],[75.74262,12.29881],[75.74247,12.2996],[75.74196,12.29891],[75.74104,12.30059],[75.7394,12.29862],[75.73751,12.29778],[75.7327,12.29712],[75.72995,12.29599],[75.72655,12.29584],[75.72308,12.29852],[75.71639,12.29938],[75.71235,12.30546],[75.71083,12.30665],[75.71038,12.30868],[75.70907,12.31077],[75.70948,12.31077],[75.70976,12.31294],[75.71074,12.31402],[75.71013,12.3162],[75.71078,12.31631],[75.71014,12.31935],[75.7104,12.32099],[75.71168,12.32199],[75.71204,12.32369],[75.71346,12.324],[75.71381,12.32455],[75.71574,12.32381],[75.7168,12.32497],[75.71739,12.32483],[75.71759,12.32548],[75.72066,12.32542],[75.72085,12.32705],[75.72011,12.32819],[75.7188,12.32755],[75.71803,12.32789],[75.71868,12.32868],[75.71865,12.32975],[75.72132,12.32954],[75.71946,12.33061],[75.72278,12.33309],[75.72464,12.335],[75.72456,12.3354],[75.72929,12.33418],[75.73131,12.33228],[75.73421,12.3341],[75.73453,12.3325],[75.73567,12.33205],[75.7365,12.33078],[75.7386,12.33217],[75.73826,12.33356],[75.73872,12.33559],[75.73786,12.33727],[75.73683,12.34227],[75.73849,12.34436],[75.73466,12.34737],[75.73355,12.34754],[75.73318,12.34663],[75.72986,12.34675],[75.72848,12.34815],[75.72641,12.34737],[75.72492,12.34874],[75.72382,12.34884],[75.72186,12.35006],[75.71788,12.34748],[75.71408,12.3471],[75.71215,12.34889],[75.71063,12.34947],[75.70946,12.35128],[75.70883,12.351],[75.70654,12.35256],[75.70482,12.35223],[75.70487,12.35106],[75.70335,12.34985],[75.7031,12.35016],[75.70251,12.34889],[75.70178,12.34852],[75.69873,12.34943],[75.69738,12.35029],[75.69614,12.35201],[75.69125,12.35017],[75.68883,12.35038],[75.68592,12.35169],[75.68365,12.35102],[75.68289,12.3513],[75.68208,12.35181],[75.68259,12.35255],[75.68217,12.35346],[75.6829,12.3555],[75.68162,12.35581],[75.68064,12.35547],[75.6805,12.3575],[75.67971,12.35857],[75.67773,12.35754],[75.6769,12.35804],[75.67797,12.36046],[75.6803,12.3631],[75.67807,12.3649],[75.67798,12.36596],[75.67725,12.3666],[75.67742,12.36792],[75.67678,12.3682],[75.67657,12.36997],[75.67528,12.37109],[75.67576,12.37192],[75.67731,12.37213],[75.67856,12.37461],[75.68072,12.37697],[75.68017,12.37782],[75.67789,12.37825],[75.67594,12.37784],[75.6754,12.38052],[75.67442,12.38107],[75.67329,12.37886],[75.67235,12.37954],[75.67084,12.37824],[75.66945,12.3796],[75.66825,12.37983],[75.66774,12.37901],[75.66663,12.38041],[75.66393,12.38066],[75.6632,12.38185],[75.66157,12.38258],[75.65926,12.38222],[75.65921,12.38293],[75.65864,12.3833],[75.65641,12.38214],[75.65259,12.38231],[75.65166,12.3831],[75.6508,12.38643],[75.64976,12.38744],[75.64953,12.38505],[75.64878,12.38356],[75.65018,12.38204],[75.65279,12.38059],[75.64697,12.38165],[75.64432,12.38165],[75.64233,12.38234],[75.64045,12.384],[75.63761,12.39206],[75.63595,12.39495],[75.63163,12.39769],[75.62871,12.40042],[75.62103,12.41016],[75.61145,12.41626],[75.61045,12.41811],[75.60593,12.42273],[75.60286,12.42413],[75.59675,12.4284],[75.59505,12.43014],[75.58815,12.43229],[75.58509,12.43261],[75.58461,12.43368],[75.58508,12.43517],[75.58481,12.4358],[75.58581,12.43799],[75.58379,12.43962],[75.58372,12.44121],[75.58198,12.44051],[75.57856,12.43691],[75.57862,12.43524],[75.57635,12.43272],[75.57395,12.43059],[75.57193,12.42967],[75.56817,12.42974],[75.56403,12.4326],[75.56179,12.43186],[75.55763,12.43243],[75.55605,12.43377],[75.55402,12.43332],[75.55216,12.43376],[75.55077,12.43348],[75.55043,12.43396],[75.55023,12.43324],[75.55319,12.43016],[75.55347,12.4293],[75.5525,12.42884],[75.55016,12.4298],[75.54761,12.42815],[75.5456,12.42582],[75.54278,12.42396],[75.54172,12.42383],[75.54109,12.42481],[75.54006,12.43274],[75.53883,12.43523],[75.53727,12.43616],[75.53596,12.43618],[75.53346,12.43497],[75.53078,12.43611],[75.52913,12.43629],[75.51808,12.43014],[75.51355,12.43002],[75.51052,12.43104],[75.50795,12.43265],[75.50544,12.4351],[75.50026,12.44144],[75.4904,12.44821],[75.48302,12.45421],[75.47872,12.45866],[75.47568,12.46325],[75.47727,12.46484],[75.47763,12.46645],[75.47946,12.46675],[75.48017,12.46818],[75.48141,12.46782],[75.48074,12.46688],[75.48071,12.46548],[75.4822,12.46544],[75.48513,12.46163],[75.48716,12.46164],[75.48977,12.45989],[75.49248,12.46079],[75.4929,12.46256],[75.49151,12.46316],[75.49158,12.46466],[75.48924,12.46529],[75.49083,12.46537],[75.4928,12.47005],[75.49279,12.47146],[75.49599,12.47403],[75.49644,12.47711],[75.49731,12.47861],[75.49725,12.48008],[75.49593,12.48077],[75.49453,12.48398],[75.49584,12.48498],[75.49688,12.48488],[75.50062,12.48622],[75.50278,12.48795],[75.50418,12.48739],[75.50586,12.48839],[75.50831,12.48805],[75.50958,12.48839],[75.51049,12.48959],[75.51428,12.49045],[75.51607,12.49134],[75.52127,12.49232],[75.52169,12.49149],[75.52314,12.49096],[75.52656,12.49301],[75.52871,12.49314],[75.53043,12.49611],[75.53087,12.49771],[75.53048,12.49842],[75.53107,12.49955],[75.53226,12.49674],[75.53357,12.4953],[75.53747,12.49462],[75.54085,12.49506],[75.54737,12.49208],[75.55076,12.49326],[75.55202,12.49325],[75.55423,12.49219],[75.5564,12.48949],[75.55967,12.48952],[75.56016,12.48807],[75.5612,12.48716],[75.56602,12.48619],[75.56616,12.49402],[75.56555,12.49413],[75.56515,12.49331],[75.56482,12.49508],[75.55613,12.49816],[75.55584,12.49953],[75.55706,12.50274],[75.55848,12.50347],[75.55997,12.50535],[75.56017,12.50643],[75.56144,12.50662],[75.56183,12.50824],[75.56281,12.5086],[75.5634,12.51046],[75.56427,12.51062],[75.56559,12.51176],[75.56752,12.51098],[75.57015,12.51138],[75.57599,12.51578],[75.57772,12.51879],[75.5807,12.51929],[75.58104,12.52063],[75.5802,12.52263],[75.58173,12.52382],[75.58269,12.52705],[75.58522,12.52859],[75.58642,12.53069],[75.59307,12.53804],[75.59516,12.53194],[75.59587,12.52805],[75.59991,12.52649],[75.60249,12.52306],[75.60576,12.52118],[75.60589,12.51719],[75.60522,12.51404],[75.60559,12.51273],[75.60621,12.51228],[75.61209,12.51157],[75.61486,12.51034],[75.61975,12.51366],[75.6204,12.51453],[75.62383,12.51629],[75.62691,12.52123],[75.6278,12.5211],[75.62824,12.51913],[75.63078,12.5204],[75.63026,12.51911],[75.63295,12.52152],[75.63345,12.52312],[75.63233,12.52505],[75.63324,12.52599],[75.63342,12.52766],[75.63622,12.52901],[75.63906,12.53479],[75.64143,12.53765],[75.64369,12.53846],[75.64424,12.53921],[75.65111,12.54015],[75.65184,12.54065],[75.65346,12.53977],[75.65543,12.54088],[75.65632,12.54256],[75.66017,12.54349],[75.66219,12.5458],[75.66636,12.54659],[75.66667,12.54765],[75.66824,12.54828],[75.66877,12.54947],[75.67045,12.55028],[75.67012,12.55798],[75.66844,12.56092],[75.66831,12.56546],[75.6664,12.56703],[75.66536,12.56871],[75.66298,12.56992],[75.66356,12.57108],[75.66745,12.57218],[75.6677,12.57271],[75.66734,12.57414],[75.66536,12.57612],[75.66456,12.57552],[75.66338,12.57555],[75.6619,12.57994],[75.66089,12.58037],[75.66257,12.58349],[75.66344,12.58386],[75.66362,12.58526],[75.66351,12.58658],[75.66264,12.58786],[75.66272,12.59066],[75.66196,12.59256],[75.66059,12.59393],[75.66028,12.596],[75.66528,12.59962],[75.66599,12.6022],[75.66801,12.60523],[75.67081,12.60678],[75.67373,12.60759],[75.6749,12.60862],[75.67569,12.60858],[75.67751,12.60647],[75.68126,12.60479]],[[75.72163,12.44092],[75.72017,12.43895],[75.71991,12.43941],[75.71846,12.43818],[75.71773,12.43814],[75.71682,12.43915],[75.71055,12.4399],[75.70976,12.4368],[75.70796,12.43535],[75.70785,12.43473],[75.70887,12.43078],[75.70872,12.4296],[75.70834,12.43022],[75.70757,12.43034],[75.71228,12.4269],[75.71385,12.42518],[75.71609,12.42042],[75.71619,12.41666],[75.71695,12.41385],[75.72209,12.41232],[75.72373,12.41114],[75.72918,12.40675],[75.7347,12.40102],[75.73553,12.40239],[75.73545,12.40441],[75.73686,12.40403],[75.73716,12.40586],[75.73835,12.40508],[75.74291,12.40685],[75.74388,12.40797],[75.74621,12.4076],[75.7473,12.40861],[75.75176,12.40945],[75.75265,12.40918],[75.75491,12.41015],[75.75555,12.40984],[75.75778,12.41116],[75.75756,12.41525],[75.7558,12.41686],[75.75545,12.41793],[75.75414,12.41769],[75.75326,12.41805],[75.75331,12.41874],[75.75174,12.41916],[75.74898,12.42096],[75.74941,12.42321],[75.75282,12.42571],[75.75314,12.42675],[75.7528,12.42749],[75.75376,12.42821],[75.7533,12.42912],[75.75356,12.43163],[75.75041,12.43334],[75.74932,12.43307],[75.74807,12.43178],[75.74784,12.43271],[75.7464,12.43206],[75.74583,12.43289],[75.74432,12.43209],[75.74453,12.43268],[75.74409,12.43325],[75.7429,12.43342],[75.74254,12.43392],[75.74243,12.43497],[75.74349,12.4382],[75.74171,12.43815],[75.74088,12.43893],[75.73984,12.44085],[75.73981,12.44352],[75.73825,12.44265],[75.73703,12.44098],[75.73593,12.44067],[75.73503,12.43887],[75.73433,12.43922],[75.73397,12.44012],[75.73299,12.43977],[75.73163,12.44089],[75.72777,12.44015],[75.72572,12.4419],[75.7243,12.44224],[75.72448,12.44301],[75.7233,12.44358],[75.72163,12.44092]]],[[[75.44005,12.5277],[75.44048,12.52733],[75.44098,12.52792],[75.44171,12.52719],[75.44163,12.5257],[75.44299,12.52272],[75.44723,12.52132],[75.44735,12.52075],[75.44649,12.51934],[75.44717,12.51875],[75.45022,12.51984],[75.45132,12.51922],[75.45143,12.51777],[75.45251,12.51578],[75.45472,12.51412],[75.45673,12.51339],[75.45789,12.51548],[75.45771,12.51649],[75.45927,12.51629],[75.45936,12.51403],[75.45877,12.51333],[75.45905,12.51224],[75.46108,12.51081],[75.4604,12.50921],[75.45875,12.50828],[75.45594,12.50996],[75.45754,12.50709],[75.45924,12.50675],[75.45961,12.50417],[75.46059,12.50277],[75.46177,12.50224],[75.4656,12.50192],[75.46666,12.50085],[75.46825,12.50076],[75.47165,12.49917],[75.46891,12.49512],[75.46847,12.4938],[75.46864,12.49247],[75.4676,12.49103],[75.46533,12.48912],[75.46223,12.48863],[75.45991,12.48615],[75.46123,12.48551],[75.46196,12.48388],[75.46057,12.48324],[75.45957,12.48202],[75.45981,12.47992],[75.45922,12.47911],[75.45918,12.47482],[75.46274,12.47068],[75.46596,12.46954],[75.46723,12.46819],[75.4693,12.46744],[75.46791,12.46332],[75.46798,12.45887],[75.46639,12.4563],[75.46438,12.45518],[75.46245,12.45632],[75.46173,12.45749],[75.45941,12.45664],[75.45621,12.45714],[75.45559,12.46136],[75.4534,12.46341],[75.45317,12.46453],[75.44532,12.4666],[75.44337,12.46635],[75.44024,12.46832],[75.43786,12.46884],[75.43554,12.47003],[75.4333,12.47012],[75.43251,12.46969],[75.42952,12.47091],[75.42736,12.47063],[75.42603,12.47134],[75.42519,12.47187],[75.42481,12.47504],[75.42058,12.47993],[75.42116,12.48395],[75.42081,12.48864],[75.41877,12.49085],[75.41844,12.49243],[75.41818,12.49213],[75.41668,12.49267],[75.41667,12.49567],[75.41816,12.49553],[75.4174,12.49663],[75.41764,12.49754],[75.4172,12.49863],[75.41642,12.49938],[75.41553,12.49946],[75.41524,12.50006],[75.41657,12.50263],[75.41579,12.503],[75.41509,12.50467],[75.41646,12.50575],[75.41758,12.5082],[75.41938,12.50833],[75.42015,12.50964],[75.41824,12.50982],[75.41783,12.51024],[75.41838,12.51239],[75.41813,12.51455],[75.41957,12.51505],[75.42094,12.51453],[75.42135,12.51363],[75.42377,12.51477],[75.42495,12.51596],[75.4301,12.51375],[75.43083,12.5151],[75.43204,12.51552],[75.4321,12.51611],[75.43357,12.51648],[75.43309,12.51753],[75.43153,12.51809],[75.43043,12.51968],[75.43321,12.52225],[75.43296,12.52332],[75.43446,12.52484],[75.43469,12.5271],[75.43553,12.5289],[75.44005,12.5277]]],[[[75.70827,12.43449],[75.70835,12.43528],[75.70827,12.43449]]]]}},{"type":"Feature","properties":{"unitId":520,"unitName":"Napoklu PS"},"geometry":{"type":"Polygon","coordinates":[[[75.65466,12.38202],[75.65708,12.38233],[75.65864,12.3833],[75.65921,12.38293],[75.65926,12.38222],[75.66157,12.38258],[75.6632,12.38185],[75.66393,12.38066],[75.66663,12.38041],[75.66774,12.37901],[75.66825,12.37983],[75.66945,12.3796],[75.67084,12.37824],[75.67235,12.37954],[75.67329,12.37886],[75.67442,12.38107],[75.6754,12.38052],[75.67594,12.37784],[75.67789,12.37825],[75.68017,12.37782],[75.68072,12.37697],[75.67856,12.37461],[75.67731,12.37213],[75.67576,12.37192],[75.67528,12.37109],[75.67657,12.36997],[75.67678,12.3682],[75.67742,12.36792],[75.67725,12.3666],[75.67798,12.36596],[75.67807,12.3649],[75.6803,12.3631],[75.67797,12.36046],[75.6769,12.35804],[75.67773,12.35754],[75.67971,12.35857],[75.6805,12.3575],[75.68064,12.35547],[75.68162,12.35581],[75.6829,12.3555],[75.68217,12.35346],[75.68259,12.35255],[75.68208,12.35181],[75.68289,12.3513],[75.68365,12.35102],[75.68592,12.35169],[75.68883,12.35038],[75.69125,12.35017],[75.69614,12.35201],[75.69738,12.35029],[75.69873,12.34943],[75.70178,12.34852],[75.70251,12.34889],[75.7031,12.35016],[75.70335,12.34985],[75.70487,12.35106],[75.70482,12.35223],[75.70714,12.35249],[75.70883,12.351],[75.70946,12.35128],[75.71063,12.34947],[75.71215,12.34889],[75.71408,12.3471],[75.71788,12.34748],[75.72186,12.35006],[75.72382,12.34884],[75.72492,12.34874],[75.72641,12.34737],[75.72848,12.34815],[75.72986,12.34675],[75.73318,12.34663],[75.73355,12.34754],[75.73466,12.34737],[75.73638,12.34568],[75.73808,12.34493],[75.73849,12.34436],[75.73683,12.34227],[75.73786,12.33727],[75.73872,12.33559],[75.73826,12.33356],[75.7386,12.33217],[75.7365,12.33078],[75.73567,12.33205],[75.73453,12.3325],[75.73421,12.3341],[75.73131,12.33228],[75.72929,12.33418],[75.72456,12.3354],[75.72464,12.335],[75.72278,12.33309],[75.71946,12.33061],[75.72132,12.32954],[75.71865,12.32975],[75.71868,12.32868],[75.71803,12.32789],[75.7188,12.32755],[75.72011,12.32819],[75.72085,12.32705],[75.72066,12.32542],[75.71759,12.32548],[75.71739,12.32483],[75.7168,12.32497],[75.71574,12.32381],[75.71381,12.32455],[75.71346,12.324],[75.71181,12.32342],[75.71168,12.32199],[75.7104,12.32099],[75.71008,12.3201],[75.71078,12.31631],[75.71013,12.3162],[75.71074,12.31402],[75.70976,12.31294],[75.70948,12.31077],[75.70907,12.31077],[75.71038,12.30868],[75.71083,12.30665],[75.71235,12.30546],[75.71639,12.29938],[75.72308,12.29852],[75.72571,12.29611],[75.72752,12.29576],[75.72995,12.29599],[75.7327,12.29712],[75.73751,12.29778],[75.7394,12.29862],[75.74104,12.30059],[75.74196,12.29891],[75.74247,12.2996],[75.74262,12.29809],[75.7419,12.29603],[75.74197,12.29169],[75.74011,12.29007],[75.73903,12.28836],[75.74131,12.28858],[75.74551,12.28502],[75.74526,12.28352],[75.74367,12.28158],[75.73932,12.27937],[75.73777,12.27724],[75.73579,12.27554],[75.73319,12.27648],[75.73061,12.27589],[75.7295,12.27413],[75.72792,12.27338],[75.72698,12.27228],[75.72696,12.27134],[75.7281,12.26899],[75.72644,12.2682],[75.72612,12.26728],[75.72521,12.26721],[75.72445,12.26653],[75.72437,12.26381],[75.72275,12.26313],[75.72115,12.2634],[75.72121,12.26195],[75.72171,12.26119],[75.72092,12.26042],[75.72152,12.25936],[75.72103,12.25873],[75.72021,12.25913],[75.72009,12.25849],[75.72066,12.25856],[75.71977,12.25595],[75.71832,12.256],[75.7174,12.25499],[75.71819,12.25399],[75.71785,12.25287],[75.71857,12.2519],[75.71743,12.25102],[75.71701,12.24923],[75.71578,12.24876],[75.71598,12.24683],[75.71613,12.24617],[75.71728,12.24629],[75.71764,12.24955],[75.71878,12.25057],[75.72,12.25035],[75.72047,12.24575],[75.7221,12.24466],[75.72081,12.24303],[75.72238,12.24245],[75.72363,12.24452],[75.72463,12.2443],[75.72417,12.24333],[75.72518,12.24003],[75.72393,12.23956],[75.72244,12.24043],[75.71581,12.24002],[75.71548,12.23743],[75.71453,12.23644],[75.71233,12.2361],[75.71157,12.23581],[75.71103,12.23467],[75.70987,12.23467],[75.70914,12.23319],[75.70925,12.2317],[75.70867,12.23181],[75.70773,12.23081],[75.70772,12.2297],[75.70846,12.22927],[75.70889,12.22804],[75.7073,12.228],[75.70448,12.22491],[75.70257,12.22197],[75.69982,12.2203],[75.69787,12.21736],[75.69704,12.21496],[75.69453,12.21053],[75.68939,12.19751],[75.68672,12.19465],[75.68469,12.1907],[75.68152,12.1867],[75.67927,12.18145],[75.67898,12.17879],[75.67712,12.17523],[75.67118,12.16753],[75.66813,12.16448],[75.66045,12.15233],[75.65975,12.14986],[75.65087,12.14374],[75.64585,12.13762],[75.64325,12.13622],[75.64315,12.13871],[75.64256,12.13954],[75.64139,12.13963],[75.63939,12.13866],[75.63856,12.13868],[75.63799,12.13943],[75.63799,12.14029],[75.63933,12.14271],[75.63794,12.14689],[75.63642,12.14891],[75.63496,12.14938],[75.63137,12.14888],[75.62647,12.15303],[75.62407,12.15372],[75.62001,12.15665],[75.61754,12.1566],[75.61512,12.1559],[75.61242,12.15336],[75.61083,12.15285],[75.6066,12.15575],[75.60126,12.15384],[75.5982,12.1538],[75.59583,12.15449],[75.59398,12.15193],[75.59336,12.1483],[75.59251,12.14796],[75.59034,12.15279],[75.58725,12.1557],[75.58407,12.15683],[75.58309,12.15942],[75.57728,12.15797],[75.57582,12.16218],[75.57024,12.17259],[75.56889,12.17325],[75.56901,12.1751],[75.56478,12.17603],[75.56073,12.17835],[75.56007,12.17846],[75.55913,12.17783],[75.55775,12.17963],[75.55612,12.18026],[75.55315,12.18519],[75.55206,12.18542],[75.55084,12.18662],[75.54981,12.18959],[75.54989,12.19146],[75.5479,12.19351],[75.54711,12.19566],[75.54755,12.19723],[75.54475,12.19917],[75.54395,12.19823],[75.54276,12.19789],[75.54108,12.19831],[75.54016,12.19915],[75.54086,12.20104],[75.54063,12.2018],[75.5391,12.20297],[75.53562,12.2022],[75.53322,12.2039],[75.5327,12.20284],[75.53308,12.20171],[75.5317,12.20245],[75.53107,12.20416],[75.53124,12.20579],[75.53512,12.20609],[75.53893,12.21413],[75.53892,12.2152],[75.53606,12.21821],[75.52864,12.22113],[75.5266,12.22254],[75.5265,12.22341],[75.52533,12.22465],[75.52472,12.22643],[75.52374,12.22762],[75.5244,12.229],[75.5243,12.22987],[75.52006,12.23395],[75.51734,12.23478],[75.51709,12.23519],[75.51866,12.23763],[75.51782,12.2398],[75.51838,12.24211],[75.51619,12.24433],[75.51643,12.24676],[75.51411,12.24755],[75.51219,12.24954],[75.51121,12.2498],[75.5105,12.25104],[75.50983,12.25789],[75.5108,12.25751],[75.51227,12.25839],[75.51342,12.25837],[75.5192,12.26019],[75.5216,12.26268],[75.52469,12.26478],[75.52773,12.26626],[75.52962,12.26648],[75.53717,12.26584],[75.53918,12.26448],[75.54079,12.26557],[75.54237,12.2651],[75.55661,12.25476],[75.56013,12.2562],[75.56376,12.25658],[75.56534,12.25501],[75.56552,12.25869],[75.57031,12.26068],[75.5749,12.26099],[75.5757,12.26154],[75.57797,12.26413],[75.58012,12.26975],[75.587,12.28017],[75.58639,12.28143],[75.57773,12.28916],[75.57406,12.29099],[75.57065,12.2914],[75.56514,12.29335],[75.56031,12.29643],[75.55079,12.30724],[75.55063,12.30943],[75.55366,12.31531],[75.55646,12.31938],[75.55931,12.32207],[75.56153,12.32265],[75.56719,12.32175],[75.57009,12.322],[75.5715,12.32283],[75.57283,12.32474],[75.57642,12.32792],[75.58005,12.32953],[75.58309,12.33015],[75.58619,12.329],[75.58605,12.32832],[75.58746,12.32719],[75.59143,12.32702],[75.59224,12.32619],[75.59439,12.326],[75.59824,12.32878],[75.59866,12.32835],[75.59845,12.32678],[75.59909,12.32569],[75.6004,12.32737],[75.6003,12.32878],[75.6009,12.32963],[75.60401,12.3303],[75.60529,12.32951],[75.60486,12.33158],[75.60656,12.33031],[75.61268,12.32833],[75.6238,12.32728],[75.62383,12.32827],[75.62243,12.3309],[75.62246,12.33179],[75.62366,12.33261],[75.62531,12.3327],[75.62692,12.33217],[75.6375,12.32739],[75.63952,12.3275],[75.6422,12.32877],[75.64397,12.33033],[75.64287,12.33251],[75.64177,12.33204],[75.6406,12.3305],[75.6399,12.33058],[75.63881,12.33093],[75.63664,12.33323],[75.63773,12.33489],[75.63766,12.33679],[75.63837,12.33682],[75.63822,12.33966],[75.63908,12.33986],[75.64024,12.33874],[75.64176,12.34091],[75.64242,12.34073],[75.64331,12.34426],[75.64391,12.34399],[75.64371,12.34478],[75.64443,12.34612],[75.64418,12.34688],[75.643,12.3471],[75.64284,12.34781],[75.64491,12.34733],[75.64669,12.34871],[75.64624,12.34951],[75.64809,12.34903],[75.64944,12.35032],[75.64878,12.35128],[75.64951,12.35211],[75.65043,12.352],[75.65119,12.35115],[75.65243,12.35227],[75.65148,12.35329],[75.65294,12.35384],[75.65433,12.35333],[75.65485,12.35445],[75.65284,12.35518],[75.65329,12.35617],[75.65253,12.35712],[75.65373,12.35731],[75.65349,12.35852],[75.65565,12.35832],[75.65551,12.35902],[75.65306,12.35922],[75.6539,12.3632],[75.65305,12.36415],[75.65326,12.36525],[75.65247,12.36732],[75.65068,12.36727],[75.64813,12.36937],[75.64864,12.37075],[75.65138,12.37141],[75.65155,12.37186],[75.64841,12.37159],[75.64822,12.37271],[75.64657,12.3731],[75.64656,12.37062],[75.64788,12.36897],[75.64715,12.36862],[75.64642,12.36731],[75.644,12.36609],[75.64432,12.36482],[75.64342,12.36462],[75.6426,12.36554],[75.64299,12.3659],[75.64274,12.36706],[75.64327,12.36855],[75.6427,12.36957],[75.64025,12.36907],[75.64052,12.37248],[75.6464,12.38165],[75.65279,12.38059],[75.65018,12.38204],[75.64878,12.38356],[75.64953,12.38505],[75.64976,12.38744],[75.6508,12.38643],[75.65204,12.38268],[75.65466,12.38202]]]}},{"type":"Feature","properties":{"unitId":521,"unitName":"Madikeri Town PS"},"geometry":{"type":"Polygon","coordinates":[[[75.72735,12.44039],[75.73163,12.44089],[75.73299,12.43977],[75.73397,12.44012],[75.73433,12.43922],[75.73503,12.43887],[75.73593,12.44067],[75.73703,12.44098],[75.73825,12.44265],[75.73981,12.44352],[75.73984,12.44085],[75.74088,12.43893],[75.74171,12.43815],[75.74349,12.4382],[75.74243,12.43497],[75.74254,12.43392],[75.7429,12.43342],[75.74409,12.43325],[75.74453,12.43268],[75.74432,12.43209],[75.74583,12.43289],[75.7464,12.43206],[75.74784,12.43271],[75.74807,12.43178],[75.74932,12.43307],[75.75041,12.43334],[75.75356,12.43163],[75.7533,12.42912],[75.75376,12.42821],[75.7528,12.42749],[75.75314,12.42675],[75.75282,12.42571],[75.74941,12.42321],[75.74898,12.42096],[75.75174,12.41916],[75.75331,12.41874],[75.75326,12.41805],[75.75414,12.41769],[75.75545,12.41793],[75.7558,12.41686],[75.75756,12.41525],[75.75778,12.41116],[75.75555,12.40984],[75.75491,12.41015],[75.75265,12.40918],[75.75176,12.40945],[75.7473,12.40861],[75.74621,12.4076],[75.74388,12.40797],[75.74291,12.40685],[75.73835,12.40508],[75.73716,12.40586],[75.73686,12.40403],[75.73545,12.40441],[75.73553,12.40239],[75.7347,12.40102],[75.72918,12.40675],[75.72373,12.41114],[75.72209,12.41232],[75.71695,12.41385],[75.71619,12.41666],[75.71609,12.42042],[75.71385,12.42518],[75.71228,12.4269],[75.70757,12.43034],[75.70834,12.43022],[75.70872,12.4296],[75.70887,12.43078],[75.70796,12.43535],[75.70976,12.4368],[75.71055,12.4399],[75.71682,12.43915],[75.71773,12.43814],[75.71846,12.43818],[75.71991,12.43941],[75.72001,12.43892],[75.72049,12.43926],[75.7233,12.44358],[75.72448,12.44301],[75.7243,12.44224],[75.72572,12.4419],[75.72735,12.44039]],[[75.70818,12.43448],[75.70835,12.43528],[75.70818,12.43448]]]}},{"type":"Feature","properties":{"unitId":522,"unitName":"Siddapura PS"},"geometry":{"type":"Polygon","coordinates":[[[75.91962,12.38638],[75.9222,12.38548],[75.92315,12.38451],[75.92517,12.38467],[75.92697,12.38341],[75.93194,12.38207],[75.93523,12.3795],[75.9373,12.37631],[75.93944,12.37524],[75.94052,12.37356],[75.94286,12.37235],[75.94347,12.37113],[75.94801,12.37002],[75.95345,12.36545],[75.95613,12.36396],[75.95752,12.36237],[75.96235,12.3594],[75.96335,12.358],[75.96905,12.35426],[75.97038,12.35421],[75.97176,12.35323],[75.9685,12.35067],[75.96855,12.3501],[75.96579,12.34512],[75.9674,12.34367],[75.96853,12.34309],[75.96989,12.34414],[75.97284,12.3415],[75.97685,12.34052],[75.98266,12.34218],[75.98265,12.34306],[75.98333,12.34284],[75.98418,12.34232],[75.98531,12.33917],[75.98696,12.33842],[75.98889,12.33645],[75.99338,12.33628],[75.99727,12.33398],[75.99846,12.33271],[75.99893,12.33328],[76.00079,12.33234],[76.00128,12.33093],[76.00251,12.32986],[76.00062,12.32798],[75.99781,12.32641],[75.99586,12.32426],[75.99563,12.32327],[75.99384,12.32124],[75.9945,12.31878],[75.99429,12.31798],[75.99572,12.31724],[75.99706,12.31529],[75.99606,12.3115],[75.99764,12.30823],[76.00047,12.3066],[76.00229,12.30657],[76.00464,12.3055],[76.00563,12.3037],[76.00812,12.30202],[76.00835,12.30005],[76.00926,12.29879],[76.00932,12.2978],[76.01175,12.29605],[76.01393,12.29276],[76.01417,12.29214],[76.01344,12.2903],[76.01436,12.28882],[76.01284,12.28474],[76.01437,12.27858],[76.01495,12.27803],[76.0147,12.27598],[76.01543,12.27283],[76.01231,12.27076],[75.99837,12.26479],[75.99121,12.26245],[75.98304,12.25345],[75.98098,12.25426],[75.9774,12.25476],[75.97219,12.25472],[75.96994,12.25433],[75.96709,12.25209],[75.96376,12.25039],[75.95779,12.24922],[75.95456,12.24923],[75.95347,12.24858],[75.95185,12.24714],[75.95119,12.24443],[75.94848,12.24348],[75.94043,12.23817],[75.93146,12.22939],[75.92349,12.22112],[75.92113,12.21638],[75.91877,12.21379],[75.91475,12.21269],[75.91049,12.21287],[75.90751,12.2139],[75.90581,12.21378],[75.90489,12.21323],[75.90483,12.21112],[75.90624,12.2077],[75.90612,12.20259],[75.90557,12.20186],[75.9008,12.19921],[75.89548,12.19867],[75.8942,12.1977],[75.89249,12.194],[75.89213,12.18955],[75.89054,12.18775],[75.88889,12.18678],[75.88773,12.18678],[75.88516,12.18732],[75.88357,12.1884],[75.88014,12.19309],[75.87879,12.19339],[75.8787,12.1943],[75.87666,12.19724],[75.87153,12.20053],[75.87149,12.20164],[75.8752,12.21021],[75.87858,12.21549],[75.87545,12.21909],[75.87115,12.22191],[75.86952,12.22506],[75.86922,12.22693],[75.86957,12.23141],[75.87392,12.23929],[75.87358,12.24021],[75.87078,12.2422],[75.87129,12.24404],[75.88297,12.25213],[75.8856,12.25205],[75.8848,12.25346],[75.87854,12.25765],[75.87072,12.25734],[75.85898,12.25818],[75.8543,12.2607],[75.85196,12.26145],[75.84464,12.26209],[75.84692,12.26602],[75.854,12.27168],[75.85587,12.27596],[75.84774,12.28164],[75.84716,12.2825],[75.84668,12.28652],[75.83977,12.27947],[75.83085,12.27938],[75.8294,12.27903],[75.82836,12.27677],[75.82768,12.2764],[75.82291,12.27634],[75.82243,12.27349],[75.82177,12.27248],[75.81671,12.26702],[75.81436,12.26556],[75.80993,12.26406],[75.80926,12.26501],[75.80058,12.27165],[75.79848,12.2718],[75.7896,12.27058],[75.78634,12.27244],[75.7824,12.27584],[75.77661,12.28516],[75.78018,12.29314],[75.78182,12.29565],[75.78271,12.29648],[75.78622,12.29688],[75.78909,12.29923],[75.79119,12.3023],[75.794,12.3017],[75.79472,12.30262],[75.79563,12.30227],[75.79691,12.30113],[75.79854,12.29819],[75.8032,12.29658],[75.80388,12.29557],[75.80442,12.29193],[75.80502,12.2913],[75.8101,12.29218],[75.81049,12.29322],[75.80961,12.29621],[75.80795,12.29817],[75.80704,12.30021],[75.8076,12.30067],[75.81065,12.30054],[75.81209,12.30092],[75.81502,12.30322],[75.81649,12.31008],[75.81951,12.31331],[75.81798,12.31729],[75.81617,12.32554],[75.81667,12.32682],[75.81635,12.32781],[75.81848,12.33002],[75.81936,12.33337],[75.82106,12.33492],[75.82356,12.33517],[75.82411,12.33333],[75.82597,12.33381],[75.82983,12.33199],[75.83054,12.33191],[75.83106,12.333],[75.8318,12.33333],[75.83345,12.33256],[75.83451,12.3314],[75.83606,12.33127],[75.83735,12.3299],[75.83771,12.3288],[75.83938,12.3293],[75.83947,12.32897],[75.84298,12.33049],[75.84367,12.33015],[75.84476,12.32841],[75.84305,12.32649],[75.84315,12.32504],[75.84255,12.32361],[75.84586,12.32438],[75.85005,12.32428],[75.86033,12.32267],[75.86194,12.32317],[75.86771,12.32895],[75.87189,12.33224],[75.88253,12.33612],[75.87347,12.33773],[75.8653,12.34255],[75.86056,12.34409],[75.85431,12.3497],[75.85605,12.34946],[75.86718,12.35333],[75.87354,12.35672],[75.87481,12.35786],[75.87912,12.36421],[75.88577,12.36198],[75.88902,12.35924],[75.89235,12.358],[75.89426,12.35658],[75.90159,12.34602],[75.90234,12.34642],[75.90398,12.3482],[75.90501,12.35375],[75.90484,12.35582],[75.90369,12.35719],[75.90138,12.35776],[75.90051,12.35855],[75.89782,12.3671],[75.89882,12.36791],[75.90176,12.36874],[75.90564,12.37304],[75.908,12.37459],[75.91246,12.37876],[75.91617,12.38644],[75.91962,12.38638]]]}},{"type":"Feature","properties":{"unitId":523,"unitName":"Kushalanagar Rural PS"},"geometry":{"type":"Polygon","coordinates":[[[75.94919,12.59311],[75.94944,12.59229],[75.94911,12.59206],[75.9528,12.58394],[75.95296,12.58202],[75.95507,12.57571],[75.95498,12.57414],[75.9602,12.56538],[75.96158,12.56387],[75.9625,12.56119],[75.96427,12.56011],[75.96602,12.55962],[75.97191,12.56043],[75.97376,12.56213],[75.97559,12.56248],[75.97363,12.56512],[75.97273,12.57119],[75.97019,12.57426],[75.96907,12.57697],[75.97354,12.577],[75.97519,12.57615],[75.97735,12.5758],[75.98065,12.57376],[75.98298,12.57345],[75.98472,12.57402],[75.98628,12.57368],[75.98932,12.57414],[75.98774,12.57738],[75.98806,12.57901],[75.98762,12.5811],[75.99117,12.58503],[75.99086,12.58692],[75.99356,12.58832],[75.99524,12.58642],[75.99524,12.58482],[75.99632,12.58457],[75.99701,12.58373],[75.99746,12.58227],[75.99728,12.58023],[75.99825,12.57928],[75.99973,12.57901],[76.00071,12.57816],[76.00233,12.57456],[76.00413,12.57381],[76.0057,12.57424],[76.00923,12.57102],[76.00987,12.57096],[76.01114,12.57261],[76.0118,12.57265],[76.0124,12.57222],[76.01291,12.56991],[76.01424,12.56897],[76.01478,12.56978],[76.0162,12.57014],[76.01695,12.57143],[76.01764,12.57134],[76.01811,12.57091],[76.01753,12.56735],[76.01557,12.56445],[76.01231,12.56226],[76.01098,12.56038],[76.01066,12.55923],[76.01187,12.55501],[76.01,12.55484],[76.00723,12.55574],[76.00251,12.55909],[75.99971,12.55993],[75.99745,12.56221],[75.99586,12.56303],[75.99244,12.56264],[75.99103,12.56173],[75.9901,12.56043],[75.98969,12.55856],[75.99042,12.55543],[75.9914,12.55419],[75.99706,12.55082],[75.99849,12.54825],[75.99567,12.54403],[75.99339,12.54212],[75.98834,12.5454],[75.98379,12.54554],[75.98209,12.54412],[75.98133,12.541],[75.98244,12.54085],[75.98291,12.53919],[75.98585,12.53687],[75.98995,12.5312],[75.99149,12.52999],[75.99268,12.52786],[75.99331,12.52797],[75.99374,12.52259],[75.99307,12.52131],[75.9865,12.51947],[75.98005,12.52051],[75.97576,12.52023],[75.97406,12.51936],[75.97328,12.51335],[75.97206,12.51171],[75.96993,12.51042],[75.96633,12.51045],[75.96655,12.51124],[75.9632,12.51019],[75.96004,12.50673],[75.95983,12.50204],[75.9619,12.49751],[75.963,12.49703],[75.95976,12.49148],[75.95936,12.48902],[75.96127,12.48468],[75.96561,12.48509],[75.96779,12.48354],[75.96827,12.48397],[75.9687,12.48347],[75.96746,12.48251],[75.96769,12.47799],[75.9663,12.47645],[75.9654,12.47434],[75.9658,12.47371],[75.96418,12.47318],[75.96282,12.47214],[75.96217,12.47096],[75.96005,12.47067],[75.95918,12.47173],[75.95386,12.47369],[75.94902,12.47674],[75.94691,12.47665],[75.94504,12.47562],[75.94376,12.47576],[75.93812,12.47679],[75.93412,12.47794],[75.93393,12.47833],[75.93049,12.47825],[75.92797,12.47508],[75.93067,12.47469],[75.92908,12.47423],[75.92617,12.47018],[75.9262,12.4648],[75.92572,12.46308],[75.92261,12.45893],[75.92065,12.45512],[75.9215,12.45493],[75.92845,12.4485],[75.93665,12.43831],[75.93228,12.43949],[75.93076,12.43762],[75.92786,12.4379],[75.92618,12.43649],[75.92513,12.43357],[75.92556,12.4293],[75.92378,12.42813],[75.92361,12.42631],[75.9228,12.42697],[75.92294,12.42425],[75.92245,12.42269],[75.91996,12.41818],[75.91836,12.41627],[75.91741,12.41245],[75.91623,12.41064],[75.91657,12.41024],[75.91256,12.40599],[75.91049,12.40478],[75.9099,12.40206],[75.90858,12.39977],[75.91126,12.38829],[75.91289,12.38554],[75.91399,12.38228],[75.91283,12.37917],[75.908,12.37459],[75.90564,12.37304],[75.9024,12.36925],[75.90146,12.36851],[75.89847,12.36775],[75.89782,12.3671],[75.90051,12.35855],[75.90138,12.35776],[75.90369,12.35719],[75.90484,12.35582],[75.90501,12.35375],[75.90398,12.3482],[75.90324,12.34706],[75.90159,12.34602],[75.89426,12.35658],[75.89235,12.358],[75.88902,12.35924],[75.88577,12.36198],[75.87912,12.36421],[75.87488,12.37092],[75.87194,12.37288],[75.86556,12.37376],[75.86124,12.37579],[75.8635,12.38458],[75.87311,12.39556],[75.87763,12.40205],[75.88103,12.40564],[75.88367,12.40968],[75.88437,12.41296],[75.88696,12.4168],[75.88751,12.41944],[75.88723,12.42337],[75.88582,12.42658],[75.88587,12.42834],[75.88834,12.43333],[75.88939,12.438],[75.8896,12.44152],[75.88969,12.441],[75.89165,12.44135],[75.89673,12.44532],[75.90041,12.44729],[75.90124,12.4522],[75.90053,12.45453],[75.9007,12.45547],[75.90373,12.45643],[75.90585,12.45871],[75.90772,12.46589],[75.90646,12.47261],[75.90597,12.47295],[75.90384,12.47838],[75.9038,12.47972],[75.90181,12.48263],[75.90113,12.48536],[75.89921,12.48756],[75.89752,12.48727],[75.8948,12.4895],[75.8986,12.49088],[75.89932,12.49068],[75.90074,12.48909],[75.90235,12.49116],[75.90846,12.49345],[75.90431,12.5037],[75.89783,12.51669],[75.89807,12.5262],[75.90436,12.5336],[75.91295,12.53367],[75.9151,12.53417],[75.91634,12.53501],[75.91957,12.53858],[75.92013,12.54505],[75.92087,12.54658],[75.92445,12.55013],[75.92783,12.55072],[75.93277,12.55016],[75.93528,12.54933],[75.93515,12.55546],[75.93079,12.57009],[75.93082,12.57276],[75.92877,12.57975],[75.92759,12.58792],[75.92738,12.59193],[75.9312,12.59708],[75.94016,12.60437],[75.94386,12.60144],[75.94627,12.59802],[75.94696,12.59793],[75.94919,12.59311]]]}},{"type":"Feature","properties":{"unitId":524,"unitName":"Kushalnagar PS"},"geometry":{"type":"Polygon","coordinates":[[[75.93197,12.47825],[75.93393,12.47833],[75.93412,12.47794],[75.93812,12.47679],[75.94504,12.47562],[75.94691,12.47665],[75.94902,12.47674],[75.95386,12.47369],[75.95918,12.47173],[75.96005,12.47067],[75.96217,12.47096],[75.96282,12.47214],[75.96418,12.47318],[75.96911,12.47006],[75.97151,12.47043],[75.97151,12.46983],[75.96638,12.46529],[75.96706,12.45838],[75.96808,12.45463],[75.97175,12.45126],[75.97142,12.45028],[75.96977,12.4488],[75.96581,12.44945],[75.96406,12.45235],[75.96015,12.4538],[75.95485,12.45207],[75.95173,12.4522],[75.94803,12.45027],[75.94679,12.45036],[75.94481,12.44968],[75.94163,12.44684],[75.94061,12.44508],[75.9385,12.44311],[75.93665,12.43831],[75.92845,12.4485],[75.9215,12.45493],[75.92065,12.45512],[75.92261,12.45893],[75.92572,12.46308],[75.9262,12.4648],[75.92617,12.47018],[75.92908,12.47423],[75.93067,12.47469],[75.92797,12.47508],[75.93049,12.47825],[75.93197,12.47825]]]}},{"type":"Feature","properties":{"unitId":525,"unitName":"Sunticoppa PS"},"geometry":{"type":"Polygon","coordinates":[[[75.84842,12.51685],[75.85078,12.51077],[75.85085,12.50733],[75.84994,12.50454],[75.84769,12.5023],[75.84747,12.50093],[75.84814,12.49632],[75.85678,12.49655],[75.86556,12.49207],[75.86658,12.49758],[75.86754,12.49719],[75.87101,12.49897],[75.87255,12.49868],[75.8744,12.49754],[75.87533,12.49628],[75.87752,12.48996],[75.87965,12.48584],[75.88015,12.48204],[75.88082,12.48232],[75.8821,12.48089],[75.88556,12.47984],[75.8869,12.48158],[75.88865,12.48269],[75.89105,12.48626],[75.88917,12.49006],[75.8894,12.491],[75.89022,12.49147],[75.89025,12.49242],[75.8933,12.49104],[75.89738,12.48734],[75.89921,12.48756],[75.90113,12.48536],[75.90181,12.48263],[75.9038,12.47972],[75.90384,12.47838],[75.90597,12.47295],[75.90646,12.47261],[75.9071,12.46849],[75.90784,12.46679],[75.90595,12.45887],[75.90373,12.45643],[75.9007,12.45547],[75.90053,12.45453],[75.90124,12.4522],[75.90041,12.44729],[75.89673,12.44532],[75.89165,12.44135],[75.88969,12.441],[75.8896,12.44152],[75.88939,12.438],[75.88834,12.43333],[75.88587,12.42834],[75.88582,12.42658],[75.88723,12.42337],[75.88751,12.41944],[75.88696,12.4168],[75.88392,12.4121],[75.88367,12.40968],[75.88286,12.40827],[75.86964,12.39143],[75.86815,12.39433],[75.86631,12.39658],[75.85595,12.40099],[75.8503,12.39929],[75.84614,12.39724],[75.84221,12.39741],[75.84,12.39807],[75.83826,12.39921],[75.83556,12.40144],[75.83345,12.40462],[75.83047,12.40529],[75.82602,12.40425],[75.82034,12.40219],[75.81442,12.39861],[75.8113,12.39616],[75.79936,12.39202],[75.80016,12.39342],[75.80018,12.39901],[75.7993,12.39961],[75.7959,12.39866],[75.79291,12.4024],[75.7908,12.40326],[75.79011,12.40523],[75.78902,12.40642],[75.78892,12.41],[75.78692,12.41193],[75.78647,12.41296],[75.7871,12.41609],[75.78827,12.41775],[75.7888,12.4195],[75.79227,12.42333],[75.79403,12.42637],[75.79408,12.42736],[75.79249,12.42861],[75.78833,12.43027],[75.78723,12.43137],[75.78705,12.43257],[75.78784,12.43478],[75.78723,12.43667],[75.78881,12.43908],[75.78866,12.44091],[75.78805,12.44192],[75.78666,12.44231],[75.78473,12.44111],[75.78375,12.44106],[75.78304,12.44173],[75.78294,12.4444],[75.77964,12.44582],[75.77895,12.44656],[75.77801,12.45128],[75.77944,12.45379],[75.7814,12.45442],[75.78154,12.45526],[75.7763,12.45957],[75.77501,12.46321],[75.77349,12.46431],[75.77284,12.4677],[75.77152,12.46987],[75.77339,12.47144],[75.7741,12.47343],[75.77576,12.47424],[75.77765,12.47681],[75.77753,12.47813],[75.78011,12.47935],[75.78202,12.47947],[75.78216,12.48054],[75.7875,12.48295],[75.79064,12.48338],[75.79448,12.48252],[75.79678,12.48419],[75.79858,12.48692],[75.79936,12.49342],[75.79972,12.50267],[75.80044,12.50583],[75.80273,12.50953],[75.80314,12.50976],[75.80644,12.50737],[75.807,12.5044],[75.80616,12.50208],[75.80467,12.50064],[75.80373,12.49867],[75.80418,12.49762],[75.80513,12.49625],[75.80722,12.49642],[75.80744,12.49348],[75.80854,12.49205],[75.81057,12.49011],[75.81339,12.49017],[75.81569,12.48611],[75.8172,12.48507],[75.81937,12.48621],[75.81839,12.4887],[75.81909,12.4915],[75.82077,12.49448],[75.82163,12.49429],[75.82159,12.49491],[75.81796,12.49647],[75.81799,12.50275],[75.81704,12.50388],[75.81562,12.50448],[75.81608,12.50546],[75.81567,12.5097],[75.81778,12.50985],[75.81811,12.50927],[75.81905,12.51019],[75.82015,12.50968],[75.81974,12.50959],[75.81996,12.50889],[75.82048,12.50969],[75.8228,12.51031],[75.82267,12.51137],[75.82761,12.51554],[75.8302,12.516],[75.8391,12.51956],[75.84022,12.52082],[75.84141,12.52623],[75.84362,12.52414],[75.84842,12.51685]]]}},{"type":"Feature","properties":{"unitId":526,"unitName":"Shanivarasanthe PS"},"geometry":{"type":"Polygon","coordinates":[[[75.88984,12.82967],[75.89369,12.82789],[75.89731,12.82853],[75.89999,12.82784],[75.90126,12.8197],[75.90219,12.8185],[75.90459,12.81705],[75.90821,12.81673],[75.90917,12.81589],[75.91264,12.81626],[75.91601,12.81771],[75.91876,12.82011],[75.91914,12.82082],[75.9177,12.82397],[75.91753,12.82691],[75.91962,12.82766],[75.92169,12.82441],[75.92686,12.82166],[75.92522,12.81597],[75.92473,12.81102],[75.92681,12.80958],[75.92834,12.80669],[75.92992,12.80569],[75.93456,12.80664],[75.94206,12.80595],[75.94566,12.80733],[75.94816,12.80558],[75.94847,12.80042],[75.94959,12.79908],[75.95517,12.8002],[75.95619,12.80182],[75.96329,12.80292],[75.96566,12.80388],[75.9675,12.8038],[75.96719,12.80316],[75.9677,12.80301],[75.96769,12.80228],[75.96692,12.80076],[75.96653,12.79694],[75.96673,12.79343],[75.96799,12.79206],[75.969,12.7886],[75.97029,12.7872],[75.97129,12.78456],[75.97075,12.78277],[75.96817,12.78284],[75.96623,12.78032],[75.96556,12.78052],[75.96493,12.78171],[75.96233,12.78232],[75.95818,12.78215],[75.95608,12.7789],[75.95492,12.77572],[75.95453,12.77076],[75.95276,12.768],[75.95011,12.76775],[75.94621,12.76581],[75.94043,12.76763],[75.93656,12.76721],[75.93479,12.7676],[75.93269,12.76387],[75.93271,12.76257],[75.93369,12.76244],[75.93338,12.76154],[75.93496,12.75929],[75.93366,12.75771],[75.93442,12.75757],[75.93573,12.75606],[75.93787,12.75032],[75.93674,12.74734],[75.93632,12.7419],[75.93461,12.73685],[75.93492,12.73285],[75.93866,12.72743],[75.94152,12.72242],[75.94286,12.71899],[75.94491,12.71766],[75.95091,12.71678],[75.95337,12.71515],[75.95977,12.71262],[75.96372,12.71002],[75.96515,12.71028],[75.9659,12.7099],[75.96465,12.70869],[75.96402,12.70643],[75.96244,12.7056],[75.96476,12.70361],[75.96475,12.7014],[75.96393,12.69938],[75.96311,12.69901],[75.96345,12.69896],[75.96157,12.69539],[75.96136,12.69436],[75.9619,12.69433],[75.96128,12.69244],[75.95809,12.69037],[75.95922,12.68473],[75.95861,12.68269],[75.9567,12.68108],[75.95652,12.67994],[75.95596,12.67979],[75.95676,12.67924],[75.95615,12.67819],[75.95434,12.67629],[75.95164,12.67682],[75.94781,12.67586],[75.94121,12.67582],[75.94003,12.67445],[75.94145,12.67204],[75.94155,12.67099],[75.94244,12.67008],[75.94309,12.67012],[75.94278,12.66911],[75.94397,12.66903],[75.94422,12.66788],[75.94495,12.66852],[75.94593,12.66673],[75.94633,12.66694],[75.94683,12.66638],[75.94654,12.66587],[75.94734,12.66594],[75.94756,12.66401],[75.94592,12.6633],[75.94524,12.6623],[75.94361,12.66137],[75.9407,12.65789],[75.9406,12.65492],[75.93975,12.65353],[75.93878,12.64978],[75.9382,12.64384],[75.94077,12.64191],[75.94293,12.63648],[75.94057,12.63235],[75.93631,12.63024],[75.93643,12.62956],[75.93866,12.62833],[75.94013,12.62818],[75.94212,12.62838],[75.94442,12.62942],[75.94655,12.62719],[75.94941,12.62114],[75.94831,12.6191],[75.94849,12.61841],[75.94797,12.61823],[75.94802,12.61652],[75.94708,12.61374],[75.94574,12.61327],[75.94467,12.61225],[75.94021,12.61384],[75.9368,12.61584],[75.9323,12.61701],[75.9299,12.61817],[75.92722,12.62217],[75.92572,12.62185],[75.9214,12.61629],[75.91915,12.61557],[75.91847,12.61572],[75.91619,12.61842],[75.91304,12.62065],[75.90921,12.62154],[75.90748,12.62153],[75.90499,12.62065],[75.90291,12.61687],[75.90066,12.61531],[75.89637,12.61343],[75.89436,12.6114],[75.89413,12.60993],[75.89435,12.60626],[75.89534,12.60349],[75.89789,12.60065],[75.89921,12.59588],[75.90032,12.58539],[75.90025,12.58282],[75.89945,12.58203],[75.89305,12.58375],[75.89078,12.58542],[75.89001,12.58674],[75.88918,12.59157],[75.88972,12.59498],[75.88991,12.6029],[75.88895,12.60454],[75.88587,12.60752],[75.88532,12.60984],[75.8866,12.61086],[75.89109,12.61135],[75.89056,12.61452],[75.89009,12.62563],[75.89163,12.62939],[75.8919,12.63297],[75.88326,12.64305],[75.88223,12.6435],[75.87734,12.64385],[75.87638,12.64343],[75.87028,12.63733],[75.87041,12.63623],[75.86637,12.63986],[75.86196,12.64157],[75.85901,12.64167],[75.85544,12.64311],[75.85667,12.6446],[75.85744,12.65053],[75.85703,12.65183],[75.84995,12.66179],[75.85038,12.67035],[75.85094,12.66969],[75.85126,12.67045],[75.85264,12.66961],[75.86063,12.67122],[75.86395,12.67296],[75.86472,12.67232],[75.86723,12.67436],[75.8723,12.67344],[75.87327,12.67194],[75.87476,12.67143],[75.87813,12.67146],[75.87952,12.67199],[75.88214,12.67444],[75.88592,12.67452],[75.88595,12.67539],[75.88703,12.67574],[75.88824,12.67845],[75.88728,12.67931],[75.88822,12.68342],[75.88891,12.68435],[75.88849,12.68602],[75.88738,12.68672],[75.88802,12.68717],[75.8875,12.68976],[75.88823,12.6911],[75.88954,12.69172],[75.88971,12.69365],[75.88916,12.69469],[75.88753,12.69561],[75.88632,12.69718],[75.88529,12.70059],[75.88667,12.70308],[75.88561,12.70463],[75.88622,12.70557],[75.88522,12.70817],[75.87915,12.70908],[75.87828,12.70809],[75.87308,12.70978],[75.87088,12.71188],[75.87029,12.71497],[75.86602,12.71576],[75.86141,12.71741],[75.85785,12.72007],[75.85291,12.72473],[75.85147,12.73038],[75.85456,12.73664],[75.85232,12.7455],[75.84965,12.74809],[75.84894,12.7499],[75.85029,12.75174],[75.85312,12.75421],[75.85951,12.75735],[75.85756,12.76217],[75.8574,12.76519],[75.85796,12.77037],[75.86106,12.77046],[75.86254,12.76892],[75.86534,12.76799],[75.86618,12.7685],[75.86823,12.76865],[75.87171,12.77081],[75.87304,12.76951],[75.87573,12.77222],[75.87567,12.77274],[75.8746,12.77262],[75.87271,12.77341],[75.8726,12.77445],[75.87369,12.77527],[75.8776,12.77636],[75.87725,12.77762],[75.87437,12.77692],[75.87333,12.77872],[75.87271,12.77866],[75.87252,12.77976],[75.87165,12.7806],[75.87158,12.78266],[75.86886,12.78338],[75.86832,12.78738],[75.86725,12.78883],[75.86671,12.79116],[75.86561,12.79205],[75.8637,12.79553],[75.86338,12.79786],[75.86484,12.79809],[75.8653,12.79876],[75.86522,12.79948],[75.86427,12.79981],[75.86439,12.8006],[75.86616,12.80157],[75.86642,12.80251],[75.86542,12.80464],[75.86416,12.80584],[75.8653,12.81104],[75.86496,12.81522],[75.86353,12.81812],[75.86633,12.82029],[75.87549,12.82261],[75.87764,12.82413],[75.87824,12.82624],[75.87797,12.82815],[75.87696,12.82903],[75.87547,12.82945],[75.87897,12.83273],[75.88082,12.83344],[75.88984,12.82967]]]}},{"type":"Feature","properties":{"unitId":527,"unitName":"Somwarpet PS"},"geometry":{"type":"Polygon","coordinates":[[[75.71578,12.70551],[75.71711,12.70429],[75.71911,12.7057],[75.71993,12.70533],[75.72028,12.70444],[75.72003,12.70314],[75.72268,12.70094],[75.72234,12.69672],[75.72938,12.69776],[75.73048,12.6972],[75.7313,12.69739],[75.73373,12.69506],[75.73438,12.69356],[75.73629,12.69297],[75.73891,12.69036],[75.74009,12.68777],[75.73985,12.68596],[75.74063,12.68416],[75.74192,12.68223],[75.74377,12.68064],[75.74753,12.67862],[75.75112,12.67755],[75.75193,12.67662],[75.75349,12.6772],[75.75496,12.67649],[75.75565,12.67548],[75.76039,12.67362],[75.76117,12.67511],[75.76285,12.67617],[75.76539,12.67946],[75.76707,12.68053],[75.7711,12.6808],[75.77335,12.67978],[75.77461,12.68122],[75.77413,12.68349],[75.77544,12.68672],[75.77755,12.68822],[75.78048,12.68755],[75.78451,12.68953],[75.78586,12.68928],[75.78417,12.68709],[75.78623,12.68713],[75.78739,12.68638],[75.78852,12.68631],[75.79092,12.68688],[75.7924,12.68895],[75.7942,12.68916],[75.79519,12.69086],[75.79684,12.69224],[75.79743,12.69356],[75.80156,12.69481],[75.80241,12.69658],[75.80751,12.70103],[75.80919,12.70019],[75.81232,12.69636],[75.81686,12.69287],[75.81873,12.68824],[75.81851,12.68635],[75.81978,12.68453],[75.82328,12.68268],[75.82546,12.68242],[75.82637,12.68143],[75.82926,12.67568],[75.83063,12.67476],[75.8334,12.67149],[75.8349,12.67084],[75.83776,12.67092],[75.83972,12.66975],[75.84192,12.66954],[75.84331,12.66856],[75.84391,12.66869],[75.84364,12.66989],[75.84543,12.67075],[75.84629,12.67222],[75.8489,12.67166],[75.85038,12.67035],[75.84995,12.66179],[75.85703,12.65183],[75.85744,12.65053],[75.85667,12.6446],[75.85544,12.64311],[75.85901,12.64167],[75.86196,12.64157],[75.86637,12.63986],[75.87041,12.63623],[75.87028,12.63733],[75.87638,12.64343],[75.87734,12.64385],[75.88223,12.6435],[75.88326,12.64305],[75.8919,12.63297],[75.89163,12.62939],[75.89009,12.62563],[75.89056,12.61452],[75.89109,12.61135],[75.8866,12.61086],[75.88532,12.60984],[75.88587,12.60752],[75.88972,12.60361],[75.88994,12.59901],[75.88918,12.59157],[75.88949,12.5881],[75.89078,12.58542],[75.89305,12.58375],[75.89729,12.5829],[75.89913,12.58203],[75.89998,12.58215],[75.90033,12.58373],[75.90026,12.58828],[75.89921,12.59588],[75.89789,12.60065],[75.89534,12.60349],[75.89435,12.60626],[75.89436,12.6114],[75.89637,12.61343],[75.90066,12.61531],[75.90291,12.61687],[75.90499,12.62065],[75.90748,12.62153],[75.90921,12.62154],[75.91304,12.62065],[75.91619,12.61842],[75.91847,12.61572],[75.91915,12.61557],[75.9214,12.61629],[75.92572,12.62185],[75.92722,12.62217],[75.9299,12.61817],[75.9323,12.61701],[75.9368,12.61584],[75.94021,12.61384],[75.94467,12.61225],[75.94362,12.61124],[75.94257,12.61111],[75.93902,12.60903],[75.94016,12.60437],[75.9312,12.59708],[75.92738,12.59193],[75.92877,12.57975],[75.9306,12.57391],[75.93079,12.57009],[75.93515,12.55546],[75.93528,12.54933],[75.93277,12.55016],[75.92783,12.55072],[75.92445,12.55013],[75.92087,12.54658],[75.92013,12.54505],[75.91957,12.53858],[75.91634,12.53501],[75.9151,12.53417],[75.91295,12.53367],[75.90436,12.5336],[75.89807,12.5262],[75.89783,12.51669],[75.90431,12.5037],[75.90846,12.49345],[75.90235,12.49116],[75.90074,12.48909],[75.89932,12.49068],[75.8986,12.49088],[75.8948,12.4895],[75.8933,12.49104],[75.89025,12.49242],[75.89022,12.49147],[75.8894,12.491],[75.88917,12.49006],[75.89105,12.48626],[75.88865,12.48269],[75.8869,12.48158],[75.88556,12.47984],[75.8821,12.48089],[75.88082,12.48232],[75.88015,12.48204],[75.87965,12.48584],[75.87752,12.48996],[75.87533,12.49628],[75.8744,12.49754],[75.87255,12.49868],[75.87101,12.49897],[75.86754,12.49719],[75.86658,12.49758],[75.86556,12.49207],[75.85678,12.49655],[75.84814,12.49632],[75.84747,12.50093],[75.84769,12.5023],[75.84994,12.50454],[75.85057,12.50591],[75.85078,12.51077],[75.84842,12.51685],[75.84362,12.52414],[75.84141,12.52623],[75.84022,12.52082],[75.8391,12.51956],[75.8302,12.516],[75.82761,12.51554],[75.82267,12.51137],[75.8228,12.51031],[75.82048,12.50969],[75.81996,12.50889],[75.81974,12.50959],[75.82015,12.50968],[75.81905,12.51019],[75.81811,12.50927],[75.81778,12.50985],[75.81567,12.5097],[75.81608,12.50546],[75.81562,12.50448],[75.81704,12.50388],[75.81799,12.50275],[75.81796,12.49647],[75.82159,12.49491],[75.82163,12.49429],[75.82077,12.49448],[75.81909,12.4915],[75.81839,12.4887],[75.81937,12.48621],[75.8172,12.48507],[75.81605,12.48584],[75.81339,12.49017],[75.81057,12.49011],[75.8079,12.4928],[75.80717,12.49476],[75.80722,12.49642],[75.80513,12.49625],[75.8047,12.49684],[75.80373,12.49867],[75.80467,12.50064],[75.80616,12.50208],[75.807,12.5044],[75.80644,12.50737],[75.80314,12.50976],[75.80044,12.50583],[75.79972,12.50267],[75.79936,12.49342],[75.79858,12.48692],[75.79744,12.48509],[75.79522,12.48272],[75.79324,12.48251],[75.79064,12.48338],[75.7875,12.48295],[75.78216,12.48054],[75.78338,12.48361],[75.78478,12.48364],[75.78598,12.48461],[75.78499,12.486],[75.78542,12.48656],[75.7848,12.48667],[75.78491,12.48888],[75.78433,12.4908],[75.78231,12.49275],[75.78113,12.49297],[75.78061,12.49383],[75.77919,12.49757],[75.77956,12.50048],[75.77863,12.50276],[75.77661,12.50538],[75.77488,12.50925],[75.77123,12.51423],[75.76822,12.52],[75.7683,12.52145],[75.769,12.52199],[75.76773,12.52459],[75.7669,12.52503],[75.76382,12.52988],[75.76164,12.53182],[75.75969,12.53552],[75.75937,12.53754],[75.75749,12.53944],[75.75682,12.54085],[75.75303,12.54004],[75.74814,12.53999],[75.74257,12.54262],[75.73969,12.54177],[75.73913,12.54037],[75.73669,12.53945],[75.73323,12.53647],[75.732,12.53596],[75.73003,12.53608],[75.72921,12.53542],[75.72742,12.53576],[75.72611,12.53463],[75.72281,12.53544],[75.71804,12.53492],[75.71478,12.5333],[75.71366,12.53331],[75.71304,12.53721],[75.71623,12.5424],[75.71747,12.54366],[75.71806,12.54486],[75.71799,12.54698],[75.71841,12.54786],[75.72102,12.5504],[75.7257,12.55109],[75.72649,12.55298],[75.73275,12.55697],[75.737,12.56082],[75.73722,12.562],[75.73581,12.56404],[75.73485,12.56833],[75.73259,12.57216],[75.73145,12.57521],[75.7339,12.58304],[75.73268,12.58518],[75.7319,12.5913],[75.72238,12.59153],[75.72015,12.5957],[75.71921,12.59621],[75.71427,12.59556],[75.7088,12.59304],[75.707,12.59964],[75.70543,12.60197],[75.70353,12.60216],[75.70148,12.60143],[75.69511,12.60112],[75.69335,12.6023],[75.69091,12.60261],[75.68808,12.60752],[75.68183,12.60468],[75.68007,12.60504],[75.67751,12.60647],[75.67532,12.60869],[75.67373,12.60759],[75.66833,12.60551],[75.66599,12.6022],[75.66528,12.59962],[75.66028,12.596],[75.66018,12.5971],[75.661,12.59934],[75.65939,12.60083],[75.6588,12.60209],[75.65636,12.60338],[75.65593,12.60405],[75.656,12.60601],[75.65435,12.61032],[75.65274,12.61155],[75.65454,12.61388],[75.65458,12.61484],[75.65311,12.61894],[75.65368,12.61994],[75.65272,12.62193],[75.64913,12.62459],[75.64693,12.62489],[75.64229,12.62729],[75.64143,12.63169],[75.64153,12.63317],[75.64469,12.6387],[75.64519,12.64169],[75.64351,12.64616],[75.64531,12.65306],[75.64534,12.65827],[75.64787,12.66293],[75.64769,12.66522],[75.64807,12.66641],[75.64934,12.66879],[75.65269,12.67217],[75.65397,12.67792],[75.65598,12.68054],[75.65687,12.68281],[75.65917,12.68542],[75.66311,12.6916],[75.66666,12.69807],[75.66781,12.69756],[75.6687,12.69771],[75.67492,12.70081],[75.67966,12.70074],[75.68294,12.70158],[75.6877,12.70112],[75.68981,12.7021],[75.69561,12.70299],[75.70077,12.70438],[75.70484,12.70635],[75.70784,12.70603],[75.71075,12.7047],[75.71161,12.70556],[75.71234,12.70528],[75.71254,12.70677],[75.71334,12.70748],[75.71527,12.70668],[75.71578,12.70551]]]}},{"type":"Feature","properties":{"unitId":528,"unitName":"Gonikoppa PS"},"geometry":{"type":"Polygon","coordinates":[[[75.9388,12.21531],[75.93959,12.21066],[75.94254,12.20343],[75.94627,12.19889],[75.95382,12.19906],[75.96145,12.19821],[75.97248,12.19941],[75.975,12.19756],[75.97885,12.1965],[75.98179,12.19756],[75.98371,12.20033],[75.98649,12.20318],[75.98785,12.19932],[75.98715,12.19343],[75.97839,12.18448],[75.97372,12.18322],[75.97097,12.18129],[75.96341,12.17742],[75.96215,12.17629],[75.95794,12.16406],[75.95073,12.16219],[75.94503,12.16817],[75.94252,12.16834],[75.93985,12.16822],[75.93834,12.16742],[75.93477,12.16701],[75.9303,12.16352],[75.92838,12.16272],[75.91948,12.1634],[75.91797,12.16328],[75.91738,12.16271],[75.9164,12.15887],[75.91512,12.14809],[75.9117,12.14208],[75.91153,12.14008],[75.91234,12.13828],[75.91252,12.13416],[75.91531,12.13033],[75.91566,12.12609],[75.91718,12.12426],[75.91866,12.12367],[75.91667,12.12194],[75.9157,12.12174],[75.90696,12.12381],[75.90202,12.12396],[75.89991,12.1222],[75.89666,12.11301],[75.89601,12.10758],[75.89462,12.10195],[75.89463,12.09465],[75.89554,12.09044],[75.89494,12.08502],[75.89247,12.08099],[75.88832,12.07849],[75.8823,12.07334],[75.88051,12.06469],[75.87733,12.05503],[75.87676,12.05479],[75.8752,12.05583],[75.86702,12.06451],[75.86268,12.06692],[75.85336,12.06885],[75.85252,12.07645],[75.85223,12.08242],[75.85279,12.09047],[75.85489,12.09863],[75.85407,12.1047],[75.85258,12.11082],[75.85304,12.11401],[75.85426,12.11757],[75.86114,12.13572],[75.86298,12.13708],[75.87496,12.14156],[75.87598,12.14301],[75.87572,12.14467],[75.87154,12.14808],[75.87108,12.14913],[75.87128,12.15119],[75.87214,12.1534],[75.87209,12.15583],[75.87087,12.15708],[75.86745,12.15879],[75.86652,12.16812],[75.8667,12.17089],[75.86438,12.17473],[75.86407,12.17696],[75.86449,12.18111],[75.86516,12.18207],[75.86736,12.18304],[75.87574,12.18329],[75.87641,12.18383],[75.87702,12.18521],[75.87739,12.19201],[75.87781,12.19297],[75.87879,12.19339],[75.88014,12.19309],[75.88357,12.1884],[75.88516,12.18732],[75.88889,12.18678],[75.89054,12.18775],[75.89213,12.18955],[75.89249,12.194],[75.8942,12.1977],[75.89548,12.19867],[75.9008,12.19921],[75.90557,12.20186],[75.90612,12.20259],[75.90624,12.2077],[75.90483,12.21112],[75.90489,12.21323],[75.90581,12.21378],[75.90751,12.2139],[75.91049,12.21287],[75.91475,12.21269],[75.91877,12.21379],[75.92113,12.21638],[75.92349,12.22112],[75.93561,12.23345],[75.93842,12.23156],[75.9388,12.21531]]]}},{"type":"Feature","properties":{"unitId":529,"unitName":"Ponnampet PS"},"geometry":{"type":"Polygon","coordinates":[[[76.01912,12.25348],[76.0221,12.25079],[76.02235,12.24961],[76.02318,12.24954],[76.02384,12.25078],[76.02365,12.2523],[76.0305,12.2531],[76.03376,12.25186],[76.03657,12.25338],[76.03834,12.25378],[76.03982,12.25349],[76.04279,12.25194],[76.04361,12.2509],[76.04404,12.25124],[76.0453,12.25103],[76.04588,12.25009],[76.04856,12.24861],[76.04922,12.24839],[76.0499,12.24881],[76.05065,12.24839],[76.05057,12.24653],[76.05103,12.24635],[76.05206,12.24703],[76.05493,12.24732],[76.05674,12.24812],[76.05724,12.24855],[76.0571,12.25337],[76.05973,12.25376],[76.06005,12.24801],[76.0641,12.24682],[76.06592,12.24526],[76.06801,12.24227],[76.07125,12.24091],[76.07301,12.23965],[76.07271,12.23477],[76.07406,12.2332],[76.07423,12.23234],[76.07601,12.23065],[76.07783,12.22737],[76.07961,12.22569],[76.08166,12.22147],[76.08499,12.21866],[76.08945,12.21671],[76.09348,12.21346],[76.09406,12.20927],[76.09489,12.20759],[76.09666,12.20555],[76.09741,12.20384],[76.09817,12.20352],[76.09941,12.20013],[76.10225,12.19753],[76.1068,12.19696],[76.10779,12.19606],[76.11126,12.19583],[76.11596,12.19453],[76.11893,12.19311],[76.12544,12.19426],[76.12762,12.19541],[76.12901,12.19561],[76.13118,12.19765],[76.13389,12.1923],[76.13747,12.1889],[76.13493,12.1882],[76.13556,12.18404],[76.13504,12.18217],[76.13632,12.17658],[76.13875,12.17088],[76.1414,12.16842],[76.14326,12.15697],[76.14565,12.15266],[76.14854,12.14924],[76.14914,12.14775],[76.14884,12.14695],[76.15076,12.14315],[76.15303,12.1407],[76.15425,12.14014],[76.15662,12.137],[76.16134,12.13477],[76.16148,12.13368],[76.16279,12.13193],[76.16368,12.12885],[76.16598,12.12449],[76.16621,12.12293],[76.17047,12.11792],[76.17139,12.10865],[76.17621,12.10128],[76.17639,12.09188],[76.1746,12.08172],[76.17775,12.06981],[76.18299,12.06175],[76.17749,12.06224],[76.17191,12.06344],[76.16432,12.06748],[76.15262,12.06884],[76.14753,12.07005],[76.13418,12.07614],[76.12413,12.07774],[76.11298,12.07653],[76.10324,12.07403],[76.08799,12.06921],[76.08241,12.06933],[76.072,12.07189],[76.05141,12.0745],[76.03389,12.08035],[76.03181,12.08167],[76.01016,12.10212],[76.00636,12.10489],[75.99995,12.10809],[75.99358,12.11026],[75.98543,12.11062],[75.98433,12.11116],[75.98243,12.11502],[75.98151,12.1155],[75.97967,12.11532],[75.97808,12.11309],[75.97624,12.11327],[75.96407,12.12037],[75.96039,12.12362],[75.95946,12.12557],[75.9543,12.12018],[75.95171,12.11468],[75.94953,12.11255],[75.94369,12.10294],[75.93406,12.10504],[75.92731,12.10228],[75.92088,12.10161],[75.91722,12.09965],[75.91455,12.09744],[75.91006,12.08935],[75.90592,12.08472],[75.89619,12.07856],[75.89436,12.08031],[75.89247,12.08099],[75.89494,12.08502],[75.89554,12.09044],[75.89463,12.09465],[75.89462,12.10195],[75.89601,12.10758],[75.89666,12.11301],[75.89991,12.1222],[75.90202,12.12396],[75.90696,12.12381],[75.9157,12.12174],[75.91667,12.12194],[75.91866,12.12367],[75.91718,12.12426],[75.91566,12.12609],[75.91531,12.13033],[75.91252,12.13416],[75.91234,12.13828],[75.91153,12.14008],[75.9117,12.14208],[75.91512,12.14809],[75.9164,12.15887],[75.91738,12.16271],[75.91797,12.16328],[75.91948,12.1634],[75.92838,12.16272],[75.9303,12.16352],[75.93477,12.16701],[75.93834,12.16742],[75.93985,12.16822],[75.94252,12.16834],[75.94503,12.16817],[75.95073,12.16219],[75.95794,12.16406],[75.96215,12.17629],[75.96341,12.17742],[75.97097,12.18129],[75.97372,12.18322],[75.97839,12.18448],[75.98715,12.19343],[75.98785,12.19932],[75.98649,12.20318],[75.98371,12.20033],[75.98179,12.19756],[75.97885,12.1965],[75.975,12.19756],[75.97248,12.19941],[75.96145,12.19821],[75.95382,12.19906],[75.94627,12.19889],[75.94254,12.20343],[75.93959,12.21066],[75.9388,12.21531],[75.93842,12.23156],[75.93561,12.23345],[75.94043,12.23817],[75.94848,12.24348],[75.95119,12.24443],[75.95185,12.24714],[75.95456,12.24923],[75.95779,12.24922],[75.96376,12.25039],[75.96709,12.25209],[75.96994,12.25433],[75.97219,12.25472],[75.9774,12.25476],[75.98098,12.25426],[75.98304,12.25345],[75.99121,12.26245],[75.99837,12.26479],[76.01231,12.27076],[76.01269,12.26959],[76.01225,12.26926],[76.01314,12.26884],[76.01343,12.26775],[76.01311,12.26612],[76.01655,12.26094],[76.01807,12.25609],[76.01877,12.25566],[76.01912,12.25348]]]}},{"type":"Feature","properties":{"unitId":530,"unitName":"Kutta PS"},"geometry":{"type":"Polygon","coordinates":[[[76.08241,12.06933],[76.08799,12.06921],[76.10324,12.07403],[76.11298,12.07653],[76.12413,12.07774],[76.13418,12.07614],[76.14753,12.07005],[76.15262,12.06884],[76.16432,12.06748],[76.17191,12.06344],[76.17749,12.06224],[76.18299,12.06175],[76.18624,12.05603],[76.18857,12.05023],[76.18587,12.04197],[76.18323,12.03581],[76.17735,12.02918],[76.15802,12.02212],[76.1481,12.01523],[76.14504,12.00683],[76.13697,11.9987],[76.13484,11.99302],[76.12224,11.97937],[76.11519,11.97917],[76.11206,11.97679],[76.10993,11.97691],[76.11004,11.97468],[76.08923,11.96768],[76.08532,11.96794],[76.07946,11.9692],[76.07657,11.9691],[76.07065,11.96759],[76.0697,11.96699],[76.06762,11.96397],[76.0643,11.96131],[76.06093,11.9599],[76.05657,11.95696],[76.05204,11.95193],[76.04727,11.95207],[76.04472,11.95069],[76.04242,11.94647],[76.03911,11.9455],[76.03736,11.94316],[76.03353,11.94041],[76.03011,11.94041],[76.02799,11.9413],[76.02679,11.94334],[76.0225,11.94425],[76.01621,11.9414],[76.01224,11.94194],[76.01091,11.94141],[76.00981,11.9402],[76.00659,11.93869],[76.00366,11.93231],[76.00241,11.93156],[75.9991,11.93143],[75.99415,11.93268],[75.99046,11.93505],[75.98366,11.93321],[75.9805,11.93477],[75.98202,11.94394],[75.98754,11.95021],[75.98828,11.95666],[75.98947,11.95902],[75.98978,11.96126],[75.99314,11.96437],[75.99414,11.96825],[76.00177,11.98126],[76.002,11.98318],[76.00501,11.98261],[76.0112,11.97985],[76.014,11.97968],[76.01336,11.98342],[76.01407,11.98715],[76.01457,11.99462],[76.01752,12.00146],[76.01083,12.02323],[76.01112,12.02538],[76.01265,12.02936],[76.01281,12.03265],[76.00976,12.03503],[76.00122,12.03786],[76.00105,12.03916],[75.99709,12.04647],[75.997,12.04872],[75.99943,12.05494],[76.00133,12.05782],[76.00306,12.06184],[76.00348,12.06445],[76.00451,12.0666],[76.0076,12.07026],[76.00847,12.07066],[76.00779,12.07292],[76.00376,12.0797],[76.00524,12.08312],[76.00428,12.09483],[76.00531,12.09736],[76.01118,12.10117],[76.03181,12.08167],[76.03389,12.08035],[76.05141,12.0745],[76.072,12.07189],[76.08241,12.06933]]]}},{"type":"Feature","properties":{"unitId":531,"unitName":"Virajpet Town PS"},"geometry":{"type":"Polygon","coordinates":[[[75.80308,12.21017],[75.80555,12.21051],[75.80623,12.20985],[75.80833,12.20918],[75.81038,12.20632],[75.81097,12.206],[75.81273,12.20637],[75.82539,12.213],[75.82685,12.21482],[75.82744,12.21646],[75.82811,12.21465],[75.82833,12.20178],[75.82899,12.20073],[75.83223,12.19823],[75.83128,12.19677],[75.8218,12.19072],[75.81895,12.19142],[75.81682,12.19119],[75.81655,12.19077],[75.81712,12.18983],[75.81596,12.18858],[75.81635,12.187],[75.81723,12.18586],[75.8164,12.18452],[75.81621,12.18284],[75.81363,12.18365],[75.8129,12.1846],[75.81327,12.1859],[75.81283,12.18583],[75.81123,12.18538],[75.80769,12.18129],[75.80632,12.17876],[75.80336,12.16823],[75.80313,12.16373],[75.79976,12.16191],[75.79314,12.15639],[75.79289,12.1525],[75.79493,12.14868],[75.79468,12.14222],[75.7878,12.14155],[75.78599,12.14359],[75.78505,12.14818],[75.77532,12.16134],[75.7721,12.16664],[75.76179,12.17521],[75.75748,12.17748],[75.76442,12.18951],[75.77033,12.19398],[75.77502,12.19915],[75.77762,12.19922],[75.78294,12.19771],[75.78627,12.19996],[75.78745,12.19996],[75.78615,12.20419],[75.78585,12.20687],[75.78433,12.21014],[75.78367,12.21483],[75.78411,12.22148],[75.78491,12.22599],[75.79128,12.23043],[75.79185,12.23136],[75.79903,12.22593],[75.8013,12.22491],[75.80858,12.22358],[75.80675,12.21663],[75.80308,12.21017]]]}},{"type":"Feature","properties":{"unitId":532,"unitName":"Virajpet Rural PS"},"geometry":{"type":"Polygon","coordinates":[[[75.85056,12.27968],[75.85587,12.27596],[75.854,12.27168],[75.84692,12.26602],[75.84464,12.26209],[75.85196,12.26145],[75.8543,12.2607],[75.85898,12.25818],[75.87072,12.25734],[75.87854,12.25765],[75.8848,12.25346],[75.8856,12.25205],[75.88297,12.25213],[75.87129,12.24404],[75.87078,12.2422],[75.87358,12.24021],[75.87392,12.23929],[75.86957,12.23141],[75.86922,12.22693],[75.86952,12.22506],[75.87115,12.22191],[75.87545,12.21909],[75.87858,12.21549],[75.8752,12.21021],[75.87149,12.20164],[75.87153,12.20053],[75.87666,12.19724],[75.8787,12.1943],[75.87879,12.19339],[75.87781,12.19297],[75.87739,12.19201],[75.87702,12.18521],[75.87641,12.18383],[75.87574,12.18329],[75.86736,12.18304],[75.86516,12.18207],[75.86413,12.17997],[75.86407,12.17696],[75.86438,12.17473],[75.8667,12.17089],[75.86652,12.16812],[75.86745,12.15879],[75.87087,12.15708],[75.87209,12.15583],[75.87214,12.1534],[75.87128,12.15119],[75.87108,12.14913],[75.87154,12.14808],[75.87572,12.14467],[75.87598,12.14301],[75.87496,12.14156],[75.86298,12.13708],[75.86114,12.13572],[75.85304,12.11401],[75.85258,12.11082],[75.85489,12.10034],[75.85489,12.09863],[75.85279,12.09047],[75.85223,12.08242],[75.85336,12.06885],[75.84821,12.07021],[75.84077,12.07012],[75.83611,12.06947],[75.82932,12.07027],[75.82023,12.07233],[75.80991,12.07606],[75.8068,12.07685],[75.80359,12.07665],[75.80235,12.07795],[75.80241,12.07915],[75.79753,12.08019],[75.79559,12.08244],[75.79318,12.08302],[75.79019,12.0826],[75.78468,12.08492],[75.7803,12.08326],[75.77835,12.08363],[75.77331,12.08336],[75.76709,12.08502],[75.76484,12.08483],[75.76286,12.08393],[75.75614,12.08406],[75.75431,12.08482],[75.75249,12.08467],[75.75084,12.0841],[75.74933,12.08292],[75.74711,12.0785],[75.74606,12.07857],[75.74344,12.08045],[75.74012,12.07932],[75.73619,12.07929],[75.73419,12.07817],[75.72769,12.0728],[75.72488,12.07334],[75.72187,12.07258],[75.71997,12.07116],[75.71519,12.07056],[75.71467,12.07116],[75.71495,12.07621],[75.71633,12.07947],[75.71552,12.08187],[75.71782,12.08276],[75.71798,12.08593],[75.71502,12.08802],[75.71415,12.09013],[75.71345,12.09061],[75.71098,12.09088],[75.70641,12.0927],[75.7036,12.09209],[75.70223,12.0925],[75.70203,12.09303],[75.70288,12.09561],[75.70255,12.1003],[75.70358,12.1064],[75.70318,12.10827],[75.70013,12.10911],[75.69722,12.10932],[75.69519,12.11072],[75.68779,12.11061],[75.6855,12.10892],[75.68519,12.10677],[75.68312,12.10431],[75.67927,12.10259],[75.67662,12.09839],[75.66753,12.09767],[75.66426,12.09922],[75.66193,12.09949],[75.661,12.10006],[75.6586,12.10374],[75.65309,12.10787],[75.65296,12.1097],[75.6525,12.11033],[75.65154,12.11037],[75.64984,12.1095],[75.64896,12.10967],[75.64875,12.11314],[75.64657,12.1156],[75.64766,12.11764],[75.6475,12.12204],[75.64556,12.12482],[75.64432,12.12531],[75.64405,12.12589],[75.64388,12.13046],[75.64444,12.13342],[75.64325,12.13622],[75.64585,12.13762],[75.65087,12.14374],[75.65975,12.14986],[75.66045,12.15233],[75.66813,12.16448],[75.67118,12.16753],[75.67712,12.17523],[75.67898,12.17879],[75.67927,12.18145],[75.68152,12.1867],[75.68469,12.1907],[75.68672,12.19465],[75.68939,12.19751],[75.69453,12.21053],[75.69704,12.21496],[75.69787,12.21736],[75.69982,12.2203],[75.70257,12.22197],[75.70448,12.22491],[75.7073,12.228],[75.70889,12.22804],[75.70846,12.22927],[75.70772,12.2297],[75.70773,12.23081],[75.70867,12.23181],[75.70925,12.2317],[75.70914,12.23319],[75.70987,12.23467],[75.71103,12.23467],[75.71157,12.23581],[75.71233,12.2361],[75.71453,12.23644],[75.71548,12.23743],[75.71581,12.24002],[75.72244,12.24043],[75.72393,12.23956],[75.72518,12.24003],[75.72417,12.24333],[75.72463,12.2443],[75.72363,12.24452],[75.72238,12.24245],[75.72081,12.24303],[75.7221,12.24466],[75.72047,12.24575],[75.72,12.25035],[75.71878,12.25057],[75.71764,12.24955],[75.71709,12.24614],[75.71613,12.24617],[75.71578,12.24876],[75.71701,12.24923],[75.71743,12.25102],[75.71857,12.2519],[75.71785,12.25287],[75.71819,12.25399],[75.7174,12.25499],[75.71832,12.256],[75.71977,12.25595],[75.72066,12.25856],[75.72009,12.25849],[75.72021,12.25913],[75.72103,12.25873],[75.72152,12.25936],[75.72092,12.26042],[75.72171,12.26119],[75.72121,12.26195],[75.72115,12.2634],[75.72275,12.26313],[75.72437,12.26381],[75.72445,12.26653],[75.72521,12.26721],[75.72612,12.26728],[75.72644,12.2682],[75.7281,12.26899],[75.72696,12.27134],[75.72698,12.27228],[75.72792,12.27338],[75.7295,12.27413],[75.73061,12.27589],[75.73319,12.27648],[75.73579,12.27554],[75.73777,12.27724],[75.73932,12.27937],[75.74367,12.28158],[75.74526,12.28352],[75.74551,12.28502],[75.74944,12.28025],[75.75141,12.27565],[75.75209,12.27563],[75.75243,12.27662],[75.75166,12.27916],[75.75184,12.27996],[75.75386,12.2805],[75.75526,12.28158],[75.75761,12.28191],[75.75907,12.28287],[75.75991,12.28216],[75.75988,12.27976],[75.76106,12.2779],[75.76637,12.27591],[75.76915,12.27571],[75.7712,12.27745],[75.77374,12.2842],[75.77661,12.28516],[75.7824,12.27584],[75.78634,12.27244],[75.7896,12.27058],[75.79848,12.2718],[75.80058,12.27165],[75.80926,12.26501],[75.80993,12.26406],[75.81436,12.26556],[75.81671,12.26702],[75.82177,12.27248],[75.82243,12.27349],[75.82291,12.27634],[75.82768,12.2764],[75.82836,12.27677],[75.8294,12.27903],[75.83085,12.27938],[75.83977,12.27947],[75.84668,12.28652],[75.84716,12.2825],[75.85056,12.27968]],[[75.79019,12.22959],[75.78491,12.22599],[75.78411,12.22148],[75.78367,12.21483],[75.78433,12.21014],[75.78585,12.20687],[75.78615,12.20419],[75.78745,12.19996],[75.78627,12.19996],[75.78294,12.19771],[75.77762,12.19922],[75.77502,12.19915],[75.77033,12.19398],[75.76442,12.18951],[75.75748,12.17748],[75.76179,12.17521],[75.7721,12.16664],[75.77532,12.16134],[75.78505,12.14818],[75.78599,12.14359],[75.7878,12.14155],[75.7888,12.14142],[75.79468,12.14222],[75.79493,12.14868],[75.79289,12.1525],[75.79314,12.15639],[75.79976,12.16191],[75.80313,12.16373],[75.80336,12.16823],[75.80632,12.17876],[75.80769,12.18129],[75.81123,12.18538],[75.81283,12.18583],[75.81327,12.1859],[75.8129,12.1846],[75.81363,12.18365],[75.81621,12.18284],[75.8164,12.18452],[75.81723,12.18586],[75.81635,12.187],[75.81596,12.18858],[75.81712,12.18983],[75.81655,12.19077],[75.81682,12.19119],[75.81895,12.19142],[75.8218,12.19072],[75.83128,12.19677],[75.83223,12.19823],[75.82899,12.20073],[75.82833,12.20178],[75.82811,12.21465],[75.82744,12.21646],[75.82685,12.21482],[75.82539,12.213],[75.81809,12.20897],[75.81273,12.20637],[75.81097,12.206],[75.80769,12.20956],[75.80507,12.21061],[75.80306,12.2101],[75.80675,12.21663],[75.80858,12.22358],[75.8013,12.22491],[75.79903,12.22593],[75.79185,12.23136],[75.79019,12.22959]]]}},{"type":"Feature","properties":{"unitId":533,"unitName":"Srimangala PS"},"geometry":{"type":"Polygon","coordinates":[[[75.97759,12.11315],[75.97808,12.11309],[75.97967,12.11532],[75.98151,12.1155],[75.98243,12.11502],[75.98433,12.11116],[75.98543,12.11062],[75.99358,12.11026],[75.99995,12.10809],[76.00636,12.10489],[76.01118,12.10117],[76.00531,12.09736],[76.00432,12.09552],[76.00524,12.08312],[76.00376,12.0797],[76.00779,12.07292],[76.00847,12.07066],[76.0076,12.07026],[76.00451,12.0666],[76.00348,12.06445],[76.00306,12.06184],[76.00133,12.05782],[75.99943,12.05494],[75.997,12.04872],[75.99696,12.04763],[75.99791,12.04472],[76.00105,12.03916],[76.00122,12.03786],[76.00976,12.03503],[76.01281,12.03265],[76.01265,12.02936],[76.01112,12.02538],[76.01083,12.02323],[76.01752,12.00211],[76.01728,12.00022],[76.01457,11.99462],[76.01407,11.98715],[76.01336,11.98342],[76.014,11.97968],[76.0112,11.97985],[76.00501,11.98261],[76.002,11.98318],[76.00177,11.98126],[75.99414,11.96825],[75.99314,11.96437],[75.98978,11.96126],[75.98947,11.95902],[75.98828,11.95666],[75.98754,11.95021],[75.98202,11.94394],[75.9805,11.93477],[75.97902,11.93509],[75.97623,11.93415],[75.97078,11.93687],[75.96729,11.93767],[75.95575,11.94236],[75.95343,11.94222],[75.9517,11.94107],[75.94756,11.94213],[75.93923,11.94153],[75.93749,11.94247],[75.9367,11.94076],[75.93069,11.93992],[75.92936,11.94226],[75.9274,11.94353],[75.92231,11.94494],[75.91829,11.94494],[75.91369,11.94714],[75.91115,11.94679],[75.90871,11.94738],[75.90563,11.94646],[75.9009,11.94625],[75.89848,11.94674],[75.89697,11.94579],[75.89251,11.94938],[75.88604,11.95202],[75.88489,11.95118],[75.8821,11.95095],[75.8802,11.94996],[75.87773,11.95141],[75.87362,11.95258],[75.87245,11.95345],[75.87039,11.9528],[75.86899,11.95407],[75.86727,11.9569],[75.8648,11.95827],[75.85868,11.95972],[75.85636,11.9633],[75.85446,11.96444],[75.85346,11.96686],[75.85299,11.97157],[75.85156,11.97246],[75.84988,11.97508],[75.84793,11.97521],[75.84946,11.9787],[75.84748,11.98023],[75.8469,11.98202],[75.84381,11.9818],[75.84285,11.98096],[75.84251,11.98153],[75.84044,11.9814],[75.83948,11.98265],[75.83715,11.98119],[75.83176,11.98337],[75.82917,11.98501],[75.82596,11.99131],[75.82509,11.99674],[75.82503,12.00275],[75.82027,12.00268],[75.82287,12.00912],[75.82304,12.01135],[75.82258,12.01344],[75.81514,12.02064],[75.81389,12.02129],[75.81148,12.02157],[75.80983,12.02268],[75.81064,12.02869],[75.8084,12.03122],[75.80102,12.03692],[75.80088,12.04254],[75.79921,12.04828],[75.79729,12.05211],[75.79386,12.05516],[75.79451,12.05633],[75.79753,12.05602],[75.79837,12.05654],[75.7985,12.06362],[75.80113,12.06947],[75.80247,12.07373],[75.80373,12.07508],[75.80359,12.07665],[75.8068,12.07685],[75.82023,12.07233],[75.82932,12.07027],[75.83611,12.06947],[75.84077,12.07012],[75.84821,12.07021],[75.85868,12.06748],[75.86268,12.06692],[75.86702,12.06451],[75.8752,12.05583],[75.87708,12.05479],[75.88051,12.06469],[75.8823,12.07334],[75.88832,12.07849],[75.89247,12.08099],[75.89436,12.08031],[75.89619,12.07856],[75.90592,12.08472],[75.91006,12.08935],[75.91455,12.09744],[75.91722,12.09965],[75.92088,12.10161],[75.92731,12.10228],[75.93406,12.10504],[75.94369,12.10294],[75.94953,12.11255],[75.95171,12.11468],[75.9543,12.12018],[75.95946,12.12557],[75.96039,12.12362],[75.96407,12.12037],[75.97624,12.11327],[75.97759,12.11315]]]}}]}