{"type":"FeatureCollection","features":[{"type":"Feature","properties":{"unitId":561,"unitName":"Gangavathi Rural PS"},"geometry":{"type":"Polygon","coordinates":[[[76.56971,15.59876],[76.56924,15.59742],[76.56873,15.59762],[76.56986,15.58959],[76.56966,15.57817],[76.56747,15.57876],[76.56694,15.57666],[76.56711,15.57239],[76.57586,15.56785],[76.57843,15.56584],[76.58456,15.56465],[76.58206,15.56097],[76.58044,15.5543],[76.57885,15.55036],[76.57714,15.53002],[76.57747,15.52635],[76.57988,15.52214],[76.57953,15.52153],[76.58615,15.51985],[76.59883,15.5186],[76.60416,15.5196],[76.61028,15.51993],[76.60968,15.51442],[76.61128,15.51399],[76.61524,15.51454],[76.61603,15.51426],[76.61599,15.51315],[76.62052,15.51252],[76.62121,15.50847],[76.62393,15.50146],[76.62458,15.49573],[76.62427,15.49093],[76.63009,15.48931],[76.64574,15.48626],[76.64859,15.48585],[76.65378,15.4861],[76.65302,15.48498],[76.65276,15.47642],[76.65574,15.47042],[76.66134,15.46801],[76.66526,15.46567],[76.66986,15.46149],[76.67131,15.46044],[76.6723,15.46045],[76.67267,15.459],[76.67064,15.45666],[76.67373,15.45295],[76.662,15.44731],[76.66173,15.44935],[76.65758,15.44936],[76.652,15.44757],[76.64703,15.44526],[76.64183,15.44447],[76.6342,15.44521],[76.62382,15.44375],[76.6145,15.44434],[76.61151,15.44355],[76.60915,15.44102],[76.60792,15.44034],[76.60179,15.43184],[76.59646,15.42667],[76.5948,15.42148],[76.59475,15.41652],[76.59125,15.4123],[76.57147,15.40202],[76.56449,15.39992],[76.56021,15.39964],[76.55764,15.39895],[76.55043,15.39104],[76.54917,15.38781],[76.54752,15.38576],[76.54253,15.38353],[76.53936,15.37911],[76.53361,15.37649],[76.53173,15.37428],[76.52716,15.37131],[76.52459,15.37087],[76.52361,15.37015],[76.52178,15.36698],[76.51865,15.36469],[76.51714,15.36416],[76.50841,15.35736],[76.50592,15.35374],[76.49821,15.35065],[76.4962,15.34716],[76.49323,15.34508],[76.49007,15.34404],[76.48546,15.34533],[76.48288,15.34688],[76.4771,15.34863],[76.46985,15.34112],[76.46921,15.33876],[76.46753,15.33734],[76.46473,15.3372],[76.4613,15.33871],[76.45951,15.33891],[76.45285,15.33804],[76.45119,15.33885],[76.44795,15.33932],[76.4459,15.33887],[76.44214,15.33902],[76.43938,15.33735],[76.43476,15.33728],[76.42842,15.33621],[76.42222,15.33425],[76.42125,15.34112],[76.42018,15.34251],[76.42073,15.34429],[76.42027,15.34504],[76.41913,15.34514],[76.41878,15.34628],[76.41767,15.34619],[76.41621,15.35575],[76.41552,15.35777],[76.41592,15.35802],[76.41666,15.36143],[76.41734,15.36219],[76.41577,15.36633],[76.41618,15.36816],[76.41176,15.36882],[76.4104,15.37202],[76.41085,15.37403],[76.41586,15.37767],[76.41746,15.38036],[76.42127,15.38484],[76.40142,15.38853],[76.39576,15.40206],[76.39778,15.41054],[76.38647,15.41062],[76.38041,15.41638],[76.37951,15.41947],[76.37985,15.42002],[76.37983,15.42542],[76.37291,15.42729],[76.37283,15.43986],[76.37182,15.44011],[76.37139,15.4397],[76.37128,15.43809],[76.36111,15.44436],[76.36262,15.44821],[76.3634,15.44842],[76.36436,15.45072],[76.3642,15.4518],[76.363,15.45244],[76.35711,15.46445],[76.34534,15.47009],[76.339,15.47157],[76.31642,15.48136],[76.31801,15.48272],[76.31754,15.4829],[76.32822,15.48779],[76.33037,15.48919],[76.34786,15.48974],[76.34951,15.49374],[76.3574,15.50114],[76.36862,15.49803],[76.3762,15.49712],[76.38329,15.49269],[76.39667,15.48713],[76.39748,15.48521],[76.3975,15.48313],[76.39905,15.48263],[76.40498,15.48174],[76.40935,15.48182],[76.41172,15.48126],[76.42058,15.48128],[76.42107,15.48595],[76.42234,15.49262],[76.42267,15.49257],[76.42372,15.50113],[76.42308,15.50849],[76.42378,15.51207],[76.43023,15.51225],[76.43529,15.51068],[76.43933,15.51032],[76.44788,15.512],[76.45015,15.51135],[76.44977,15.50543],[76.45099,15.50489],[76.45152,15.50343],[76.45205,15.49706],[76.4552,15.48558],[76.45531,15.48607],[76.46255,15.4878],[76.48077,15.48444],[76.4783,15.49428],[76.47717,15.49646],[76.4773,15.50284],[76.478,15.50818],[76.48106,15.50922],[76.48159,15.51349],[76.48412,15.51278],[76.48609,15.51623],[76.48887,15.5162],[76.48928,15.51997],[76.49358,15.51978],[76.49371,15.52078],[76.49437,15.52126],[76.49188,15.52312],[76.49006,15.52383],[76.48935,15.52828],[76.48748,15.53479],[76.48986,15.53488],[76.49478,15.53388],[76.4954,15.53261],[76.49887,15.5314],[76.50744,15.53051],[76.50786,15.5366],[76.51177,15.54366],[76.51283,15.5466],[76.513,15.55428],[76.51232,15.56288],[76.51909,15.56511],[76.52695,15.57104],[76.5281,15.57257],[76.52809,15.57569],[76.5255,15.58788],[76.52324,15.58795],[76.52428,15.59707],[76.53203,15.59525],[76.54225,15.59609],[76.54532,15.59675],[76.54546,15.59754],[76.54952,15.59752],[76.55043,15.60471],[76.55521,15.60497],[76.5579,15.60482],[76.5704,15.60213],[76.56971,15.59876]],[[76.51697,15.46088],[76.51777,15.45744],[76.51294,15.45741],[76.50853,15.45828],[76.50779,15.45686],[76.50685,15.45667],[76.50252,15.45717],[76.50248,15.45461],[76.50112,15.45461],[76.50093,15.45283],[76.4931,15.45175],[76.49528,15.44619],[76.49562,15.43802],[76.49478,15.42939],[76.49532,15.41939],[76.50136,15.40705],[76.52881,15.40819],[76.52915,15.4097],[76.52757,15.40987],[76.52791,15.41075],[76.53543,15.41087],[76.53638,15.40838],[76.53691,15.40273],[76.54095,15.40226],[76.5421,15.40027],[76.54246,15.40121],[76.54193,15.40341],[76.5455,15.40531],[76.54207,15.40881],[76.53839,15.41014],[76.53744,15.41092],[76.53767,15.41169],[76.53968,15.41097],[76.54367,15.4111],[76.54458,15.41196],[76.54445,15.4124],[76.54582,15.41245],[76.5461,15.41333],[76.54751,15.41263],[76.54727,15.41209],[76.5483,15.41142],[76.54791,15.40944],[76.54869,15.40942],[76.54928,15.4081],[76.5503,15.4079],[76.55132,15.4085],[76.55269,15.40821],[76.55328,15.40737],[76.5534,15.40599],[76.5548,15.40559],[76.55465,15.40458],[76.55636,15.40363],[76.55818,15.40379],[76.55938,15.40529],[76.56027,15.41218],[76.56424,15.41267],[76.56404,15.41414],[76.56301,15.41434],[76.564,15.4159],[76.56338,15.41641],[76.56387,15.41769],[76.56268,15.41789],[76.56239,15.41668],[76.5607,15.41699],[76.56114,15.41828],[76.55813,15.41835],[76.55646,15.42241],[76.55426,15.42503],[76.55528,15.42607],[76.55525,15.42683],[76.55344,15.43164],[76.55386,15.43385],[76.5507,15.43357],[76.55047,15.43605],[76.55116,15.43946],[76.55414,15.44368],[76.55284,15.4439],[76.55281,15.44932],[76.55183,15.45245],[76.54963,15.45487],[76.54979,15.45746],[76.54695,15.45705],[76.54034,15.4573],[76.52314,15.45916],[76.52268,15.46716],[76.52271,15.46847],[76.52315,15.46878],[76.5215,15.46843],[76.5159,15.46552],[76.51697,15.46088]]]}},{"type":"Feature","properties":{"unitId":562,"unitName":"Kanakagiri PS"},"geometry":{"type":"Polygon","coordinates":[[[76.51407,15.71558],[76.51714,15.7135],[76.5206,15.71205],[76.52763,15.70677],[76.52885,15.70084],[76.53578,15.69963],[76.53556,15.70387],[76.53994,15.70475],[76.54447,15.70364],[76.54145,15.699],[76.55088,15.69939],[76.56172,15.70304],[76.56203,15.70566],[76.56852,15.70323],[76.57336,15.70201],[76.57555,15.70091],[76.57528,15.70004],[76.58607,15.69768],[76.5853,15.69469],[76.58522,15.6893],[76.58335,15.68326],[76.57979,15.67706],[76.57719,15.67397],[76.57405,15.6674],[76.57129,15.66344],[76.56956,15.65905],[76.56751,15.65502],[76.56684,15.65485],[76.56587,15.65167],[76.564,15.64826],[76.56423,15.64715],[76.56358,15.64588],[76.56466,15.63982],[76.5664,15.63706],[76.56671,15.63313],[76.56638,15.63091],[76.56555,15.62841],[76.56444,15.6278],[76.56477,15.62705],[76.56333,15.62583],[76.56152,15.6219],[76.55417,15.62214],[76.5543,15.61774],[76.55389,15.61602],[76.55322,15.61411],[76.55112,15.61216],[76.54952,15.59752],[76.54546,15.59754],[76.54532,15.59675],[76.54225,15.59609],[76.53203,15.59525],[76.52428,15.59707],[76.52324,15.58795],[76.5255,15.58788],[76.52809,15.57569],[76.5281,15.57257],[76.52695,15.57104],[76.51909,15.56511],[76.51232,15.56288],[76.513,15.55428],[76.51283,15.5466],[76.51177,15.54366],[76.50786,15.5366],[76.50744,15.53051],[76.49887,15.5314],[76.4954,15.53261],[76.49478,15.53388],[76.48986,15.53488],[76.48748,15.53479],[76.48935,15.52828],[76.49006,15.52383],[76.49188,15.52312],[76.49437,15.52126],[76.49371,15.52078],[76.49358,15.51978],[76.48928,15.51997],[76.48887,15.5162],[76.48609,15.51623],[76.48412,15.51278],[76.48159,15.51349],[76.48106,15.50922],[76.478,15.50818],[76.4773,15.50284],[76.47717,15.49646],[76.4783,15.49428],[76.48077,15.48444],[76.46255,15.4878],[76.45531,15.48607],[76.4552,15.48558],[76.45205,15.49706],[76.45152,15.50343],[76.45099,15.50489],[76.44977,15.50543],[76.45015,15.51135],[76.44788,15.512],[76.43933,15.51032],[76.43529,15.51068],[76.43023,15.51225],[76.42575,15.51216],[76.42378,15.51207],[76.42308,15.50849],[76.42372,15.50113],[76.42267,15.49257],[76.42234,15.49262],[76.42107,15.48595],[76.42058,15.48128],[76.41172,15.48126],[76.40935,15.48182],[76.40498,15.48174],[76.39905,15.48263],[76.3975,15.48313],[76.39748,15.48521],[76.39667,15.48713],[76.38329,15.49269],[76.3762,15.49712],[76.36862,15.49803],[76.3574,15.50114],[76.34951,15.49374],[76.34786,15.48974],[76.33037,15.48919],[76.32822,15.48779],[76.31754,15.4829],[76.31801,15.48272],[76.31763,15.48226],[76.31255,15.47837],[76.3094,15.47812],[76.30865,15.47947],[76.30806,15.49817],[76.30858,15.50739],[76.30815,15.50779],[76.30741,15.51296],[76.30868,15.51264],[76.3095,15.52111],[76.30813,15.52696],[76.30943,15.52743],[76.30908,15.53124],[76.31076,15.53664],[76.31054,15.53817],[76.31196,15.54508],[76.3123,15.55214],[76.31289,15.55313],[76.31372,15.55874],[76.30923,15.55898],[76.30666,15.55828],[76.30167,15.55868],[76.30017,15.561],[76.30457,15.57324],[76.3044,15.57444],[76.30652,15.57928],[76.311,15.59502],[76.3152,15.59442],[76.32394,15.60471],[76.32124,15.60777],[76.32149,15.61407],[76.31944,15.61456],[76.31959,15.61636],[76.31837,15.61664],[76.31872,15.62133],[76.32204,15.62176],[76.32172,15.62307],[76.32205,15.62347],[76.32093,15.6251],[76.322,15.62544],[76.3205,15.63199],[76.32167,15.63236],[76.32224,15.63386],[76.32224,15.63695],[76.32132,15.63888],[76.33205,15.63778],[76.33786,15.63517],[76.33811,15.63354],[76.34319,15.62744],[76.34546,15.62996],[76.34469,15.63203],[76.34467,15.63379],[76.34506,15.63414],[76.34647,15.63523],[76.34974,15.63662],[76.35081,15.63822],[76.35343,15.63917],[76.35594,15.63872],[76.35666,15.63991],[76.35559,15.64653],[76.35635,15.64836],[76.35598,15.64901],[76.35474,15.64921],[76.35578,15.65143],[76.35622,15.65155],[76.3566,15.6536],[76.35669,15.65788],[76.35611,15.65979],[76.35653,15.66333],[76.35801,15.66524],[76.35987,15.66507],[76.3617,15.67081],[76.36129,15.67648],[76.36659,15.67514],[76.36955,15.67586],[76.37132,15.67413],[76.37297,15.67114],[76.37493,15.66895],[76.3752,15.6675],[76.37777,15.66898],[76.37995,15.67164],[76.37854,15.67628],[76.37868,15.68103],[76.37765,15.68129],[76.37794,15.68921],[76.38074,15.68826],[76.38439,15.69143],[76.38755,15.69151],[76.38976,15.69102],[76.39049,15.69173],[76.39217,15.69194],[76.3932,15.6915],[76.39344,15.68537],[76.3941,15.68419],[76.39589,15.68274],[76.39593,15.68138],[76.40074,15.68034],[76.40021,15.6746],[76.40089,15.67319],[76.40998,15.67172],[76.40993,15.67017],[76.41057,15.66849],[76.41325,15.66778],[76.41903,15.66706],[76.4223,15.66736],[76.42436,15.66825],[76.42692,15.66824],[76.4334,15.66656],[76.43491,15.6669],[76.4352,15.66997],[76.44034,15.66965],[76.44339,15.67054],[76.4485,15.67041],[76.45328,15.66913],[76.45442,15.66978],[76.45567,15.67712],[76.45674,15.67973],[76.45962,15.68418],[76.45838,15.68534],[76.45844,15.68645],[76.46368,15.68534],[76.46717,15.68399],[76.46921,15.6899],[76.4733,15.70884],[76.47671,15.70868],[76.47788,15.71102],[76.47934,15.71079],[76.48024,15.7135],[76.48436,15.71458],[76.48575,15.71376],[76.49062,15.7133],[76.49059,15.71216],[76.48987,15.71133],[76.491,15.71015],[76.4917,15.7084],[76.50489,15.71578],[76.50952,15.71724],[76.51407,15.71558]]]}},{"type":"Feature","properties":{"unitId":563,"unitName":"Karatagi PS"},"geometry":{"type":"Polygon","coordinates":[[[76.59177,15.6966],[76.59821,15.69613],[76.59838,15.68508],[76.59984,15.67583],[76.59974,15.67377],[76.60985,15.67123],[76.61063,15.67057],[76.61479,15.67077],[76.62417,15.66986],[76.63152,15.67059],[76.65398,15.6663],[76.65351,15.6607],[76.6716,15.65814],[76.67011,15.6392],[76.67286,15.6404],[76.67432,15.64177],[76.67683,15.64112],[76.67858,15.64268],[76.6795,15.64289],[76.67996,15.64394],[76.68082,15.64452],[76.68441,15.64609],[76.68538,15.64799],[76.69261,15.6482],[76.69448,15.64589],[76.69428,15.63386],[76.69356,15.62481],[76.68023,15.62719],[76.67957,15.61557],[76.68025,15.60684],[76.68238,15.60733],[76.68575,15.60619],[76.68833,15.60436],[76.69124,15.60329],[76.69015,15.59998],[76.68924,15.59912],[76.68885,15.59591],[76.69266,15.59359],[76.69664,15.59204],[76.70065,15.59117],[76.70128,15.59445],[76.72408,15.591],[76.72676,15.59107],[76.73743,15.59321],[76.74862,15.59024],[76.75281,15.58506],[76.75502,15.58483],[76.75554,15.58278],[76.75576,15.57099],[76.75976,15.56618],[76.76264,15.56519],[76.76262,15.56485],[76.77036,15.56256],[76.77149,15.5612],[76.77923,15.55737],[76.78764,15.55591],[76.79406,15.55411],[76.79782,15.55134],[76.81279,15.54694],[76.80984,15.53998],[76.80971,15.53819],[76.8078,15.53439],[76.80683,15.5292],[76.80689,15.52637],[76.80747,15.5243],[76.81062,15.51882],[76.81125,15.51683],[76.81059,15.51455],[76.79732,15.50369],[76.78542,15.49591],[76.78256,15.49346],[76.78125,15.49305],[76.76476,15.49174],[76.75866,15.49261],[76.75261,15.49207],[76.74873,15.49237],[76.74223,15.49124],[76.73722,15.49152],[76.73086,15.49275],[76.72396,15.49299],[76.71826,15.4916],[76.70801,15.48797],[76.70267,15.48499],[76.69944,15.48139],[76.69389,15.47877],[76.69506,15.47687],[76.69265,15.47577],[76.68865,15.47242],[76.68638,15.46972],[76.68514,15.46946],[76.68431,15.46856],[76.67974,15.46167],[76.67648,15.45529],[76.67373,15.45295],[76.67064,15.45666],[76.67267,15.459],[76.6723,15.46045],[76.67131,15.46044],[76.66986,15.46149],[76.66526,15.46567],[76.66134,15.46801],[76.65574,15.47042],[76.65276,15.47642],[76.65302,15.48498],[76.65378,15.4861],[76.64859,15.48585],[76.64574,15.48626],[76.63009,15.48931],[76.62427,15.49093],[76.62458,15.49573],[76.62393,15.50146],[76.62121,15.50847],[76.62052,15.51252],[76.61599,15.51315],[76.61603,15.51426],[76.61524,15.51454],[76.61128,15.51399],[76.60968,15.51442],[76.61028,15.51993],[76.60416,15.5196],[76.59883,15.5186],[76.58615,15.51985],[76.57953,15.52153],[76.57988,15.52214],[76.57747,15.52635],[76.57714,15.53002],[76.57885,15.55036],[76.58044,15.5543],[76.58206,15.56097],[76.58456,15.56465],[76.57843,15.56584],[76.57586,15.56785],[76.56711,15.57239],[76.56694,15.57666],[76.56747,15.57876],[76.56966,15.57817],[76.56986,15.58959],[76.56873,15.59762],[76.56927,15.59749],[76.57067,15.60199],[76.5579,15.60482],[76.55044,15.60492],[76.55112,15.61216],[76.55322,15.61411],[76.5543,15.61774],[76.55417,15.62214],[76.56152,15.6219],[76.56333,15.62583],[76.56477,15.62705],[76.56444,15.6278],[76.56555,15.62841],[76.56658,15.63166],[76.56664,15.63479],[76.5664,15.63706],[76.56466,15.63982],[76.56358,15.64588],[76.56423,15.64715],[76.564,15.64826],[76.56587,15.65167],[76.56684,15.65485],[76.56751,15.65502],[76.56956,15.65905],[76.57129,15.66344],[76.57405,15.6674],[76.57719,15.67397],[76.57979,15.67706],[76.58388,15.68441],[76.58522,15.6893],[76.5853,15.69469],[76.58607,15.69768],[76.59177,15.6966]]]}},{"type":"Feature","properties":{"unitId":564,"unitName":"Gangavathi Town PS"},"geometry":{"type":"Polygon","coordinates":[[[76.52306,15.46039],[76.52314,15.45916],[76.54034,15.4573],[76.54695,15.45705],[76.54979,15.45746],[76.54963,15.45487],[76.55183,15.45245],[76.55281,15.44932],[76.55284,15.4439],[76.55414,15.44368],[76.55116,15.43946],[76.55047,15.43605],[76.5507,15.43357],[76.55386,15.43385],[76.55344,15.43164],[76.55525,15.42683],[76.55528,15.42607],[76.55426,15.42503],[76.55646,15.42241],[76.55813,15.41835],[76.56114,15.41828],[76.5607,15.41699],[76.56239,15.41668],[76.56268,15.41789],[76.56387,15.41769],[76.56338,15.41641],[76.564,15.4159],[76.56301,15.41434],[76.56404,15.41414],[76.56424,15.41267],[76.56027,15.41218],[76.55938,15.40529],[76.55818,15.40379],[76.55636,15.40363],[76.55465,15.40458],[76.5548,15.40559],[76.5534,15.40599],[76.55328,15.40737],[76.55269,15.40821],[76.55132,15.4085],[76.5503,15.4079],[76.54928,15.4081],[76.54869,15.40942],[76.54791,15.40944],[76.5483,15.41142],[76.54727,15.41209],[76.54751,15.41263],[76.5461,15.41333],[76.54582,15.41245],[76.54445,15.4124],[76.54458,15.41196],[76.54367,15.4111],[76.53968,15.41097],[76.53767,15.41169],[76.53744,15.41092],[76.53839,15.41014],[76.54207,15.40881],[76.5455,15.40531],[76.54193,15.40341],[76.54246,15.40121],[76.5421,15.40027],[76.54095,15.40226],[76.53691,15.40273],[76.53638,15.40838],[76.53543,15.41087],[76.52791,15.41075],[76.52757,15.40987],[76.52915,15.4097],[76.52881,15.40819],[76.50129,15.40715],[76.49532,15.41939],[76.49478,15.42939],[76.49562,15.43802],[76.49528,15.44619],[76.4931,15.45175],[76.50093,15.45283],[76.50112,15.45461],[76.50248,15.45461],[76.50252,15.45717],[76.50685,15.45667],[76.50779,15.45686],[76.50853,15.45828],[76.51294,15.45741],[76.51777,15.45744],[76.5159,15.46552],[76.52252,15.46873],[76.52323,15.4687],[76.52271,15.46847],[76.52306,15.46039]]]}},{"type":"Feature","properties":{"unitId":565,"unitName":"Kushtagi PS"},"geometry":{"type":"MultiPolygon","coordinates":[[[[76.2006,15.94472],[76.20049,15.94393],[76.20869,15.9422],[76.22649,15.9409],[76.22661,15.93873],[76.23012,15.92333],[76.24086,15.92295],[76.2523,15.92353],[76.25679,15.92287],[76.25685,15.91527],[76.26092,15.91478],[76.26185,15.90669],[76.27176,15.90458],[76.27404,15.91042],[76.27741,15.90934],[76.27595,15.90362],[76.2797,15.90284],[76.28536,15.90248],[76.28724,15.8989],[76.28748,15.89684],[76.28973,15.8926],[76.29023,15.89264],[76.28995,15.88729],[76.28826,15.88487],[76.28616,15.8835],[76.28207,15.88365],[76.28035,15.87179],[76.27963,15.87049],[76.27885,15.86607],[76.2755,15.86303],[76.27382,15.86227],[76.27171,15.86259],[76.27126,15.86091],[76.2698,15.86109],[76.26813,15.85577],[76.26719,15.85045],[76.26669,15.84328],[76.27099,15.84242],[76.2786,15.83924],[76.28684,15.83687],[76.28774,15.8312],[76.29465,15.83003],[76.30112,15.8313],[76.30013,15.82116],[76.2915,15.82223],[76.28756,15.8237],[76.28002,15.82537],[76.27956,15.82476],[76.28069,15.81531],[76.28,15.8023],[76.28549,15.80217],[76.29131,15.80285],[76.29063,15.79406],[76.29733,15.79444],[76.29766,15.78572],[76.29652,15.78035],[76.29631,15.77599],[76.29732,15.77335],[76.29718,15.77008],[76.2985,15.76624],[76.30595,15.7601],[76.306,15.75714],[76.30863,15.75656],[76.31046,15.75347],[76.30891,15.75289],[76.30161,15.75364],[76.2999,15.75258],[76.29838,15.75231],[76.29267,15.7517],[76.28828,15.75191],[76.28508,15.75103],[76.28491,15.75005],[76.28339,15.74832],[76.28252,15.74097],[76.27525,15.7404],[76.2693,15.74115],[76.26901,15.73997],[76.26473,15.73458],[76.26404,15.72881],[76.26719,15.72664],[76.26884,15.727],[76.26961,15.72586],[76.26913,15.725],[76.26955,15.72481],[76.27284,15.72564],[76.27446,15.72512],[76.27684,15.72542],[76.27891,15.72334],[76.2766,15.72192],[76.27432,15.71514],[76.27115,15.70938],[76.26969,15.70532],[76.2661,15.70565],[76.25965,15.70481],[76.25898,15.70425],[76.25417,15.70466],[76.24889,15.70404],[76.2432,15.70488],[76.24324,15.70435],[76.23964,15.70215],[76.23602,15.70089],[76.23328,15.70061],[76.23065,15.70052],[76.22205,15.70227],[76.21716,15.70163],[76.21378,15.70031],[76.20902,15.6996],[76.20874,15.70262],[76.20714,15.70283],[76.20041,15.70178],[76.19583,15.70165],[76.19219,15.70217],[76.17881,15.70602],[76.17339,15.70804],[76.16731,15.71144],[76.16524,15.7134],[76.16303,15.71029],[76.15812,15.71239],[76.15407,15.71334],[76.15207,15.71071],[76.151,15.71094],[76.14902,15.71256],[76.14546,15.71332],[76.1434,15.71492],[76.13758,15.71296],[76.1347,15.71017],[76.12728,15.71132],[76.12156,15.71156],[76.11274,15.71316],[76.11317,15.71447],[76.11261,15.71964],[76.11218,15.72131],[76.11074,15.72311],[76.10886,15.72839],[76.10696,15.72757],[76.10436,15.72559],[76.10293,15.72539],[76.10233,15.72449],[76.09931,15.7242],[76.09627,15.72264],[76.09376,15.72195],[76.09322,15.72092],[76.09148,15.72017],[76.08308,15.7191],[76.07543,15.71642],[76.07443,15.72324],[76.0766,15.72349],[76.07594,15.72994],[76.07373,15.73097],[76.07447,15.73625],[76.07284,15.74297],[76.06951,15.74203],[76.06612,15.74225],[76.06605,15.74192],[76.06407,15.7421],[76.06447,15.74317],[76.06175,15.74367],[76.05747,15.74324],[76.05735,15.74446],[76.0515,15.74387],[76.05013,15.7444],[76.05007,15.74401],[76.04799,15.74389],[76.04836,15.74287],[76.04748,15.74249],[76.04405,15.74206],[76.0433,15.73651],[76.03684,15.73725],[76.03702,15.73947],[76.03891,15.74572],[76.03979,15.74715],[76.03997,15.75387],[76.0399,15.75444],[76.03829,15.75494],[76.03479,15.75495],[76.0347,15.75693],[76.03688,15.75766],[76.03756,15.7613],[76.03862,15.76141],[76.03882,15.76222],[76.03956,15.76221],[76.03947,15.76299],[76.04049,15.76324],[76.03915,15.77109],[76.04166,15.77158],[76.04179,15.77418],[76.04144,15.77622],[76.03917,15.77602],[76.03822,15.77776],[76.03766,15.77797],[76.0377,15.78297],[76.04041,15.78401],[76.04268,15.78411],[76.04985,15.78236],[76.04896,15.77614],[76.04911,15.77391],[76.05902,15.77316],[76.06027,15.77249],[76.06493,15.77248],[76.06475,15.76663],[76.06246,15.76234],[76.06222,15.76024],[76.0653,15.76157],[76.06736,15.76178],[76.07333,15.7607],[76.07485,15.76492],[76.07645,15.76511],[76.07878,15.76798],[76.07993,15.76849],[76.08039,15.77004],[76.08219,15.77033],[76.08282,15.77308],[76.0823,15.78615],[76.0753,15.78515],[76.06114,15.78432],[76.04897,15.78508],[76.04867,15.79634],[76.04933,15.7981],[76.05135,15.80053],[76.05337,15.80239],[76.05412,15.80248],[76.05396,15.80344],[76.04984,15.80941],[76.05112,15.8194],[76.05071,15.82328],[76.04976,15.82506],[76.0568,15.82552],[76.05927,15.82667],[76.0599,15.83416],[76.05833,15.83708],[76.05944,15.84715],[76.06342,15.84592],[76.07188,15.84439],[76.07669,15.83808],[76.07918,15.83375],[76.08178,15.83547],[76.08506,15.83573],[76.08686,15.84001],[76.08688,15.8455],[76.08512,15.85059],[76.08484,15.85599],[76.08405,15.8559],[76.08474,15.86298],[76.08603,15.86703],[76.0846,15.86855],[76.08399,15.87028],[76.08557,15.87317],[76.08506,15.87635],[76.08557,15.87855],[76.08445,15.88603],[76.08478,15.88791],[76.08677,15.88775],[76.09585,15.88879],[76.10364,15.89159],[76.10337,15.89388],[76.10604,15.89346],[76.11743,15.88601],[76.12046,15.88875],[76.12308,15.89025],[76.12541,15.89416],[76.13437,15.89554],[76.14016,15.89453],[76.1453,15.89528],[76.14563,15.8974],[76.1493,15.90517],[76.15217,15.90979],[76.15395,15.91508],[76.1568,15.91637],[76.15834,15.91799],[76.15998,15.9213],[76.16493,15.92179],[76.1719,15.92499],[76.17186,15.93171],[76.18077,15.93121],[76.19471,15.93237],[76.19656,15.93462],[76.20002,15.93597],[76.2003,15.93787],[76.20094,15.93847],[76.19997,15.94089],[76.20028,15.94206],[76.19996,15.94402],[76.20006,15.94462],[76.2006,15.94472]]],[[[76.31177,15.74798],[76.31368,15.73803],[76.31577,15.73432],[76.31539,15.73158],[76.31598,15.72999],[76.31748,15.72929],[76.31602,15.72885],[76.31439,15.72756],[76.31275,15.72479],[76.30913,15.72298],[76.3073,15.72152],[76.3031,15.72008],[76.30083,15.7199],[76.30029,15.72405],[76.29845,15.72487],[76.29732,15.72464],[76.29641,15.72376],[76.29385,15.72512],[76.294,15.72951],[76.29364,15.73056],[76.29254,15.73138],[76.29262,15.74272],[76.29507,15.74507],[76.30206,15.74708],[76.30329,15.7469],[76.30402,15.74763],[76.3116,15.74949],[76.31177,15.74798]]]]}},{"type":"Feature","properties":{"unitId":566,"unitName":"Tavaregera PS"},"geometry":{"type":"Polygon","coordinates":[[[76.37377,15.91746],[76.37381,15.91593],[76.37503,15.91229],[76.37505,15.90224],[76.39427,15.9031],[76.40323,15.90193],[76.40326,15.8996],[76.40718,15.89859],[76.4083,15.89807],[76.40818,15.89765],[76.41018,15.89685],[76.41591,15.89549],[76.41725,15.89572],[76.42629,15.89047],[76.42567,15.89009],[76.42621,15.88977],[76.4239,15.88787],[76.42425,15.88579],[76.42194,15.87326],[76.41914,15.87126],[76.41678,15.86484],[76.41986,15.86364],[76.42307,15.86323],[76.43128,15.86],[76.43694,15.85931],[76.44189,15.85586],[76.44953,15.85333],[76.45168,15.85525],[76.45127,15.84558],[76.451,15.84379],[76.44933,15.83979],[76.44886,15.83628],[76.44609,15.83366],[76.44231,15.82349],[76.43854,15.82443],[76.43636,15.82378],[76.42661,15.81584],[76.42667,15.81465],[76.4255,15.8134],[76.42186,15.81261],[76.42178,15.81229],[76.42238,15.81243],[76.42213,15.81144],[76.42251,15.81047],[76.42155,15.80829],[76.42115,15.80833],[76.42057,15.80565],[76.41919,15.80561],[76.41744,15.80671],[76.41666,15.80548],[76.41442,15.80515],[76.41295,15.8042],[76.41329,15.80239],[76.41273,15.80011],[76.41277,15.79645],[76.41506,15.79315],[76.41484,15.79169],[76.41727,15.79109],[76.42209,15.79097],[76.42223,15.786],[76.43084,15.7861],[76.43366,15.78765],[76.4373,15.78674],[76.43712,15.78565],[76.43838,15.7855],[76.43854,15.78495],[76.43946,15.78475],[76.43887,15.77616],[76.43951,15.76623],[76.43859,15.76472],[76.43795,15.75857],[76.43809,15.7579],[76.43869,15.75786],[76.43965,15.74955],[76.44539,15.74699],[76.44802,15.74442],[76.44678,15.74192],[76.44393,15.73914],[76.44678,15.73531],[76.44631,15.73435],[76.44971,15.73344],[76.45159,15.73235],[76.45374,15.73015],[76.45947,15.72764],[76.46919,15.72519],[76.47429,15.72192],[76.47605,15.72141],[76.47605,15.72097],[76.47807,15.72012],[76.48242,15.71935],[76.48441,15.71494],[76.48348,15.71428],[76.48024,15.7135],[76.47934,15.71079],[76.47788,15.71102],[76.47671,15.70868],[76.4733,15.70884],[76.46921,15.6899],[76.46717,15.68399],[76.46368,15.68534],[76.45844,15.68645],[76.45838,15.68534],[76.45962,15.68418],[76.45674,15.67973],[76.45567,15.67712],[76.45442,15.66978],[76.45328,15.66913],[76.4485,15.67041],[76.44339,15.67054],[76.44034,15.66965],[76.4352,15.66997],[76.43491,15.6669],[76.4334,15.66656],[76.42692,15.66824],[76.42436,15.66825],[76.4223,15.66736],[76.41903,15.66706],[76.41325,15.66778],[76.41057,15.66849],[76.40993,15.67017],[76.40998,15.67172],[76.40089,15.67319],[76.40021,15.6746],[76.40074,15.68034],[76.39593,15.68138],[76.39589,15.68274],[76.3941,15.68419],[76.39344,15.68537],[76.3932,15.6915],[76.39217,15.69194],[76.39049,15.69173],[76.38976,15.69102],[76.38755,15.69151],[76.38439,15.69143],[76.38074,15.68826],[76.37794,15.68921],[76.37765,15.68129],[76.37868,15.68103],[76.37854,15.67628],[76.37995,15.67164],[76.37777,15.66898],[76.3752,15.6675],[76.37493,15.66895],[76.36977,15.67575],[76.36659,15.67514],[76.36129,15.67648],[76.3617,15.67081],[76.35987,15.66507],[76.35801,15.66524],[76.35653,15.66333],[76.35611,15.65979],[76.35669,15.65788],[76.3566,15.6536],[76.35622,15.65155],[76.35578,15.65143],[76.35474,15.64921],[76.35598,15.64901],[76.35635,15.64836],[76.35559,15.64653],[76.35666,15.63991],[76.35594,15.63872],[76.35343,15.63917],[76.35081,15.63822],[76.34974,15.63662],[76.34647,15.63523],[76.34467,15.63379],[76.34469,15.63203],[76.34546,15.62996],[76.34319,15.62744],[76.33811,15.63354],[76.33786,15.63517],[76.33258,15.63753],[76.33561,15.64043],[76.33727,15.64291],[76.33513,15.64302],[76.33569,15.64851],[76.33513,15.649],[76.3334,15.64901],[76.33217,15.65018],[76.33004,15.65494],[76.32713,15.65915],[76.3268,15.66095],[76.32502,15.66413],[76.32525,15.6646],[76.32334,15.66505],[76.32255,15.66644],[76.32174,15.66689],[76.32148,15.66815],[76.31939,15.67154],[76.31564,15.67249],[76.31107,15.67574],[76.31208,15.68135],[76.31495,15.68848],[76.31596,15.69289],[76.31718,15.69254],[76.32015,15.69922],[76.31969,15.70526],[76.31701,15.70985],[76.3152,15.71995],[76.31298,15.72537],[76.31439,15.72756],[76.31602,15.72885],[76.31748,15.72929],[76.31598,15.72999],[76.31539,15.73158],[76.31577,15.73432],[76.31339,15.73906],[76.31339,15.74093],[76.31207,15.74539],[76.3116,15.74949],[76.30402,15.74763],[76.30329,15.7469],[76.30206,15.74708],[76.29507,15.74507],[76.29319,15.74358],[76.29256,15.74253],[76.29288,15.73953],[76.29242,15.73714],[76.29254,15.73138],[76.28932,15.73175],[76.28592,15.73283],[76.28366,15.73484],[76.28243,15.74214],[76.28339,15.74832],[76.28491,15.75005],[76.28508,15.75103],[76.28828,15.75191],[76.29267,15.7517],[76.29838,15.75231],[76.2999,15.75258],[76.30161,15.75364],[76.30891,15.75289],[76.31046,15.75347],[76.30863,15.75656],[76.306,15.75714],[76.30595,15.7601],[76.2985,15.76624],[76.29718,15.77008],[76.29732,15.77335],[76.29631,15.77599],[76.29652,15.78035],[76.29766,15.78572],[76.29733,15.79444],[76.29063,15.79406],[76.29131,15.80285],[76.28549,15.80217],[76.28,15.8023],[76.28069,15.81531],[76.27956,15.82476],[76.28002,15.82537],[76.28756,15.8237],[76.2915,15.82223],[76.30013,15.82116],[76.30112,15.8313],[76.29465,15.83003],[76.28774,15.8312],[76.28684,15.83687],[76.2786,15.83924],[76.27099,15.84242],[76.26669,15.84328],[76.26699,15.84865],[76.26813,15.85577],[76.2698,15.86109],[76.27126,15.86091],[76.27171,15.86259],[76.27382,15.86227],[76.2755,15.86303],[76.27885,15.86607],[76.27963,15.87049],[76.28035,15.87179],[76.28207,15.88365],[76.28616,15.8835],[76.28826,15.88487],[76.28995,15.88729],[76.29023,15.89264],[76.29731,15.89413],[76.30072,15.89623],[76.30306,15.89548],[76.30419,15.89429],[76.30559,15.89367],[76.30533,15.89335],[76.30636,15.89356],[76.30651,15.89311],[76.31314,15.89482],[76.31441,15.89596],[76.31494,15.8974],[76.31456,15.89975],[76.31504,15.89967],[76.31518,15.89907],[76.31546,15.89993],[76.32111,15.90174],[76.32115,15.90354],[76.32514,15.90377],[76.33009,15.90535],[76.33238,15.90554],[76.33499,15.90472],[76.34108,15.90143],[76.34511,15.90073],[76.34639,15.89041],[76.34201,15.87705],[76.33881,15.87364],[76.33777,15.87157],[76.35056,15.8635],[76.35132,15.86357],[76.35325,15.86527],[76.35422,15.8646],[76.35515,15.86528],[76.35581,15.86698],[76.35855,15.88144],[76.3573,15.88176],[76.3575,15.8858],[76.35679,15.89739],[76.35851,15.90113],[76.35373,15.90316],[76.35801,15.90882],[76.36234,15.91157],[76.36512,15.9122],[76.36635,15.91187],[76.36885,15.91214],[76.37042,15.91288],[76.37223,15.91535],[76.37305,15.91746],[76.37377,15.91746]]]}},{"type":"Feature","properties":{"unitId":567,"unitName":"Alwandi PS"},"geometry":{"type":"Polygon","coordinates":[[[76.09947,15.39939],[76.09947,15.39298],[76.09893,15.38846],[76.10049,15.37808],[76.10168,15.37511],[76.10128,15.36328],[76.1005,15.35742],[76.09455,15.35801],[76.09422,15.35443],[76.09297,15.34905],[76.09306,15.34687],[76.092,15.34455],[76.09218,15.3401],[76.09347,15.33341],[76.09516,15.3302],[76.09954,15.32696],[76.10069,15.32637],[76.10408,15.32609],[76.10413,15.32209],[76.10329,15.31912],[76.10134,15.31655],[76.10918,15.31464],[76.11449,15.31538],[76.11962,15.31506],[76.11984,15.31367],[76.12021,15.30078],[76.11944,15.28656],[76.11465,15.28528],[76.11476,15.28497],[76.11021,15.28231],[76.10654,15.2816],[76.10955,15.27734],[76.11516,15.27231],[76.11513,15.27101],[76.11588,15.2693],[76.11944,15.26497],[76.11977,15.26399],[76.11954,15.26025],[76.12106,15.2545],[76.12266,15.25325],[76.12425,15.25282],[76.1293,15.24654],[76.13026,15.24293],[76.12985,15.24053],[76.12684,15.23714],[76.12557,15.23665],[76.12497,15.23281],[76.12859,15.23196],[76.13689,15.23251],[76.14082,15.23162],[76.14265,15.23084],[76.14367,15.22982],[76.14675,15.22923],[76.14857,15.2299],[76.1525,15.22882],[76.15976,15.22877],[76.16371,15.22765],[76.16636,15.22423],[76.16676,15.2229],[76.16269,15.22118],[76.16708,15.22089],[76.16513,15.2199],[76.16279,15.21652],[76.15835,15.21292],[76.15755,15.21085],[76.15862,15.20546],[76.16019,15.20374],[76.16033,15.20033],[76.15724,15.197],[76.1531,15.19586],[76.14787,15.19695],[76.1385,15.20075],[76.13249,15.20257],[76.12768,15.20333],[76.1229,15.2033],[76.11525,15.20077],[76.11082,15.19689],[76.10848,15.19267],[76.10596,15.18362],[76.10521,15.1738],[76.10205,15.16758],[76.09498,15.16298],[76.08886,15.16136],[76.08258,15.15897],[76.07637,15.15821],[76.07183,15.15881],[76.06743,15.1586],[76.05811,15.15711],[76.05606,15.15636],[76.05101,15.15159],[76.05003,15.14983],[76.04769,15.14858],[76.04439,15.14571],[76.04123,15.14412],[76.03138,15.14295],[76.02484,15.14319],[76.01821,15.14502],[76.01069,15.14801],[76.00663,15.14845],[76.00375,15.1482],[76.0004,15.14627],[75.99777,15.14552],[75.99338,15.14666],[75.99008,15.14896],[75.98588,15.151],[75.98035,15.1515],[75.97601,15.15028],[75.97189,15.14825],[75.97003,15.14672],[75.96879,15.14445],[75.96724,15.14292],[75.96376,15.14057],[75.96443,15.1394],[75.96016,15.1375],[75.95969,15.13902],[75.95611,15.13821],[75.95154,15.13861],[75.95035,15.15354],[75.94986,15.15534],[75.94982,15.15961],[75.94836,15.16661],[75.94803,15.17309],[75.94719,15.17378],[75.94294,15.17439],[75.94034,15.17541],[75.93614,15.17755],[75.93145,15.17923],[75.92452,15.18296],[75.92598,15.19473],[75.92435,15.2058],[75.92306,15.20755],[75.91908,15.21976],[75.91466,15.22942],[75.91194,15.24094],[75.90386,15.23938],[75.9029,15.24164],[75.90264,15.24393],[75.90202,15.2439],[75.90182,15.24579],[75.9,15.24567],[75.8992,15.25011],[75.89941,15.25457],[75.8962,15.26402],[75.89468,15.2742],[75.89829,15.27586],[75.89477,15.27991],[75.895,15.28043],[75.89246,15.28204],[75.89197,15.28284],[75.89174,15.28623],[75.88963,15.28727],[75.89031,15.29014],[75.88877,15.29275],[75.88925,15.29442],[75.88892,15.29645],[75.88759,15.29738],[75.89003,15.2999],[75.8897,15.29994],[75.89024,15.30733],[75.88968,15.30729],[75.88966,15.30859],[75.88997,15.3113],[75.89075,15.31139],[75.89265,15.31657],[75.89304,15.31659],[75.89309,15.31764],[75.89309,15.31906],[75.89175,15.3217],[75.89126,15.32498],[75.89155,15.33184],[75.89151,15.33254],[75.89089,15.33251],[75.89078,15.33375],[75.89138,15.33383],[75.89121,15.33717],[75.88899,15.33678],[75.88811,15.35302],[75.8935,15.35369],[75.9034,15.35375],[75.90342,15.35907],[75.90978,15.35792],[75.91419,15.35789],[75.91424,15.35732],[75.91922,15.35596],[75.93871,15.35569],[75.93902,15.35503],[75.94211,15.35483],[75.95131,15.35507],[75.96147,15.35622],[75.96281,15.34906],[75.96291,15.34503],[75.97019,15.34501],[75.97393,15.34452],[75.97176,15.33975],[75.97222,15.3378],[75.97113,15.33338],[75.9728,15.32919],[75.9771,15.3294],[75.98573,15.32882],[75.98582,15.32609],[75.98657,15.3258],[75.98671,15.32428],[75.98618,15.31965],[75.98961,15.31937],[75.98994,15.3175],[75.9919,15.31625],[75.9966,15.30953],[75.99882,15.30755],[76.00056,15.30682],[76.00083,15.30432],[76.00924,15.30616],[76.018,15.30832],[76.01906,15.31429],[76.02137,15.31504],[76.02782,15.32013],[76.03486,15.32399],[76.04392,15.33206],[76.04885,15.33711],[76.05073,15.33976],[76.05544,15.34279],[76.05432,15.3459],[76.05419,15.34877],[76.0563,15.35329],[76.05924,15.35808],[76.06007,15.36078],[76.06134,15.36194],[76.06255,15.37221],[76.06188,15.38393],[76.0604,15.3919],[76.06093,15.39622],[76.06029,15.3995],[76.07206,15.39869],[76.08192,15.3992],[76.09068,15.40121],[76.09868,15.40406],[76.09947,15.39939]]]}},{"type":"Feature","properties":{"unitId":568,"unitName":"Koppal Rural PS"},"geometry":{"type":"Polygon","coordinates":[[[76.28003,15.61634],[76.281,15.61602],[76.28165,15.6113],[76.28048,15.61086],[76.28098,15.60983],[76.28236,15.60913],[76.28251,15.60775],[76.28515,15.60701],[76.28641,15.60512],[76.28995,15.60502],[76.29183,15.603],[76.29416,15.60214],[76.29422,15.59992],[76.30152,15.59876],[76.30415,15.59733],[76.311,15.59502],[76.30652,15.57928],[76.3044,15.57444],[76.30457,15.57324],[76.30017,15.561],[76.30167,15.55868],[76.30666,15.55828],[76.30923,15.55898],[76.31372,15.55874],[76.31289,15.55313],[76.3123,15.55214],[76.31196,15.54508],[76.31054,15.53817],[76.31076,15.53664],[76.30908,15.53124],[76.30943,15.52743],[76.30813,15.52696],[76.3095,15.52111],[76.30868,15.51264],[76.30741,15.51296],[76.30815,15.50779],[76.30858,15.50739],[76.30806,15.49817],[76.30865,15.47947],[76.3094,15.47812],[76.31255,15.47837],[76.31642,15.48136],[76.339,15.47157],[76.34534,15.47009],[76.35711,15.46445],[76.363,15.45244],[76.3642,15.4518],[76.36436,15.45072],[76.3634,15.44842],[76.36262,15.44821],[76.36111,15.44436],[76.37128,15.43809],[76.37139,15.4397],[76.37182,15.44011],[76.37283,15.43986],[76.37291,15.42729],[76.37983,15.42542],[76.37985,15.42002],[76.37951,15.41947],[76.38041,15.41638],[76.38647,15.41062],[76.39778,15.41054],[76.39576,15.40206],[76.40142,15.38853],[76.42127,15.38484],[76.41746,15.38036],[76.41586,15.37767],[76.41085,15.37403],[76.4104,15.37202],[76.41176,15.36882],[76.40679,15.36972],[76.40138,15.37314],[76.39563,15.37431],[76.38978,15.37092],[76.38879,15.37132],[76.38842,15.37064],[76.38649,15.37091],[76.38231,15.36826],[76.37969,15.37102],[76.37913,15.37263],[76.3657,15.37439],[76.36683,15.37892],[76.36315,15.37913],[76.35047,15.37696],[76.35001,15.37584],[76.33892,15.36518],[76.32382,15.36848],[76.32263,15.3722],[76.32227,15.37552],[76.32204,15.38641],[76.31703,15.38314],[76.30711,15.38531],[76.29912,15.38593],[76.29887,15.38538],[76.29599,15.38411],[76.28357,15.38788],[76.28014,15.38835],[76.27739,15.38604],[76.2752,15.3834],[76.27443,15.38174],[76.27349,15.37674],[76.2715,15.37533],[76.25941,15.37749],[76.25455,15.37863],[76.25165,15.37991],[76.25129,15.37793],[76.24917,15.37538],[76.24846,15.37553],[76.24747,15.3748],[76.24282,15.37491],[76.24227,15.37207],[76.24361,15.36891],[76.24456,15.3691],[76.25232,15.36731],[76.25208,15.36571],[76.25507,15.36513],[76.25713,15.36446],[76.25703,15.36403],[76.26086,15.36297],[76.26768,15.36277],[76.27035,15.36218],[76.27474,15.35792],[76.27611,15.3577],[76.2763,15.35337],[76.27596,15.35251],[76.27644,15.35052],[76.27572,15.34852],[76.26021,15.35102],[76.2571,15.3511],[76.25436,15.34484],[76.25262,15.34255],[76.25205,15.34004],[76.25098,15.33912],[76.24969,15.33834],[76.24445,15.33766],[76.24335,15.34053],[76.23902,15.33705],[76.23629,15.33588],[76.23637,15.335],[76.23529,15.33467],[76.23362,15.33313],[76.23301,15.3332],[76.23284,15.3319],[76.2315,15.33109],[76.23197,15.33093],[76.2318,15.32833],[76.23437,15.32558],[76.23553,15.32318],[76.23418,15.31251],[76.2344,15.31004],[76.23374,15.30215],[76.23206,15.30211],[76.23199,15.30089],[76.23302,15.29416],[76.2361,15.28414],[76.23663,15.2756],[76.23709,15.27431],[76.23722,15.26501],[76.23805,15.26454],[76.23859,15.26523],[76.23867,15.26405],[76.23851,15.2627],[76.23526,15.26277],[76.23389,15.26204],[76.23393,15.257],[76.23281,15.2555],[76.23181,15.25548],[76.23109,15.25428],[76.23069,15.25553],[76.23094,15.25684],[76.22867,15.25803],[76.22851,15.25996],[76.22747,15.2608],[76.22619,15.26059],[76.22436,15.25936],[76.21938,15.25805],[76.21927,15.25676],[76.21838,15.2565],[76.21118,15.2567],[76.21181,15.25588],[76.21194,15.25451],[76.2112,15.25383],[76.20811,15.25479],[76.20457,15.25404],[76.20409,15.25256],[76.20601,15.24807],[76.20467,15.24863],[76.2032,15.25242],[76.20208,15.25208],[76.19849,15.2537],[76.19872,15.25597],[76.18921,15.25555],[76.18867,15.25519],[76.18897,15.2524],[76.18701,15.24952],[76.1892,15.24899],[76.18862,15.24442],[76.1895,15.23572],[76.18756,15.23552],[76.1826,15.23306],[76.17401,15.22702],[76.16708,15.22089],[76.16269,15.22118],[76.16676,15.2229],[76.16636,15.22423],[76.16371,15.22765],[76.16134,15.22837],[76.15976,15.22877],[76.1525,15.22882],[76.14857,15.2299],[76.14675,15.22923],[76.14367,15.22982],[76.14265,15.23084],[76.14082,15.23162],[76.13689,15.23251],[76.12859,15.23196],[76.12497,15.23281],[76.12557,15.23665],[76.12684,15.23714],[76.12985,15.24053],[76.13026,15.24293],[76.1293,15.24654],[76.12425,15.25282],[76.12266,15.25325],[76.12106,15.2545],[76.11954,15.26025],[76.11977,15.26399],[76.11944,15.26497],[76.11588,15.2693],[76.11513,15.27101],[76.11516,15.27231],[76.10955,15.27734],[76.10654,15.2816],[76.11021,15.28231],[76.11476,15.28497],[76.11465,15.28528],[76.11944,15.28656],[76.12021,15.30078],[76.11962,15.31506],[76.11449,15.31538],[76.10918,15.31464],[76.10134,15.31655],[76.10329,15.31912],[76.10413,15.32209],[76.10408,15.32609],[76.1003,15.32648],[76.09516,15.3302],[76.09385,15.33221],[76.09238,15.33867],[76.092,15.34455],[76.09306,15.34687],[76.09297,15.34905],[76.09422,15.35443],[76.09455,15.35801],[76.1005,15.35742],[76.10184,15.37273],[76.10168,15.37511],[76.10049,15.37808],[76.09893,15.38846],[76.09947,15.39298],[76.09947,15.39939],[76.09868,15.40406],[76.10063,15.40451],[76.09892,15.40762],[76.09574,15.42046],[76.09356,15.42479],[76.09222,15.43073],[76.09135,15.4321],[76.09291,15.43199],[76.09692,15.43643],[76.09936,15.44064],[76.10284,15.44013],[76.10418,15.4405],[76.10005,15.44367],[76.09995,15.44528],[76.10969,15.44754],[76.11713,15.4478],[76.12044,15.44912],[76.12657,15.44976],[76.12683,15.45947],[76.14322,15.45884],[76.14646,15.45814],[76.16335,15.45798],[76.1688,15.46309],[76.16923,15.46523],[76.17239,15.47217],[76.1839,15.48807],[76.18679,15.48915],[76.19023,15.48692],[76.19413,15.48349],[76.19546,15.48301],[76.20565,15.48266],[76.20571,15.47945],[76.21492,15.47583],[76.21728,15.47561],[76.21613,15.47948],[76.21605,15.48186],[76.21859,15.48161],[76.21885,15.48456],[76.2184,15.48731],[76.21445,15.48911],[76.21266,15.48933],[76.20948,15.48882],[76.20908,15.49239],[76.20954,15.497],[76.21097,15.50301],[76.21457,15.50221],[76.22286,15.50622],[76.22403,15.50635],[76.22399,15.50985],[76.22675,15.51768],[76.22395,15.52615],[76.22333,15.53151],[76.22728,15.54176],[76.23024,15.54206],[76.2303,15.54067],[76.23436,15.54013],[76.2353,15.53954],[76.2388,15.53951],[76.24352,15.53822],[76.24445,15.54276],[76.24602,15.54519],[76.24578,15.5463],[76.24367,15.54784],[76.24272,15.54961],[76.24179,15.55928],[76.23864,15.56208],[76.24163,15.56623],[76.24344,15.57161],[76.24659,15.57575],[76.2476,15.57884],[76.2522,15.58017],[76.2544,15.58012],[76.25622,15.58972],[76.25869,15.59555],[76.26049,15.59869],[76.26155,15.59951],[76.26076,15.60122],[76.25993,15.60125],[76.25948,15.60314],[76.25953,15.60403],[76.26045,15.60393],[76.26066,15.60457],[76.26028,15.60489],[76.26121,15.60998],[76.26708,15.61096],[76.26727,15.61155],[76.2688,15.6123],[76.27006,15.61238],[76.27022,15.61312],[76.27802,15.6144],[76.27762,15.61496],[76.27772,15.61651],[76.28003,15.61634]],[[76.13447,15.35775],[76.12957,15.35331],[76.12355,15.34994],[76.12465,15.34669],[76.12382,15.34582],[76.12512,15.34477],[76.12492,15.3434],[76.12325,15.34022],[76.12447,15.33879],[76.12548,15.33849],[76.1279,15.33921],[76.12795,15.33815],[76.12725,15.3377],[76.12693,15.3367],[76.12756,15.33618],[76.12808,15.33674],[76.12928,15.33687],[76.13055,15.33588],[76.13218,15.33563],[76.12962,15.33477],[76.13048,15.3348],[76.12976,15.32912],[76.13108,15.32928],[76.1318,15.32589],[76.13505,15.32376],[76.13632,15.3224],[76.13577,15.32107],[76.13873,15.32027],[76.14326,15.32016],[76.146,15.32111],[76.14986,15.32386],[76.15119,15.32549],[76.15344,15.32558],[76.15348,15.32635],[76.15491,15.32633],[76.15505,15.32684],[76.15761,15.32801],[76.15956,15.32973],[76.16077,15.32788],[76.16313,15.3264],[76.1651,15.32975],[76.16801,15.33191],[76.16851,15.33443],[76.16935,15.33584],[76.17477,15.33837],[76.17956,15.34244],[76.18318,15.34452],[76.1828,15.3479],[76.19203,15.34693],[76.19054,15.35196],[76.18743,15.35769],[76.18486,15.35996],[76.182,15.36364],[76.1811,15.36763],[76.18377,15.37234],[76.17837,15.37406],[76.17664,15.37104],[76.17565,15.37018],[76.16093,15.37502],[76.15485,15.37538],[76.1489,15.37494],[76.13998,15.37549],[76.13858,15.37356],[76.13653,15.36766],[76.13549,15.36108],[76.13447,15.35775]]]}},{"type":"Feature","properties":{"unitId":569,"unitName":"Munirabad PS"},"geometry":{"type":"Polygon","coordinates":[[[76.28178,15.38829],[76.29599,15.38411],[76.29887,15.38538],[76.29912,15.38593],[76.30711,15.38531],[76.31703,15.38314],[76.32206,15.3864],[76.32227,15.37552],[76.32263,15.3722],[76.32382,15.36848],[76.33758,15.36528],[76.33892,15.36518],[76.35001,15.37584],[76.35047,15.37696],[76.36315,15.37913],[76.36683,15.37892],[76.3657,15.37439],[76.37913,15.37263],[76.37969,15.37102],[76.38231,15.36826],[76.38649,15.37091],[76.38842,15.37064],[76.38879,15.37132],[76.38978,15.37092],[76.39563,15.37431],[76.40138,15.37314],[76.40679,15.36972],[76.41618,15.36816],[76.41577,15.36633],[76.41734,15.36219],[76.41666,15.36143],[76.41592,15.35802],[76.41552,15.35777],[76.41621,15.35575],[76.41767,15.34619],[76.41878,15.34628],[76.41913,15.34514],[76.42027,15.34504],[76.42073,15.34429],[76.42018,15.34251],[76.42125,15.34112],[76.42222,15.33425],[76.40266,15.32634],[76.39835,15.32689],[76.38851,15.33116],[76.38656,15.33117],[76.3846,15.33048],[76.37955,15.33174],[76.38019,15.33041],[76.37953,15.32939],[76.37482,15.32833],[76.37148,15.32579],[76.36841,15.33292],[76.36613,15.33653],[76.36323,15.33571],[76.36325,15.33478],[76.36076,15.3348],[76.35796,15.33139],[76.35792,15.33054],[76.35492,15.32865],[76.36106,15.32831],[76.35888,15.32],[76.35341,15.31494],[76.35047,15.30933],[76.35055,15.30556],[76.34981,15.29935],[76.34813,15.29744],[76.34662,15.2966],[76.34481,15.29001],[76.34459,15.28552],[76.34528,15.279],[76.34489,15.27587],[76.3437,15.2732],[76.34089,15.27125],[76.33516,15.2659],[76.33119,15.26395],[76.32746,15.26383],[76.32653,15.2621],[76.32551,15.26196],[76.32421,15.26023],[76.32327,15.25773],[76.32044,15.25488],[76.3177,15.25367],[76.31752,15.25253],[76.31569,15.25004],[76.30709,15.23972],[76.29638,15.23335],[76.28551,15.2259],[76.27879,15.22046],[76.27022,15.20879],[76.26657,15.20708],[76.26195,15.20831],[76.25917,15.20799],[76.25634,15.20406],[76.25617,15.2009],[76.25432,15.19666],[76.2501,15.19192],[76.24618,15.19008],[76.24368,15.18982],[76.23978,15.19026],[76.23556,15.18912],[76.23101,15.18866],[76.22409,15.193],[76.22007,15.19656],[76.21912,15.19783],[76.21831,15.20215],[76.219,15.20392],[76.22485,15.21274],[76.22727,15.21906],[76.22951,15.22316],[76.23237,15.22708],[76.23235,15.22927],[76.23178,15.23031],[76.2306,15.23142],[76.22732,15.23266],[76.21761,15.23236],[76.21204,15.23326],[76.20232,15.23317],[76.19789,15.23409],[76.19394,15.23569],[76.1895,15.23572],[76.18862,15.24442],[76.1892,15.24899],[76.18701,15.24952],[76.18897,15.2524],[76.18867,15.25519],[76.18921,15.25555],[76.19872,15.25597],[76.19849,15.2537],[76.20208,15.25208],[76.2032,15.25242],[76.20467,15.24863],[76.20601,15.24807],[76.20409,15.25256],[76.20457,15.25404],[76.20811,15.25479],[76.2112,15.25383],[76.21194,15.25451],[76.21181,15.25588],[76.21118,15.2567],[76.21838,15.2565],[76.21927,15.25676],[76.21938,15.25805],[76.22436,15.25936],[76.22619,15.26059],[76.22747,15.2608],[76.22851,15.25996],[76.22867,15.25803],[76.23094,15.25684],[76.23069,15.25553],[76.23109,15.25428],[76.23181,15.25548],[76.23281,15.2555],[76.23393,15.257],[76.23389,15.26204],[76.23526,15.26277],[76.23851,15.2627],[76.23859,15.26523],[76.23805,15.26454],[76.23722,15.26501],[76.23692,15.26749],[76.23709,15.27431],[76.23663,15.2756],[76.2361,15.28414],[76.23302,15.29416],[76.23199,15.30089],[76.23206,15.30211],[76.23374,15.30215],[76.2344,15.31004],[76.23418,15.31251],[76.23553,15.32318],[76.23437,15.32558],[76.2318,15.32833],[76.23197,15.33093],[76.2315,15.33109],[76.23284,15.3319],[76.23301,15.3332],[76.23362,15.33313],[76.23529,15.33467],[76.23637,15.335],[76.23629,15.33588],[76.23902,15.33705],[76.24335,15.34053],[76.24445,15.33766],[76.24969,15.33834],[76.25098,15.33912],[76.25205,15.34004],[76.25262,15.34255],[76.25436,15.34484],[76.2571,15.3511],[76.26021,15.35102],[76.27572,15.34852],[76.27644,15.35052],[76.27596,15.35251],[76.2763,15.35337],[76.27611,15.3577],[76.27474,15.35792],[76.27035,15.36218],[76.26768,15.36277],[76.26086,15.36297],[76.25703,15.36403],[76.25713,15.36446],[76.25507,15.36513],[76.25208,15.36571],[76.25232,15.36731],[76.24456,15.3691],[76.24361,15.36891],[76.24227,15.37207],[76.24282,15.37491],[76.24747,15.3748],[76.24846,15.37553],[76.24917,15.37538],[76.24989,15.37653],[76.25053,15.37667],[76.25129,15.37793],[76.25165,15.37991],[76.25215,15.37993],[76.25455,15.37863],[76.25941,15.37749],[76.27098,15.37532],[76.27239,15.37562],[76.27349,15.37674],[76.27443,15.38174],[76.2752,15.3834],[76.27927,15.38777],[76.28014,15.38835],[76.28178,15.38829]]]}},{"type":"Feature","properties":{"unitId":570,"unitName":"Koppal Town PS"},"geometry":{"type":"Polygon","coordinates":[[[76.16772,15.33149],[76.1651,15.32975],[76.16313,15.3264],[76.16077,15.32788],[76.15956,15.32973],[76.15761,15.32801],[76.15505,15.32684],[76.15491,15.32633],[76.15348,15.32635],[76.15344,15.32558],[76.15119,15.32549],[76.14699,15.32156],[76.14326,15.32016],[76.14117,15.31993],[76.13577,15.32107],[76.13632,15.3224],[76.13505,15.32376],[76.1318,15.32589],[76.13108,15.32928],[76.12976,15.32912],[76.13048,15.3348],[76.12962,15.33477],[76.13218,15.33563],[76.13055,15.33588],[76.12928,15.33687],[76.12808,15.33674],[76.12756,15.33618],[76.12693,15.3367],[76.12725,15.3377],[76.12795,15.33815],[76.1279,15.33921],[76.12548,15.33849],[76.12447,15.33879],[76.12325,15.34022],[76.12492,15.3434],[76.12512,15.34477],[76.12382,15.34582],[76.12465,15.34669],[76.12355,15.34994],[76.12957,15.35331],[76.13447,15.35775],[76.13549,15.36108],[76.13653,15.36766],[76.13935,15.37511],[76.13998,15.37549],[76.1489,15.37494],[76.15485,15.37538],[76.16093,15.37502],[76.17565,15.37018],[76.17664,15.37104],[76.17837,15.37406],[76.18377,15.37234],[76.1811,15.36763],[76.182,15.36364],[76.18486,15.35996],[76.18743,15.35769],[76.19054,15.35196],[76.19203,15.34693],[76.1828,15.3479],[76.18318,15.34452],[76.17956,15.34244],[76.17477,15.33837],[76.16935,15.33584],[76.16772,15.33149]]]}},{"type":"Feature","properties":{"unitId":571,"unitName":"Kuknoor PS"},"geometry":{"type":"Polygon","coordinates":[[[75.88838,15.57814],[75.88963,15.57844],[75.89125,15.57734],[75.8963,15.57634],[75.90017,15.57246],[75.90066,15.5733],[75.90692,15.57044],[75.91162,15.56911],[75.91207,15.56854],[75.91232,15.56778],[75.91091,15.56432],[75.91249,15.56287],[75.91294,15.5598],[75.91375,15.55846],[75.91453,15.55337],[75.91412,15.55076],[75.91455,15.54913],[75.91409,15.54842],[75.91421,15.54583],[75.91172,15.54313],[75.9173,15.54212],[75.91834,15.54216],[75.9185,15.54318],[75.92546,15.5426],[75.95023,15.54269],[75.96093,15.5441],[75.96623,15.5435],[75.97315,15.54411],[75.97899,15.54669],[75.98068,15.54679],[75.98324,15.548],[75.98333,15.55052],[75.98754,15.55387],[75.98794,15.55471],[75.98744,15.55838],[75.98949,15.55955],[75.99102,15.5616],[75.99292,15.54773],[75.99326,15.54779],[75.99373,15.54657],[75.9951,15.54065],[75.99765,15.54222],[75.99773,15.53926],[75.99896,15.53642],[76.00029,15.52989],[76.00241,15.52946],[76.00399,15.52858],[76.01321,15.52774],[76.02486,15.52719],[76.02725,15.52746],[76.02803,15.53271],[76.02888,15.53292],[76.03131,15.53685],[76.03454,15.54553],[76.0369,15.55844],[76.03718,15.56741],[76.04853,15.56591],[76.04893,15.56457],[76.05162,15.56322],[76.06437,15.55417],[76.06656,15.55361],[76.06504,15.5326],[76.06453,15.52783],[76.06377,15.52552],[76.06414,15.52366],[76.06349,15.52159],[76.06398,15.52153],[76.07943,15.52111],[76.07918,15.52573],[76.082,15.53104],[76.08383,15.54761],[76.09174,15.54895],[76.0933,15.55044],[76.0944,15.55051],[76.09731,15.55214],[76.09955,15.55078],[76.10181,15.55112],[76.10392,15.54975],[76.10944,15.55241],[76.10949,15.55434],[76.1102,15.55479],[76.11474,15.5549],[76.11595,15.55548],[76.12166,15.55496],[76.11929,15.54921],[76.116,15.54382],[76.10881,15.52923],[76.11357,15.52771],[76.1157,15.52647],[76.12142,15.52434],[76.12526,15.52364],[76.1241,15.51693],[76.12303,15.51427],[76.11853,15.51361],[76.11702,15.51287],[76.11698,15.51207],[76.11553,15.51143],[76.11233,15.50769],[76.11136,15.50862],[76.10826,15.50614],[76.1059,15.50316],[76.10641,15.50299],[76.10572,15.50151],[76.10513,15.50156],[76.10408,15.50066],[76.10417,15.49677],[76.1163,15.49372],[76.11999,15.49321],[76.1269,15.49406],[76.12997,15.49555],[76.14184,15.49505],[76.15153,15.49544],[76.16609,15.49459],[76.16464,15.48324],[76.16236,15.47612],[76.1599,15.46512],[76.16027,15.45807],[76.14646,15.45814],[76.14322,15.45884],[76.12683,15.45947],[76.12657,15.44976],[76.12044,15.44912],[76.11713,15.4478],[76.10969,15.44754],[76.09995,15.44528],[76.10005,15.44367],[76.10418,15.4405],[76.10284,15.44013],[76.09936,15.44064],[76.09692,15.43643],[76.09291,15.43199],[76.09135,15.4321],[76.09222,15.43073],[76.09356,15.42479],[76.09574,15.42046],[76.09892,15.40762],[76.10063,15.40451],[76.09068,15.40121],[76.08192,15.3992],[76.07206,15.39869],[76.06029,15.3995],[76.06093,15.39622],[76.0604,15.3919],[76.06188,15.38393],[76.06255,15.37221],[76.06134,15.36194],[76.06007,15.36078],[76.05924,15.35808],[76.0563,15.35329],[76.05419,15.34877],[76.05432,15.3459],[76.05544,15.34279],[76.05073,15.33976],[76.04885,15.33711],[76.04392,15.33206],[76.03486,15.32399],[76.02782,15.32013],[76.02137,15.31504],[76.01906,15.31429],[76.018,15.30832],[76.00083,15.30432],[76.00056,15.30682],[75.99882,15.30755],[75.9966,15.30953],[75.9919,15.31625],[75.98994,15.3175],[75.98961,15.31937],[75.98618,15.31965],[75.98671,15.32428],[75.98657,15.3258],[75.98582,15.32609],[75.98573,15.32882],[75.9771,15.3294],[75.9728,15.32919],[75.97113,15.33338],[75.97222,15.3378],[75.97176,15.33975],[75.97393,15.34452],[75.97019,15.34501],[75.96291,15.34503],[75.96281,15.34906],[75.96147,15.35622],[75.94561,15.35479],[75.93902,15.35503],[75.93871,15.35569],[75.91922,15.35596],[75.91424,15.35732],[75.91419,15.35789],[75.90978,15.35792],[75.90281,15.35935],[75.90173,15.37062],[75.90172,15.37822],[75.90192,15.38229],[75.90344,15.38973],[75.90391,15.40279],[75.88648,15.40826],[75.88022,15.40891],[75.87766,15.40842],[75.87305,15.40897],[75.86528,15.40798],[75.86474,15.42316],[75.85947,15.42306],[75.85826,15.44362],[75.85327,15.4445],[75.85304,15.44393],[75.85161,15.44352],[75.85061,15.44493],[75.84749,15.44271],[75.84491,15.44293],[75.84511,15.44414],[75.84218,15.44379],[75.84171,15.44279],[75.83913,15.44297],[75.83641,15.44709],[75.83239,15.4473],[75.8319,15.44831],[75.82921,15.44851],[75.82681,15.44957],[75.82554,15.45066],[75.82324,15.45151],[75.82472,15.45144],[75.82506,15.45324],[75.82401,15.45419],[75.82077,15.45509],[75.8192,15.45612],[75.81808,15.46353],[75.81824,15.4691],[75.8124,15.46731],[75.81145,15.47584],[75.81041,15.47569],[75.80914,15.48784],[75.8154,15.4873],[75.81445,15.49575],[75.82306,15.49694],[75.8229,15.49909],[75.8189,15.50593],[75.81882,15.50835],[75.82517,15.50743],[75.83161,15.50712],[75.83223,15.50981],[75.84204,15.51256],[75.84891,15.51297],[75.84982,15.51571],[75.85392,15.51566],[75.85979,15.51375],[75.86024,15.52278],[75.86283,15.53011],[75.86288,15.53342],[75.86456,15.54252],[75.8663,15.54902],[75.86756,15.56099],[75.86715,15.56454],[75.86751,15.57634],[75.88353,15.57845],[75.88439,15.57786],[75.8868,15.57867],[75.88838,15.57814]]]}},{"type":"Feature","properties":{"unitId":572,"unitName":"Yelburga PS"},"geometry":{"type":"Polygon","coordinates":[[[75.89873,15.74929],[75.90154,15.74937],[75.9024,15.74813],[75.90351,15.74803],[75.90429,15.7471],[75.90673,15.74707],[75.90995,15.74396],[75.9106,15.73719],[75.90947,15.73185],[75.91902,15.72797],[75.92067,15.72607],[75.91966,15.72147],[75.91581,15.71016],[75.91498,15.70529],[75.91492,15.69797],[75.91919,15.69644],[75.9199,15.69456],[75.92526,15.69333],[75.92519,15.69253],[75.93052,15.69248],[75.93948,15.69384],[75.94063,15.68993],[75.94067,15.68724],[75.93984,15.68342],[75.94039,15.68317],[75.94088,15.68004],[75.94135,15.67996],[75.94205,15.67851],[75.94335,15.67834],[75.94369,15.67712],[75.95136,15.67787],[75.96105,15.67722],[75.96421,15.67757],[75.96725,15.67905],[75.96658,15.67596],[75.96626,15.66981],[75.96758,15.66965],[75.96726,15.66463],[75.9707,15.6645],[75.97674,15.66265],[75.97738,15.66267],[75.97798,15.66372],[75.98198,15.66424],[75.99082,15.66331],[76.008,15.66281],[76.01065,15.66188],[76.01472,15.66921],[76.01615,15.67342],[76.01644,15.67848],[76.01572,15.67974],[76.01432,15.68005],[76.00979,15.68008],[76.00303,15.67917],[75.99422,15.67886],[75.99314,15.67574],[75.99132,15.67342],[75.99103,15.67091],[75.98956,15.66985],[75.9867,15.66939],[75.98499,15.66732],[75.98232,15.66688],[75.98379,15.68068],[75.98632,15.68623],[75.98673,15.68959],[75.9831,15.69022],[75.98366,15.69389],[75.98456,15.69384],[75.98565,15.69645],[75.9865,15.69621],[75.98752,15.69915],[75.99233,15.70732],[75.9986,15.70849],[75.99998,15.70988],[76.00134,15.71024],[76.00229,15.71166],[76.00423,15.71196],[76.00474,15.71579],[76.01893,15.71515],[76.0204,15.71208],[76.0225,15.70921],[76.02582,15.71075],[76.02749,15.71304],[76.03045,15.71515],[76.03672,15.71643],[76.03762,15.71726],[76.04057,15.71773],[76.04202,15.71963],[76.04303,15.72007],[76.04492,15.72409],[76.04359,15.72518],[76.04295,15.72823],[76.04294,15.7295],[76.04372,15.73025],[76.04295,15.7343],[76.04405,15.74206],[76.04748,15.74249],[76.04836,15.74287],[76.04799,15.74389],[76.05007,15.74401],[76.05013,15.7444],[76.0515,15.74387],[76.05735,15.74446],[76.05747,15.74324],[76.06175,15.74367],[76.06447,15.74317],[76.06407,15.7421],[76.06605,15.74192],[76.06612,15.74225],[76.06951,15.74203],[76.07284,15.74297],[76.07447,15.73625],[76.07373,15.73097],[76.07594,15.72994],[76.0766,15.72349],[76.07443,15.72324],[76.07543,15.71642],[76.08308,15.7191],[76.09148,15.72017],[76.09322,15.72092],[76.09376,15.72195],[76.09627,15.72264],[76.09931,15.7242],[76.10233,15.72449],[76.10293,15.72539],[76.10436,15.72559],[76.10696,15.72757],[76.10886,15.72839],[76.11074,15.72311],[76.11218,15.72131],[76.11261,15.71964],[76.11317,15.71447],[76.11274,15.71316],[76.12156,15.71156],[76.12728,15.71132],[76.1347,15.71017],[76.13758,15.71296],[76.1434,15.71492],[76.14546,15.71332],[76.14902,15.71256],[76.151,15.71094],[76.15207,15.71071],[76.15407,15.71334],[76.15812,15.71239],[76.16303,15.71029],[76.16524,15.7134],[76.16731,15.71144],[76.17339,15.70804],[76.18794,15.70317],[76.18672,15.69491],[76.1868,15.69261],[76.18612,15.6902],[76.18614,15.68726],[76.18619,15.68625],[76.18859,15.68507],[76.18869,15.68458],[76.18582,15.67846],[76.18087,15.68128],[76.16813,15.68243],[76.15829,15.68548],[76.14546,15.6692],[76.1452,15.66795],[76.14298,15.66412],[76.14479,15.66358],[76.14438,15.66023],[76.1503,15.65853],[76.15422,15.65888],[76.15582,15.65847],[76.15576,15.65883],[76.15811,15.65808],[76.15784,15.64738],[76.15672,15.64103],[76.15769,15.63841],[76.15764,15.63422],[76.1542,15.6342],[76.14911,15.63324],[76.14829,15.64075],[76.1418,15.64173],[76.14076,15.64486],[76.13789,15.64482],[76.13755,15.64772],[76.13802,15.6507],[76.14196,15.66064],[76.13982,15.66122],[76.13369,15.66122],[76.12896,15.65691],[76.1278,15.65337],[76.12733,15.64505],[76.12571,15.63712],[76.12828,15.63786],[76.12902,15.63374],[76.12975,15.63357],[76.13113,15.62812],[76.13063,15.62492],[76.13105,15.6214],[76.13084,15.61992],[76.12977,15.61869],[76.12545,15.61957],[76.12459,15.61715],[76.12285,15.61462],[76.12152,15.60298],[76.12157,15.5908],[76.11872,15.59122],[76.11619,15.58658],[76.11373,15.5838],[76.10436,15.57905],[76.10216,15.57467],[76.10169,15.5706],[76.10087,15.57048],[76.10069,15.55915],[76.10398,15.5561],[76.10949,15.55434],[76.10944,15.55241],[76.10392,15.54975],[76.10181,15.55112],[76.09955,15.55078],[76.09731,15.55214],[76.0944,15.55051],[76.0933,15.55044],[76.09174,15.54895],[76.08383,15.54761],[76.082,15.53104],[76.07918,15.52573],[76.07943,15.52111],[76.06349,15.52159],[76.06414,15.52366],[76.06377,15.52552],[76.06453,15.52783],[76.06504,15.5326],[76.06656,15.55361],[76.06437,15.55417],[76.05162,15.56322],[76.04893,15.56457],[76.04853,15.56591],[76.04157,15.56689],[76.03718,15.56741],[76.0369,15.55844],[76.03454,15.54553],[76.03131,15.53685],[76.02888,15.53292],[76.02803,15.53271],[76.02725,15.52746],[76.02486,15.52719],[76.01321,15.52774],[76.00399,15.52858],[76.00241,15.52946],[76.00029,15.52989],[75.99896,15.53642],[75.99773,15.53926],[75.99765,15.54222],[75.9951,15.54065],[75.99373,15.54657],[75.99326,15.54779],[75.99292,15.54773],[75.99102,15.5616],[75.98949,15.55955],[75.98744,15.55838],[75.98794,15.55471],[75.98754,15.55387],[75.98333,15.55052],[75.98324,15.548],[75.98068,15.54679],[75.97899,15.54669],[75.97315,15.54411],[75.96623,15.5435],[75.96093,15.5441],[75.95023,15.54269],[75.92546,15.5426],[75.9185,15.54318],[75.91834,15.54216],[75.91495,15.54224],[75.91172,15.54313],[75.91421,15.54583],[75.91409,15.54842],[75.91455,15.54913],[75.91412,15.55076],[75.91453,15.55337],[75.91375,15.55846],[75.91294,15.5598],[75.91249,15.56287],[75.91091,15.56432],[75.91232,15.56778],[75.91162,15.56911],[75.90692,15.57044],[75.90066,15.5733],[75.90017,15.57246],[75.8963,15.57634],[75.89125,15.57734],[75.88963,15.57844],[75.88856,15.57812],[75.8868,15.57867],[75.88439,15.57786],[75.88353,15.57845],[75.88256,15.57836],[75.86834,15.57646],[75.86616,15.5952],[75.87843,15.59726],[75.8788,15.59529],[75.88268,15.59578],[75.88192,15.59965],[75.88934,15.60193],[75.8947,15.60246],[75.89488,15.60618],[75.89747,15.60613],[75.89774,15.60713],[75.89782,15.61413],[75.89902,15.62048],[75.89838,15.62403],[75.89373,15.62511],[75.89462,15.63237],[75.88606,15.63406],[75.88868,15.65382],[75.88731,15.66869],[75.88465,15.67199],[75.87832,15.67186],[75.87057,15.67329],[75.87097,15.70199],[75.87019,15.71501],[75.87972,15.71699],[75.88699,15.71755],[75.88958,15.72542],[75.88973,15.72785],[75.88886,15.72774],[75.88788,15.72853],[75.88675,15.73053],[75.88513,15.73213],[75.88382,15.73426],[75.88373,15.73528],[75.88208,15.73693],[75.88298,15.73719],[75.88499,15.73607],[75.88513,15.73716],[75.88818,15.73891],[75.89261,15.73912],[75.89712,15.75043],[75.89873,15.74929]]]}},{"type":"Feature","properties":{"unitId":573,"unitName":"Bevoor PS"},"geometry":{"type":"Polygon","coordinates":[[[76.27525,15.7404],[76.28252,15.74097],[76.28396,15.73438],[76.28592,15.73283],[76.29309,15.73105],[76.294,15.72951],[76.29385,15.72512],[76.29641,15.72376],[76.29732,15.72464],[76.29845,15.72487],[76.30029,15.72405],[76.30083,15.7199],[76.3031,15.72008],[76.30652,15.72114],[76.31275,15.72479],[76.31298,15.72537],[76.3152,15.71995],[76.31701,15.70985],[76.31969,15.70526],[76.32015,15.69922],[76.31718,15.69254],[76.31596,15.69289],[76.31495,15.68848],[76.31208,15.68135],[76.31107,15.67574],[76.31564,15.67249],[76.31939,15.67154],[76.32148,15.66815],[76.32174,15.66689],[76.32255,15.66644],[76.32334,15.66505],[76.32525,15.6646],[76.32502,15.66413],[76.3268,15.66095],[76.32713,15.65915],[76.33004,15.65494],[76.33217,15.65018],[76.3334,15.64901],[76.33513,15.649],[76.33569,15.64851],[76.33513,15.64302],[76.33727,15.64291],[76.33561,15.64043],[76.33258,15.63753],[76.32132,15.63888],[76.32224,15.63695],[76.32224,15.63386],[76.32167,15.63236],[76.3205,15.63199],[76.322,15.62544],[76.32093,15.6251],[76.32205,15.62347],[76.32172,15.62307],[76.32204,15.62176],[76.31872,15.62133],[76.31837,15.61664],[76.31959,15.61636],[76.31944,15.61456],[76.32149,15.61407],[76.32124,15.60777],[76.32394,15.60471],[76.3152,15.59442],[76.31363,15.5944],[76.30415,15.59733],[76.30152,15.59876],[76.29422,15.59992],[76.29416,15.60214],[76.29183,15.603],[76.28995,15.60502],[76.28641,15.60512],[76.28515,15.60701],[76.28251,15.60775],[76.28236,15.60913],[76.28098,15.60983],[76.28048,15.61086],[76.28165,15.6113],[76.28089,15.61628],[76.27772,15.61651],[76.27762,15.61496],[76.27802,15.6144],[76.27022,15.61312],[76.27006,15.61238],[76.2688,15.6123],[76.26727,15.61155],[76.26708,15.61096],[76.26121,15.60998],[76.26028,15.60489],[76.26066,15.60457],[76.26045,15.60393],[76.25953,15.60403],[76.25948,15.60314],[76.25993,15.60125],[76.26076,15.60122],[76.26155,15.59951],[76.26049,15.59869],[76.25869,15.59555],[76.25622,15.58972],[76.2544,15.58012],[76.2522,15.58017],[76.2476,15.57884],[76.24659,15.57575],[76.24344,15.57161],[76.24163,15.56623],[76.23864,15.56208],[76.24179,15.55928],[76.24272,15.54961],[76.24367,15.54784],[76.24578,15.5463],[76.24602,15.54519],[76.24445,15.54276],[76.24352,15.53822],[76.2388,15.53951],[76.2353,15.53954],[76.23436,15.54013],[76.2303,15.54067],[76.23024,15.54206],[76.22728,15.54176],[76.22333,15.53151],[76.22395,15.52615],[76.22675,15.51768],[76.22399,15.50985],[76.22403,15.50635],[76.22286,15.50622],[76.21457,15.50221],[76.21097,15.50301],[76.20933,15.4956],[76.20927,15.48941],[76.20948,15.48882],[76.21266,15.48933],[76.21445,15.48911],[76.2184,15.48731],[76.21885,15.48456],[76.21859,15.48161],[76.21605,15.48186],[76.21613,15.47948],[76.21728,15.47561],[76.21492,15.47583],[76.20571,15.47945],[76.20565,15.48266],[76.19546,15.48301],[76.19413,15.48349],[76.19023,15.48692],[76.18679,15.48915],[76.1839,15.48807],[76.17799,15.47943],[76.1737,15.47409],[76.1712,15.47012],[76.16849,15.46273],[76.16335,15.45798],[76.16027,15.45807],[76.1599,15.46512],[76.16236,15.47612],[76.16464,15.48324],[76.16609,15.49459],[76.15153,15.49544],[76.14184,15.49505],[76.12997,15.49555],[76.1269,15.49406],[76.11999,15.49321],[76.1163,15.49372],[76.10417,15.49677],[76.10408,15.50066],[76.10513,15.50156],[76.10572,15.50151],[76.10641,15.50299],[76.1059,15.50316],[76.10826,15.50614],[76.11136,15.50862],[76.11233,15.50769],[76.11553,15.51143],[76.11698,15.51207],[76.11702,15.51287],[76.11853,15.51361],[76.12324,15.51452],[76.1241,15.51693],[76.12517,15.52302],[76.12526,15.52364],[76.12142,15.52434],[76.1157,15.52647],[76.11357,15.52771],[76.10881,15.52923],[76.116,15.54382],[76.11929,15.54921],[76.12166,15.55496],[76.11595,15.55548],[76.11474,15.5549],[76.1102,15.55479],[76.10949,15.55434],[76.10398,15.5561],[76.10069,15.55915],[76.10069,15.56508],[76.10087,15.57048],[76.10169,15.5706],[76.10216,15.57467],[76.10436,15.57905],[76.11373,15.5838],[76.11619,15.58658],[76.11872,15.59122],[76.12157,15.5908],[76.12152,15.60298],[76.12285,15.61462],[76.12459,15.61715],[76.12545,15.61957],[76.12977,15.61869],[76.13084,15.61992],[76.13063,15.62492],[76.13113,15.62812],[76.12975,15.63357],[76.12902,15.63374],[76.12828,15.63786],[76.12571,15.63712],[76.12733,15.64505],[76.1278,15.65337],[76.12896,15.65691],[76.13369,15.66122],[76.13982,15.66122],[76.14196,15.66064],[76.13802,15.6507],[76.13755,15.64772],[76.13789,15.64482],[76.14076,15.64486],[76.1418,15.64173],[76.14829,15.64075],[76.14911,15.63324],[76.1542,15.6342],[76.15764,15.63422],[76.15769,15.63841],[76.15672,15.64103],[76.15784,15.64738],[76.15811,15.65808],[76.15576,15.65883],[76.15582,15.65847],[76.15422,15.65888],[76.1503,15.65853],[76.14538,15.65969],[76.14438,15.66023],[76.14479,15.66358],[76.14298,15.66412],[76.14625,15.67037],[76.15099,15.67577],[76.15302,15.67899],[76.15829,15.68548],[76.16813,15.68243],[76.18087,15.68128],[76.18582,15.67846],[76.18869,15.68458],[76.18859,15.68507],[76.18619,15.68625],[76.18614,15.68726],[76.18612,15.6902],[76.1868,15.69261],[76.18672,15.69491],[76.18794,15.70317],[76.19575,15.70165],[76.20041,15.70178],[76.20714,15.70283],[76.20874,15.70262],[76.20902,15.6996],[76.21378,15.70031],[76.21716,15.70163],[76.22205,15.70227],[76.23065,15.70052],[76.23587,15.70086],[76.23964,15.70215],[76.24324,15.70435],[76.2432,15.70488],[76.24889,15.70404],[76.25417,15.70466],[76.25898,15.70425],[76.25965,15.70481],[76.2661,15.70565],[76.26969,15.70532],[76.27115,15.70938],[76.27432,15.71514],[76.2766,15.72192],[76.27891,15.72334],[76.27684,15.72542],[76.27446,15.72512],[76.27284,15.72564],[76.26955,15.72481],[76.26913,15.725],[76.26961,15.72586],[76.26884,15.727],[76.26719,15.72664],[76.26474,15.72808],[76.26404,15.72881],[76.26473,15.73458],[76.26901,15.73997],[76.2693,15.74115],[76.27525,15.7404]]]}}]}