{"type":"FeatureCollection","features":[{"type":"Feature","properties":{"unitId":669,"unitName":"Akkur PS"},"geometry":{"type":"Polygon","coordinates":[[[77.28195,12.59723],[77.28262,12.59971],[77.28611,12.60005],[77.28815,12.60178],[77.28913,12.60188],[77.29079,12.60019],[77.29303,12.59959],[77.29384,12.59537],[77.29368,12.59032],[77.29645,12.58802],[77.29687,12.58708],[77.30049,12.58555],[77.30348,12.5873],[77.30662,12.58672],[77.30689,12.57909],[77.31155,12.57641],[77.31326,12.57694],[77.31416,12.57416],[77.31743,12.56902],[77.32057,12.56856],[77.3249,12.56918],[77.32326,12.56524],[77.3252,12.5591],[77.31616,12.55795],[77.31546,12.55199],[77.32005,12.55117],[77.32149,12.5494],[77.32129,12.5481],[77.32271,12.54718],[77.32571,12.54691],[77.3239,12.54384],[77.32351,12.539],[77.32233,12.53629],[77.32437,12.53572],[77.32416,12.53502],[77.32292,12.5342],[77.32261,12.53257],[77.32316,12.5322],[77.32301,12.53158],[77.32196,12.53134],[77.31336,12.53306],[77.31367,12.53553],[77.31039,12.54053],[77.30911,12.5361],[77.30492,12.53921],[77.30376,12.53862],[77.30429,12.53802],[77.30449,12.53633],[77.30341,12.53511],[77.30198,12.53008],[77.29471,12.53221],[77.28768,12.53191],[77.28682,12.53157],[77.28684,12.53073],[77.28584,12.53013],[77.28226,12.52935],[77.28231,12.52904],[77.28055,12.52893],[77.27965,12.53002],[77.27972,12.531],[77.27914,12.53135],[77.27611,12.5304],[77.2739,12.53474],[77.27347,12.53659],[77.27233,12.53756],[77.27237,12.53868],[77.27551,12.53982],[77.27678,12.54099],[77.27551,12.54234],[77.27169,12.54362],[77.2711,12.54419],[77.27091,12.54458],[77.27226,12.54605],[77.27277,12.54793],[77.26972,12.54788],[77.26639,12.54663],[77.26446,12.54676],[77.26422,12.54791],[77.26538,12.54921],[77.2673,12.54996],[77.27052,12.55022],[77.26939,12.55123],[77.26378,12.55239],[77.25663,12.54908],[77.25437,12.54859],[77.25301,12.54479],[77.25386,12.54364],[77.2541,12.54023],[77.25507,12.53632],[77.25605,12.53486],[77.25866,12.53386],[77.25923,12.53251],[77.25891,12.53131],[77.25443,12.53091],[77.2558,12.52435],[77.25622,12.52458],[77.25607,12.52228],[77.25665,12.51868],[77.25622,12.51219],[77.25632,12.51079],[77.25718,12.50913],[77.25414,12.50783],[77.24914,12.50792],[77.24859,12.50719],[77.24476,12.50722],[77.24401,12.50683],[77.23989,12.50707],[77.23966,12.50346],[77.23869,12.5038],[77.2386,12.50024],[77.23815,12.50013],[77.22436,12.5022],[77.22206,12.49219],[77.22168,12.49169],[77.22004,12.49212],[77.21626,12.49208],[77.21424,12.48933],[77.21431,12.48737],[77.21348,12.48493],[77.20852,12.48472],[77.20537,12.48535],[77.20563,12.491],[77.20089,12.49172],[77.19809,12.48373],[77.19365,12.48378],[77.19236,12.48208],[77.18975,12.48234],[77.18187,12.4807],[77.17796,12.47906],[77.17726,12.47924],[77.17727,12.47982],[77.17598,12.47969],[77.17531,12.48291],[77.16938,12.48394],[77.1655,12.4785],[77.16596,12.47816],[77.16527,12.47767],[77.16482,12.47509],[77.15756,12.47563],[77.1574,12.47344],[77.15647,12.47188],[77.15241,12.46801],[77.14921,12.46304],[77.14679,12.46207],[77.14452,12.46187],[77.14039,12.46415],[77.13582,12.4693],[77.13393,12.47386],[77.13387,12.47637],[77.1323,12.47962],[77.12952,12.48043],[77.12495,12.48002],[77.12489,12.48087],[77.12562,12.48111],[77.12563,12.48181],[77.1262,12.48201],[77.12513,12.48234],[77.12466,12.4848],[77.12513,12.48573],[77.12492,12.48918],[77.12557,12.48907],[77.12757,12.49064],[77.12891,12.49463],[77.13056,12.49687],[77.13207,12.50499],[77.13248,12.50508],[77.13184,12.50569],[77.13175,12.5067],[77.13194,12.50757],[77.13234,12.50754],[77.13315,12.51658],[77.12545,12.52376],[77.127,12.53008],[77.12198,12.54008],[77.12001,12.54058],[77.11886,12.54181],[77.11496,12.54335],[77.11392,12.55274],[77.11523,12.55408],[77.11538,12.55504],[77.12824,12.55406],[77.1294,12.5633],[77.12835,12.56991],[77.11878,12.57661],[77.12296,12.57689],[77.13649,12.58271],[77.13869,12.58287],[77.14105,12.58385],[77.1434,12.58169],[77.1453,12.58264],[77.14757,12.58277],[77.14787,12.58317],[77.15355,12.58343],[77.15598,12.58473],[77.15933,12.58415],[77.16497,12.58556],[77.16549,12.58574],[77.16649,12.58764],[77.16922,12.58768],[77.17488,12.58546],[77.17575,12.58427],[77.17938,12.58296],[77.18257,12.58286],[77.18351,12.58334],[77.18554,12.58303],[77.18645,12.58656],[77.18689,12.58653],[77.18819,12.58913],[77.18926,12.58964],[77.18967,12.59218],[77.19104,12.59254],[77.19269,12.59155],[77.19379,12.59297],[77.19314,12.59391],[77.19417,12.59391],[77.19488,12.59338],[77.19541,12.59437],[77.19556,12.59714],[77.19712,12.59661],[77.19967,12.59705],[77.19993,12.59671],[77.2011,12.59818],[77.2036,12.5983],[77.20415,12.59948],[77.20478,12.59967],[77.21744,12.59914],[77.21773,12.59841],[77.21717,12.59632],[77.21818,12.59502],[77.21777,12.59162],[77.21828,12.58622],[77.21945,12.58747],[77.22409,12.58914],[77.22476,12.58982],[77.2257,12.58973],[77.22664,12.59142],[77.22701,12.59134],[77.22772,12.59533],[77.23537,12.59596],[77.23912,12.59825],[77.24035,12.59773],[77.24908,12.59085],[77.25162,12.58995],[77.25502,12.60101],[77.25976,12.59764],[77.26234,12.5951],[77.26211,12.59335],[77.26266,12.59081],[77.26932,12.59317],[77.27084,12.59776],[77.27746,12.60507],[77.27918,12.60066],[77.27801,12.5978],[77.28195,12.59723]]]}},{"type":"Feature","properties":{"unitId":670,"unitName":"Bidadi PS"},"geometry":{"type":"Polygon","coordinates":[[[77.41793,12.87187],[77.42045,12.87181],[77.42443,12.87393],[77.42553,12.87378],[77.42685,12.87519],[77.4281,12.87564],[77.42827,12.87528],[77.43134,12.87495],[77.43059,12.87019],[77.41879,12.86979],[77.42222,12.8634],[77.4254,12.85915],[77.42926,12.85701],[77.42758,12.85117],[77.43313,12.85132],[77.43775,12.85003],[77.434,12.84464],[77.43378,12.84331],[77.43486,12.84189],[77.43468,12.83873],[77.42995,12.83968],[77.42241,12.83555],[77.42109,12.83203],[77.41987,12.82624],[77.42973,12.82285],[77.43263,12.82265],[77.43352,12.82327],[77.43525,12.81974],[77.43419,12.81644],[77.43626,12.81274],[77.4361,12.80967],[77.43875,12.81036],[77.44022,12.80991],[77.44392,12.80666],[77.44366,12.80737],[77.4447,12.80959],[77.44612,12.80973],[77.44569,12.81162],[77.44632,12.81486],[77.44809,12.81548],[77.44915,12.81876],[77.45331,12.81793],[77.45326,12.81744],[77.45465,12.81665],[77.45923,12.811],[77.46108,12.80743],[77.46461,12.80945],[77.46676,12.8092],[77.46951,12.81033],[77.46947,12.81099],[77.47108,12.81153],[77.47629,12.81194],[77.47635,12.80983],[77.47878,12.81145],[77.47776,12.80644],[77.48142,12.80295],[77.48312,12.8023],[77.48015,12.79941],[77.47828,12.7988],[77.47388,12.79952],[77.47134,12.79804],[77.4701,12.79394],[77.47187,12.78861],[77.47688,12.78507],[77.47875,12.78078],[77.47635,12.76912],[77.47568,12.76702],[77.47419,12.76474],[77.47039,12.7665],[77.46859,12.76218],[77.46811,12.76225],[77.46837,12.75932],[77.46143,12.75685],[77.46606,12.75099],[77.47017,12.74789],[77.46912,12.7442],[77.46929,12.74177],[77.47112,12.7385],[77.47072,12.73685],[77.47154,12.73258],[77.47382,12.72998],[77.47622,12.72822],[77.47498,12.72414],[77.47583,12.72264],[77.47574,12.72036],[77.473,12.71849],[77.4719,12.71717],[77.47195,12.71634],[77.45922,12.71886],[77.45891,12.71427],[77.45531,12.70921],[77.45506,12.70688],[77.45376,12.70725],[77.44917,12.70691],[77.4478,12.7074],[77.44449,12.7048],[77.4429,12.70586],[77.44373,12.70848],[77.43933,12.71003],[77.4339,12.71008],[77.43359,12.70965],[77.4305,12.70904],[77.42437,12.70831],[77.42368,12.70862],[77.42332,12.70832],[77.42438,12.70725],[77.42377,12.70376],[77.42139,12.70396],[77.41103,12.70695],[77.40487,12.70627],[77.40432,12.70723],[77.40143,12.70916],[77.40054,12.71032],[77.40012,12.7097],[77.39825,12.70938],[77.39745,12.70849],[77.39478,12.70852],[77.39428,12.70889],[77.39229,12.70863],[77.39032,12.716],[77.39022,12.71822],[77.38732,12.72823],[77.38732,12.73025],[77.38435,12.73064],[77.38102,12.73172],[77.37588,12.73152],[77.3595,12.72954],[77.35985,12.73081],[77.35951,12.73407],[77.35719,12.7361],[77.3572,12.73733],[77.35508,12.74385],[77.35472,12.75128],[77.35833,12.75172],[77.36027,12.75131],[77.36198,12.75825],[77.35846,12.75921],[77.35363,12.76144],[77.35279,12.76262],[77.35275,12.76439],[77.35152,12.76425],[77.35135,12.76854],[77.35177,12.77226],[77.3532,12.77219],[77.35765,12.77581],[77.36137,12.77713],[77.36035,12.77918],[77.35892,12.77993],[77.3581,12.78123],[77.35875,12.78392],[77.36028,12.78475],[77.36056,12.7864],[77.35835,12.78732],[77.35889,12.79086],[77.35782,12.79138],[77.35875,12.79701],[77.35982,12.80035],[77.35978,12.80194],[77.3585,12.8034],[77.35931,12.81051],[77.35474,12.8187],[77.35242,12.8256],[77.35238,12.82809],[77.35133,12.8316],[77.35276,12.83781],[77.35195,12.84042],[77.35189,12.8436],[77.35064,12.8458],[77.3489,12.8471],[77.3457,12.84825],[77.34196,12.85157],[77.34249,12.85291],[77.34372,12.85319],[77.3453,12.85257],[77.34509,12.87034],[77.34829,12.86988],[77.35209,12.87026],[77.35561,12.86981],[77.36623,12.87028],[77.36798,12.86208],[77.36969,12.85698],[77.37243,12.85606],[77.37954,12.85524],[77.37957,12.85663],[77.38009,12.85731],[77.3825,12.85728],[77.3843,12.85879],[77.38592,12.85885],[77.38792,12.85999],[77.3885,12.85975],[77.38917,12.86046],[77.38981,12.86043],[77.39252,12.86601],[77.39346,12.86669],[77.39508,12.86683],[77.39468,12.86999],[77.4003,12.86617],[77.40196,12.86574],[77.40166,12.8696],[77.40219,12.87145],[77.40509,12.87456],[77.40816,12.87602],[77.41146,12.87666],[77.41614,12.87572],[77.41517,12.87216],[77.41793,12.87187]]]}},{"type":"Feature","properties":{"unitId":671,"unitName":"Channapatna East PS"},"geometry":{"type":"Polygon","coordinates":[[[77.22997,12.67885],[77.22818,12.67307],[77.23031,12.6697],[77.23273,12.66334],[77.23221,12.66342],[77.23248,12.66274],[77.23058,12.65869],[77.22905,12.659],[77.22875,12.65945],[77.22679,12.65833],[77.22439,12.65806],[77.22423,12.65608],[77.22319,12.6555],[77.22255,12.65337],[77.21987,12.65035],[77.22047,12.65014],[77.22,12.64961],[77.21901,12.64973],[77.21894,12.64698],[77.21716,12.6469],[77.21733,12.64809],[77.21531,12.64746],[77.21294,12.64753],[77.21252,12.64628],[77.21188,12.64614],[77.21185,12.64443],[77.20774,12.64493],[77.20838,12.64912],[77.20734,12.64916],[77.20737,12.65045],[77.20608,12.65057],[77.20533,12.65384],[77.20597,12.65492],[77.20794,12.65471],[77.20804,12.65408],[77.21068,12.65354],[77.21129,12.65497],[77.2113,12.65848],[77.21229,12.66065],[77.21171,12.6617],[77.21022,12.66087],[77.20839,12.66148],[77.20732,12.66104],[77.20724,12.66134],[77.20617,12.66066],[77.20636,12.65895],[77.20132,12.65765],[77.20143,12.65679],[77.20059,12.6565],[77.20105,12.65493],[77.20031,12.65435],[77.19803,12.65324],[77.19543,12.65322],[77.19528,12.65629],[77.19466,12.65667],[77.19574,12.65708],[77.19556,12.66416],[77.19932,12.66498],[77.19966,12.66722],[77.20037,12.66768],[77.20033,12.66814],[77.2048,12.66821],[77.20525,12.66907],[77.20519,12.67162],[77.20769,12.67115],[77.21054,12.67143],[77.21101,12.67221],[77.21223,12.67219],[77.21291,12.67464],[77.21429,12.67461],[77.21436,12.67525],[77.21515,12.67527],[77.21561,12.67622],[77.21747,12.67722],[77.21743,12.67773],[77.21852,12.67878],[77.22154,12.6779],[77.22254,12.6767],[77.22673,12.67815],[77.22734,12.67789],[77.22982,12.67934],[77.22997,12.67885]]]}},{"type":"Feature","properties":{"unitId":672,"unitName":"Channapatna Rural PS"},"geometry":{"type":"MultiPolygon","coordinates":[[[[77.18376,12.71438],[77.18633,12.71404],[77.19925,12.70689],[77.21279,12.70082],[77.22689,12.70258],[77.22752,12.70409],[77.22904,12.69617],[77.23025,12.69325],[77.2348,12.68895],[77.23725,12.69062],[77.23943,12.69336],[77.2397,12.69494],[77.24021,12.69525],[77.2398,12.6954],[77.24067,12.69518],[77.24171,12.69205],[77.24251,12.69127],[77.24077,12.68935],[77.2447,12.6854],[77.24598,12.6858],[77.24971,12.68945],[77.24932,12.69448],[77.25813,12.70004],[77.26031,12.69878],[77.25982,12.69653],[77.26231,12.69542],[77.26287,12.69706],[77.26546,12.69553],[77.26562,12.69476],[77.26773,12.69409],[77.26514,12.69011],[77.26089,12.6888],[77.26061,12.6863],[77.25976,12.68474],[77.25704,12.68234],[77.2563,12.6806],[77.2558,12.67873],[77.25743,12.67777],[77.26213,12.67664],[77.26238,12.67414],[77.26114,12.67064],[77.25845,12.66645],[77.25894,12.66121],[77.25208,12.65645],[77.25539,12.6552],[77.25987,12.65138],[77.26379,12.65115],[77.26639,12.65042],[77.26885,12.64594],[77.26771,12.63911],[77.26685,12.63717],[77.26609,12.62818],[77.26075,12.62932],[77.25847,12.62594],[77.24932,12.62902],[77.24565,12.63144],[77.24423,12.63158],[77.24518,12.63476],[77.24328,12.63526],[77.24244,12.63306],[77.24013,12.63336],[77.23637,12.62784],[77.23514,12.62418],[77.23457,12.6242],[77.23581,12.62315],[77.23822,12.62235],[77.23901,12.62282],[77.24086,12.62253],[77.24152,12.623],[77.24995,12.6212],[77.24732,12.62014],[77.24685,12.61864],[77.24535,12.61764],[77.24472,12.61625],[77.2456,12.61091],[77.24464,12.61089],[77.24482,12.61012],[77.2426,12.61007],[77.24166,12.60655],[77.23871,12.60175],[77.23801,12.59917],[77.23912,12.59825],[77.23537,12.59596],[77.22772,12.59533],[77.22701,12.59134],[77.22664,12.59142],[77.2257,12.58973],[77.22476,12.58982],[77.22409,12.58914],[77.21945,12.58747],[77.21872,12.58707],[77.21847,12.58627],[77.2178,12.59065],[77.21818,12.59502],[77.21717,12.59632],[77.21773,12.59841],[77.21744,12.59914],[77.20478,12.59967],[77.20415,12.59948],[77.2036,12.5983],[77.2011,12.59818],[77.19993,12.59671],[77.19967,12.59705],[77.19712,12.59661],[77.19556,12.59714],[77.19541,12.59437],[77.19488,12.59338],[77.19417,12.59391],[77.19314,12.59391],[77.19379,12.59297],[77.19269,12.59155],[77.19104,12.59254],[77.18967,12.59218],[77.18926,12.58964],[77.18819,12.58913],[77.18689,12.58653],[77.18645,12.58656],[77.18554,12.58303],[77.18351,12.58334],[77.18257,12.58286],[77.17938,12.58296],[77.17575,12.58427],[77.17488,12.58546],[77.16922,12.58768],[77.16649,12.58764],[77.16549,12.58574],[77.16497,12.58556],[77.15933,12.58415],[77.15598,12.58473],[77.15355,12.58343],[77.14787,12.58317],[77.14757,12.58277],[77.1453,12.58264],[77.1434,12.58169],[77.14105,12.58385],[77.13869,12.58287],[77.13649,12.58271],[77.12296,12.57689],[77.11878,12.57661],[77.11848,12.58015],[77.11696,12.58053],[77.1173,12.58138],[77.1166,12.58215],[77.11711,12.5853],[77.11514,12.5903],[77.1151,12.59582],[77.11359,12.59687],[77.11041,12.59671],[77.10825,12.60768],[77.10874,12.60917],[77.10924,12.60933],[77.10949,12.6124],[77.1103,12.61344],[77.11109,12.61612],[77.11247,12.61622],[77.11359,12.61695],[77.1187,12.61752],[77.11874,12.61803],[77.1201,12.61899],[77.12232,12.61912],[77.12277,12.6223],[77.11909,12.62631],[77.11905,12.62705],[77.11754,12.62723],[77.11743,12.62836],[77.11825,12.62835],[77.11821,12.62936],[77.11727,12.62962],[77.11735,12.63021],[77.11682,12.63062],[77.11799,12.63231],[77.12295,12.63535],[77.12761,12.63658],[77.12804,12.63981],[77.12559,12.64001],[77.12452,12.6408],[77.12235,12.64127],[77.12098,12.64071],[77.12095,12.64102],[77.1207,12.64044],[77.11764,12.63919],[77.11673,12.64287],[77.11532,12.64382],[77.11542,12.64799],[77.11437,12.65052],[77.115,12.65396],[77.11457,12.65882],[77.1163,12.65788],[77.11716,12.65479],[77.11862,12.65453],[77.12552,12.65404],[77.12646,12.65338],[77.12947,12.65393],[77.13197,12.6535],[77.13224,12.65405],[77.13669,12.65389],[77.1367,12.65262],[77.1389,12.65194],[77.14691,12.653],[77.14746,12.65299],[77.14777,12.65214],[77.14912,12.65154],[77.15049,12.65144],[77.15087,12.65191],[77.15643,12.65114],[77.1565,12.65214],[77.15866,12.65175],[77.15874,12.64683],[77.15816,12.645],[77.15953,12.64524],[77.16014,12.64866],[77.16113,12.64961],[77.16206,12.65156],[77.16183,12.65468],[77.16143,12.65545],[77.16043,12.65558],[77.16074,12.65755],[77.15815,12.65865],[77.15718,12.66453],[77.15687,12.66574],[77.15642,12.66575],[77.1569,12.66755],[77.15498,12.66783],[77.15354,12.66254],[77.1549,12.66786],[77.15406,12.67229],[77.15424,12.67388],[77.15336,12.67424],[77.15285,12.67568],[77.15174,12.67651],[77.1517,12.67725],[77.14798,12.67798],[77.14831,12.67976],[77.14712,12.68216],[77.14687,12.68468],[77.14772,12.68575],[77.14951,12.6858],[77.14959,12.68631],[77.15152,12.68685],[77.15224,12.68835],[77.15326,12.68927],[77.15426,12.68937],[77.15444,12.69274],[77.15515,12.69389],[77.15761,12.69515],[77.16238,12.69618],[77.16241,12.69654],[77.16437,12.69638],[77.1654,12.69717],[77.16668,12.69932],[77.16773,12.69936],[77.16805,12.70283],[77.1675,12.70299],[77.16722,12.70392],[77.16758,12.70723],[77.16831,12.70728],[77.16803,12.70979],[77.17478,12.71347],[77.17922,12.71369],[77.18226,12.71273],[77.1826,12.71334],[77.18332,12.71325],[77.18376,12.71438]],[[77.22972,12.67895],[77.22254,12.6767],[77.22154,12.6779],[77.21826,12.67867],[77.21747,12.67722],[77.21561,12.67622],[77.21515,12.67527],[77.21436,12.67525],[77.21429,12.67461],[77.21291,12.67464],[77.21223,12.67219],[77.21101,12.67221],[77.21054,12.67143],[77.20769,12.67115],[77.20519,12.67162],[77.20525,12.66907],[77.2048,12.66821],[77.20033,12.66814],[77.20037,12.66768],[77.19966,12.66722],[77.19932,12.66498],[77.19556,12.66416],[77.19484,12.6654],[77.19432,12.66815],[77.19453,12.67063],[77.19391,12.67155],[77.1938,12.67337],[77.19424,12.67623],[77.19524,12.67825],[77.18576,12.67896],[77.18483,12.67861],[77.18512,12.6773],[77.18406,12.67525],[77.18376,12.67135],[77.18269,12.66672],[77.18168,12.66567],[77.18173,12.66466],[77.18124,12.66497],[77.18381,12.6609],[77.18379,12.65837],[77.18505,12.65673],[77.18467,12.65621],[77.18493,12.65544],[77.18622,12.65521],[77.1868,12.65211],[77.18632,12.65111],[77.18649,12.65063],[77.18727,12.6505],[77.18661,12.64878],[77.18658,12.64601],[77.18759,12.646],[77.18853,12.6447],[77.19076,12.64371],[77.19134,12.64212],[77.19272,12.64216],[77.19187,12.64508],[77.19195,12.6465],[77.19467,12.64665],[77.19346,12.64133],[77.19496,12.64052],[77.19547,12.63813],[77.19521,12.63527],[77.19981,12.63581],[77.20449,12.63501],[77.2051,12.6345],[77.20724,12.63445],[77.20741,12.63626],[77.20829,12.63801],[77.20817,12.63912],[77.20914,12.63916],[77.20791,12.64108],[77.2073,12.64316],[77.20767,12.64489],[77.21185,12.64443],[77.21188,12.64614],[77.21252,12.64628],[77.21294,12.64753],[77.21531,12.64746],[77.21733,12.64809],[77.21716,12.6469],[77.21894,12.64698],[77.21901,12.64973],[77.22,12.64961],[77.22047,12.65014],[77.21987,12.65035],[77.22255,12.65337],[77.22319,12.6555],[77.22423,12.65608],[77.22439,12.65806],[77.22679,12.65833],[77.22875,12.65945],[77.22905,12.659],[77.23058,12.65869],[77.23248,12.66274],[77.23221,12.66342],[77.23273,12.66334],[77.23031,12.6697],[77.22818,12.67307],[77.22968,12.67738],[77.22972,12.67895]]],[[[77.19248,12.65379],[77.19325,12.65377],[77.19347,12.65306],[77.19462,12.65286],[77.19471,12.65241],[77.19792,12.6528],[77.19827,12.65226],[77.19747,12.65179],[77.19744,12.65111],[77.19621,12.65047],[77.19639,12.64949],[77.1976,12.64962],[77.19788,12.64849],[77.19563,12.64824],[77.19262,12.64879],[77.1926,12.64826],[77.19163,12.64875],[77.19155,12.64945],[77.19084,12.65003],[77.19193,12.65031],[77.19188,12.65114],[77.19291,12.65152],[77.19291,12.65306],[77.19219,12.6531],[77.19248,12.65379]]],[[[77.19724,12.64692],[77.19592,12.64696],[77.19595,12.64772],[77.1979,12.6478],[77.19797,12.64705],[77.19724,12.64692]]]]}},{"type":"Feature","properties":{"unitId":673,"unitName":"Channapatna Town PS"},"geometry":{"type":"Polygon","coordinates":[[[77.18576,12.67896],[77.19524,12.67825],[77.19424,12.67623],[77.1938,12.67337],[77.19391,12.67155],[77.19453,12.67063],[77.19432,12.66815],[77.19484,12.6654],[77.19556,12.66416],[77.19574,12.65708],[77.19466,12.65667],[77.19528,12.65629],[77.19543,12.65322],[77.19803,12.65324],[77.20031,12.65435],[77.20105,12.65493],[77.20059,12.6565],[77.20143,12.65679],[77.20132,12.65765],[77.20636,12.65895],[77.20617,12.66066],[77.20724,12.66134],[77.20732,12.66104],[77.20839,12.66148],[77.21022,12.66087],[77.21171,12.6617],[77.21229,12.66065],[77.2113,12.65848],[77.21129,12.65497],[77.21068,12.65354],[77.20804,12.65408],[77.20794,12.65471],[77.20597,12.65492],[77.20533,12.65384],[77.20608,12.65057],[77.20737,12.65045],[77.20734,12.64916],[77.20838,12.64912],[77.2073,12.64316],[77.20791,12.64108],[77.20914,12.63916],[77.20817,12.63912],[77.20829,12.63801],[77.20741,12.63626],[77.20724,12.63445],[77.2051,12.6345],[77.20449,12.63501],[77.19981,12.63581],[77.19521,12.63527],[77.19547,12.63813],[77.19496,12.64052],[77.19346,12.64133],[77.19467,12.64665],[77.19195,12.6465],[77.19187,12.64508],[77.19272,12.64216],[77.19134,12.64212],[77.19076,12.64371],[77.18853,12.6447],[77.18759,12.646],[77.18658,12.64601],[77.18661,12.64878],[77.18727,12.6505],[77.18649,12.65063],[77.18632,12.65111],[77.1868,12.65211],[77.18622,12.65521],[77.18493,12.65544],[77.18467,12.65621],[77.18505,12.65673],[77.18379,12.65837],[77.18381,12.6609],[77.18124,12.66497],[77.18173,12.66466],[77.18168,12.66567],[77.18269,12.66672],[77.18376,12.67135],[77.18406,12.67525],[77.18512,12.6773],[77.18483,12.67861],[77.18576,12.67896]],[[77.19219,12.6531],[77.19291,12.65306],[77.19308,12.65218],[77.19291,12.65152],[77.19188,12.65114],[77.19193,12.65031],[77.19084,12.65003],[77.19155,12.64945],[77.19163,12.64875],[77.1926,12.64826],[77.19262,12.64879],[77.19563,12.64824],[77.19788,12.64849],[77.1976,12.64962],[77.19639,12.64949],[77.19621,12.65047],[77.19744,12.65111],[77.19747,12.65179],[77.19827,12.65226],[77.19792,12.6528],[77.19471,12.65241],[77.19462,12.65286],[77.19347,12.65306],[77.19305,12.65383],[77.19228,12.65385],[77.19219,12.6531]],[[77.19616,12.64686],[77.19797,12.64705],[77.1979,12.6478],[77.19595,12.64772],[77.19616,12.64686]]]}},{"type":"Feature","properties":{"unitId":674,"unitName":"Harohalli PS"},"geometry":{"type":"MultiPolygon","coordinates":[[[[77.55242,12.80024],[77.55539,12.79957],[77.55332,12.79461],[77.5522,12.78964],[77.55912,12.78782],[77.56086,12.78792],[77.56172,12.78879],[77.56314,12.78815],[77.56184,12.78674],[77.56169,12.78433],[77.56083,12.78327],[77.55748,12.78249],[77.55597,12.78107],[77.55588,12.77939],[77.55587,12.77734],[77.55851,12.76909],[77.55846,12.76539],[77.56304,12.76083],[77.5663,12.75927],[77.5706,12.76228],[77.57168,12.76715],[77.57067,12.77166],[77.57073,12.7771],[77.57118,12.77889],[77.57705,12.78591],[77.57955,12.7878],[77.58123,12.78693],[77.58116,12.78656],[77.58813,12.78341],[77.59207,12.77982],[77.59197,12.77604],[77.59512,12.76947],[77.59559,12.76569],[77.59509,12.76566],[77.59636,12.76403],[77.59786,12.75804],[77.59835,12.7583],[77.59597,12.75476],[77.59521,12.75159],[77.59401,12.75055],[77.59059,12.7502],[77.58524,12.75172],[77.58164,12.75176],[77.58044,12.75124],[77.5778,12.75092],[77.57638,12.75121],[77.57587,12.75083],[77.57517,12.74857],[77.57345,12.74689],[77.57065,12.74288],[77.5694,12.73825],[77.56812,12.73544],[77.56855,12.73449],[77.57171,12.73366],[77.57276,12.7325],[77.57093,12.73022],[77.56248,12.73216],[77.55758,12.73095],[77.55714,12.72752],[77.55924,12.72148],[77.5589,12.71336],[77.56117,12.70882],[77.56816,12.70128],[77.57578,12.70416],[77.57872,12.70856],[77.59415,12.72038],[77.60301,12.71535],[77.61462,12.71123],[77.6132,12.70339],[77.6037,12.69295],[77.59964,12.6783],[77.59403,12.66716],[77.59552,12.65782],[77.59645,12.66414],[77.59716,12.65805],[77.59595,12.65059],[77.59626,12.64881],[77.59927,12.64288],[77.60067,12.64285],[77.60414,12.63853],[77.60291,12.63554],[77.60533,12.63155],[77.60553,12.62895],[77.6048,12.62759],[77.6009,12.62594],[77.59761,12.62296],[77.59505,12.6226],[77.59125,12.61724],[77.59066,12.61519],[77.59164,12.60414],[77.59136,12.59261],[77.58962,12.59276],[77.58958,12.58938],[77.58456,12.58021],[77.58356,12.57654],[77.57963,12.57266],[77.57995,12.56994],[77.57943,12.5669],[77.57714,12.5707],[77.57586,12.57193],[77.57401,12.57656],[77.57213,12.57763],[77.5685,12.57818],[77.56647,12.57913],[77.56469,12.58168],[77.55008,12.58348],[77.5462,12.58795],[77.5439,12.59211],[77.53975,12.59533],[77.53543,12.59174],[77.53559,12.59001],[77.53435,12.58256],[77.53476,12.58005],[77.52877,12.57716],[77.52519,12.57721],[77.52344,12.57643],[77.5178,12.57017],[77.51585,12.56588],[77.5135,12.56432],[77.51559,12.56325],[77.51619,12.56022],[77.51355,12.55685],[77.50978,12.54966],[77.50765,12.54848],[77.50181,12.55138],[77.4991,12.55363],[77.48785,12.55382],[77.48162,12.55529],[77.48077,12.56642],[77.47861,12.5656],[77.47364,12.56537],[77.47644,12.56891],[77.47666,12.57105],[77.47551,12.57354],[77.47551,12.57456],[77.47422,12.57592],[77.47292,12.57605],[77.4647,12.58332],[77.46246,12.58362],[77.46319,12.58555],[77.45673,12.59405],[77.45622,12.60179],[77.45549,12.60539],[77.44881,12.60544],[77.4478,12.61322],[77.44167,12.62142],[77.43769,12.62403],[77.43137,12.62666],[77.43149,12.62624],[77.42536,12.62415],[77.41844,12.62558],[77.41009,12.62673],[77.40714,12.62668],[77.40579,12.63075],[77.40896,12.63477],[77.4098,12.63738],[77.4094,12.63971],[77.40973,12.64218],[77.41084,12.64402],[77.41338,12.64624],[77.41497,12.6486],[77.413,12.65421],[77.41294,12.65606],[77.41409,12.65993],[77.41417,12.66369],[77.41183,12.66524],[77.41141,12.66607],[77.41201,12.66849],[77.40993,12.67049],[77.40806,12.6739],[77.4079,12.67493],[77.40881,12.67809],[77.40806,12.68036],[77.40609,12.68237],[77.40406,12.68326],[77.40404,12.68513],[77.40271,12.68749],[77.40295,12.68847],[77.40143,12.68917],[77.40077,12.68874],[77.40028,12.68927],[77.40066,12.6912],[77.39705,12.6922],[77.3963,12.69321],[77.39599,12.69485],[77.3937,12.69591],[77.3935,12.69652],[77.39208,12.69679],[77.39151,12.69893],[77.39018,12.7003],[77.39027,12.70255],[77.38921,12.70421],[77.38885,12.70657],[77.38977,12.70765],[77.38961,12.70833],[77.39428,12.70889],[77.39478,12.70852],[77.39745,12.70849],[77.39825,12.70938],[77.40012,12.7097],[77.40054,12.71032],[77.40143,12.70916],[77.40432,12.70723],[77.40487,12.70627],[77.41103,12.70695],[77.42292,12.70378],[77.42403,12.70417],[77.42438,12.70725],[77.42332,12.70832],[77.42368,12.70862],[77.42437,12.70831],[77.4305,12.70904],[77.43359,12.70965],[77.4339,12.71008],[77.43933,12.71003],[77.44373,12.70848],[77.4429,12.70586],[77.44449,12.7048],[77.4478,12.7074],[77.44917,12.70691],[77.45376,12.70725],[77.45506,12.70688],[77.45531,12.70921],[77.45891,12.71427],[77.45922,12.71886],[77.47195,12.71634],[77.4719,12.71717],[77.473,12.71849],[77.47545,12.71984],[77.47593,12.722],[77.47498,12.72414],[77.47576,12.72758],[77.47847,12.73155],[77.47995,12.73139],[77.48031,12.73258],[77.48176,12.73323],[77.48252,12.73567],[77.48407,12.73619],[77.48453,12.73756],[77.48441,12.73992],[77.48568,12.74016],[77.48605,12.74293],[77.48643,12.74306],[77.48809,12.7422],[77.48835,12.74263],[77.48841,12.74223],[77.49266,12.74149],[77.49301,12.74],[77.49639,12.73992],[77.50265,12.73717],[77.50281,12.73567],[77.50656,12.73634],[77.50784,12.73765],[77.51271,12.74694],[77.51948,12.74197],[77.51707,12.73572],[77.52169,12.73169],[77.5315,12.75139],[77.53226,12.75155],[77.53332,12.75339],[77.53315,12.75435],[77.53468,12.75593],[77.54096,12.74812],[77.54077,12.74942],[77.54319,12.75896],[77.54553,12.76601],[77.546,12.76617],[77.54563,12.76718],[77.54604,12.76964],[77.54729,12.7705],[77.5504,12.77094],[77.55149,12.77248],[77.5515,12.77334],[77.551,12.77356],[77.54929,12.77425],[77.54694,12.77427],[77.5437,12.77591],[77.5467,12.78238],[77.54892,12.78528],[77.54699,12.78982],[77.54473,12.79233],[77.543,12.79321],[77.54199,12.79469],[77.54185,12.79852],[77.54712,12.80138],[77.55242,12.80024]]],[[[77.58119,12.56485],[77.58053,12.55138],[77.5835,12.54888],[77.56523,12.54226],[77.55596,12.54268],[77.54998,12.547],[77.54995,12.55035],[77.55199,12.55464],[77.55245,12.55755],[77.55398,12.55937],[77.55878,12.56206],[77.56019,12.56211],[77.56488,12.56437],[77.57204,12.56334],[77.57534,12.56459],[77.58119,12.56485]]]]}},{"type":"Feature","properties":{"unitId":675,"unitName":"Ijoor PS"},"geometry":{"type":"Polygon","coordinates":[[[77.27581,12.74815],[77.27957,12.74566],[77.28207,12.74304],[77.28405,12.74247],[77.28452,12.74159],[77.28231,12.73839],[77.28179,12.72999],[77.27986,12.72817],[77.27752,12.72698],[77.2768,12.72601],[77.27671,12.72462],[77.27785,12.72144],[77.27695,12.71289],[77.27769,12.71132],[77.27927,12.70983],[77.284,12.70723],[77.28296,12.70003],[77.27883,12.70017],[77.2757,12.70088],[77.27067,12.7006],[77.26657,12.69972],[77.26493,12.69996],[77.26544,12.70196],[77.26491,12.70403],[77.26523,12.70603],[77.26446,12.70637],[77.25996,12.70352],[77.26022,12.7031],[77.25785,12.70236],[77.25746,12.70057],[77.24656,12.69392],[77.24608,12.69494],[77.2423,12.69136],[77.241,12.69464],[77.24007,12.69547],[77.24311,12.69671],[77.24688,12.69926],[77.24831,12.69905],[77.24951,12.69815],[77.25337,12.70091],[77.24944,12.70526],[77.24912,12.70686],[77.24894,12.70859],[77.24947,12.71032],[77.25216,12.71443],[77.2529,12.72065],[77.25198,12.72345],[77.24917,12.72633],[77.2478,12.72943],[77.24731,12.7313],[77.24784,12.73556],[77.25012,12.73536],[77.25263,12.73595],[77.25419,12.74055],[77.2558,12.74339],[77.25815,12.74501],[77.26358,12.74663],[77.26213,12.74784],[77.27226,12.74784],[77.27458,12.74851],[77.27581,12.74815]]]}},{"type":"Feature","properties":{"unitId":676,"unitName":"Kanakapura Rural PS"},"geometry":{"type":"Polygon","coordinates":[[[77.39705,12.6922],[77.40066,12.6912],[77.40028,12.68927],[77.40077,12.68874],[77.40143,12.68917],[77.40295,12.68847],[77.40271,12.68749],[77.40404,12.68513],[77.40406,12.68326],[77.40609,12.68237],[77.40806,12.68036],[77.40881,12.67809],[77.4079,12.67493],[77.40806,12.6739],[77.40993,12.67049],[77.41201,12.66849],[77.41141,12.66607],[77.41183,12.66524],[77.41417,12.66369],[77.41409,12.65993],[77.41294,12.65606],[77.413,12.65421],[77.41497,12.6486],[77.41338,12.64624],[77.41084,12.64402],[77.40973,12.64218],[77.4094,12.63971],[77.4098,12.63738],[77.40896,12.63477],[77.40579,12.63075],[77.40714,12.62668],[77.41009,12.62673],[77.41844,12.62558],[77.42536,12.62415],[77.43149,12.62624],[77.43137,12.62666],[77.43769,12.62403],[77.44167,12.62142],[77.4478,12.61322],[77.44881,12.60544],[77.45549,12.60539],[77.45622,12.60179],[77.45673,12.59405],[77.46319,12.58555],[77.46246,12.58362],[77.4647,12.58332],[77.47292,12.57605],[77.47422,12.57592],[77.47551,12.57456],[77.47551,12.57354],[77.47666,12.57105],[77.47644,12.56891],[77.47364,12.56537],[77.47861,12.5656],[77.48077,12.56642],[77.48162,12.55529],[77.48779,12.55384],[77.48698,12.55304],[77.48479,12.54502],[77.48358,12.54347],[77.48265,12.54087],[77.48457,12.53894],[77.48514,12.53722],[77.48681,12.52671],[77.48661,12.52376],[77.48282,12.52158],[77.4775,12.52115],[77.46356,12.51571],[77.46268,12.51344],[77.46312,12.51195],[77.46255,12.51014],[77.46216,12.50435],[77.4625,12.50099],[77.4635,12.49743],[77.46412,12.4903],[77.46593,12.48917],[77.46857,12.48845],[77.46846,12.48721],[77.47063,12.48694],[77.47138,12.48852],[77.47177,12.49073],[77.47137,12.49351],[77.47239,12.49604],[77.47155,12.49721],[77.4717,12.49905],[77.4728,12.49883],[77.47302,12.49755],[77.47403,12.49926],[77.47635,12.49877],[77.47572,12.50182],[77.47643,12.50182],[77.47652,12.49883],[77.47693,12.49857],[77.47689,12.50088],[77.47792,12.50053],[77.4777,12.49901],[77.48225,12.50024],[77.483,12.49733],[77.48318,12.49002],[77.48208,12.48714],[77.48077,12.48578],[77.47982,12.48347],[77.4814,12.47955],[77.48231,12.47424],[77.48335,12.4711],[77.48517,12.46733],[77.47965,12.46281],[77.47597,12.4703],[77.47055,12.47865],[77.46828,12.48495],[77.46336,12.48441],[77.46302,12.48381],[77.45624,12.48316],[77.45233,12.48551],[77.45255,12.47489],[77.45431,12.46404],[77.44306,12.4619],[77.44259,12.46189],[77.44202,12.46298],[77.43426,12.45721],[77.44516,12.44368],[77.4339,12.43977],[77.41958,12.45521],[77.40996,12.45937],[77.40937,12.45844],[77.39619,12.46326],[77.39512,12.46131],[77.39076,12.46114],[77.3906,12.45967],[77.38368,12.46075],[77.3828,12.47755],[77.38377,12.4819],[77.38749,12.48312],[77.3856,12.4871],[77.38449,12.48809],[77.38017,12.48847],[77.38084,12.49253],[77.38027,12.49392],[77.37894,12.49361],[77.3774,12.49374],[77.3772,12.49413],[77.37689,12.49377],[77.37588,12.4999],[77.37433,12.50421],[77.36717,12.5039],[77.35804,12.51705],[77.35893,12.53167],[77.36069,12.5342],[77.35773,12.54385],[77.34775,12.54555],[77.34211,12.54823],[77.33939,12.54897],[77.33596,12.54876],[77.33351,12.54783],[77.33209,12.54821],[77.33234,12.5474],[77.3315,12.54705],[77.32957,12.54732],[77.32918,12.54663],[77.32271,12.54718],[77.32129,12.5481],[77.32149,12.5494],[77.32047,12.5509],[77.31546,12.55199],[77.31616,12.55795],[77.3252,12.5591],[77.32326,12.56524],[77.3249,12.56918],[77.32057,12.56856],[77.31743,12.56902],[77.31302,12.57675],[77.31595,12.57907],[77.31729,12.5813],[77.32046,12.58307],[77.32587,12.58192],[77.3267,12.58323],[77.32533,12.58911],[77.33544,12.58971],[77.33572,12.59114],[77.33386,12.59423],[77.33247,12.59535],[77.33062,12.59546],[77.32985,12.59695],[77.33301,12.6001],[77.33335,12.60186],[77.33557,12.60199],[77.33582,12.60385],[77.33464,12.607],[77.3345,12.6091],[77.33926,12.6103],[77.33914,12.61107],[77.33982,12.611],[77.34043,12.61236],[77.34012,12.6134],[77.34712,12.62727],[77.34817,12.63223],[77.34804,12.63542],[77.34902,12.63638],[77.3505,12.63678],[77.35394,12.6406],[77.3546,12.64249],[77.35431,12.64539],[77.358,12.64484],[77.35952,12.64362],[77.35993,12.64419],[77.35948,12.64474],[77.36017,12.6457],[77.35907,12.64724],[77.36037,12.65157],[77.36213,12.66161],[77.36621,12.6602],[77.36677,12.65864],[77.37201,12.65375],[77.37433,12.64885],[77.37512,12.64377],[77.37662,12.64094],[77.38549,12.64247],[77.38591,12.64429],[77.38642,12.64436],[77.38459,12.65148],[77.38279,12.65209],[77.38195,12.65302],[77.38074,12.65613],[77.38076,12.65795],[77.38247,12.6612],[77.38333,12.66464],[77.38222,12.66558],[77.38157,12.66695],[77.38189,12.6777],[77.38089,12.68285],[77.38025,12.6846],[77.379,12.68593],[77.37663,12.68727],[77.37706,12.69083],[77.37903,12.69139],[77.38495,12.68983],[77.38648,12.69076],[77.39124,12.69185],[77.395,12.69412],[77.39705,12.6922]],[[77.43152,12.58166],[77.43092,12.57845],[77.42899,12.57518],[77.42887,12.57409],[77.4295,12.5741],[77.42975,12.57259],[77.42861,12.5726],[77.42759,12.57008],[77.42891,12.56945],[77.42848,12.56553],[77.42756,12.56563],[77.42593,12.55969],[77.423,12.56008],[77.41491,12.56388],[77.40919,12.5645],[77.40899,12.56291],[77.40783,12.56216],[77.40766,12.55957],[77.40603,12.55297],[77.3871,12.54802],[77.38577,12.54559],[77.38313,12.53726],[77.38417,12.538],[77.40685,12.54048],[77.41593,12.5398],[77.41584,12.53584],[77.41698,12.53524],[77.41644,12.53215],[77.41694,12.53223],[77.41768,12.5314],[77.42049,12.53172],[77.42304,12.53138],[77.42387,12.53246],[77.42491,12.53271],[77.42548,12.5337],[77.42457,12.53556],[77.42453,12.53684],[77.42532,12.53791],[77.42664,12.53788],[77.42705,12.53724],[77.43379,12.53643],[77.4365,12.53673],[77.44071,12.53607],[77.44169,12.53527],[77.44295,12.53204],[77.44467,12.53161],[77.44637,12.53167],[77.44907,12.53259],[77.45234,12.53231],[77.4602,12.53366],[77.45272,12.53684],[77.44484,12.54184],[77.43911,12.54292],[77.43907,12.54442],[77.438,12.54479],[77.43797,12.54691],[77.436,12.54766],[77.43391,12.54739],[77.43412,12.55049],[77.43066,12.55118],[77.43012,12.55065],[77.42928,12.55108],[77.42998,12.55296],[77.42999,12.55561],[77.43283,12.55516],[77.43459,12.56021],[77.43639,12.55983],[77.43645,12.56101],[77.43754,12.56085],[77.43755,12.56187],[77.4397,12.5618],[77.44074,12.56091],[77.44219,12.56189],[77.44202,12.5625],[77.44048,12.56189],[77.44047,12.56279],[77.43899,12.56283],[77.43955,12.56478],[77.4396,12.56821],[77.4384,12.56814],[77.43815,12.56901],[77.43876,12.56891],[77.43875,12.56979],[77.43706,12.56932],[77.43645,12.57318],[77.43765,12.57281],[77.43805,12.57329],[77.43754,12.57686],[77.43648,12.57713],[77.43521,12.57875],[77.43438,12.57872],[77.43388,12.57996],[77.43321,12.57999],[77.43336,12.58168],[77.43152,12.58166]]]}},{"type":"Feature","properties":{"unitId":677,"unitName":"Kanakapura Town PS"},"geometry":{"type":"Polygon","coordinates":[[[77.43392,12.57933],[77.43438,12.57872],[77.43521,12.57875],[77.43648,12.57713],[77.43754,12.57686],[77.43805,12.57329],[77.43765,12.57281],[77.43645,12.57318],[77.43706,12.56932],[77.43875,12.56979],[77.43876,12.56891],[77.43815,12.56901],[77.4384,12.56814],[77.4396,12.56821],[77.43955,12.56478],[77.43899,12.56283],[77.44047,12.56279],[77.44048,12.56189],[77.44202,12.5625],[77.44219,12.56189],[77.44074,12.56091],[77.4397,12.5618],[77.43755,12.56187],[77.43754,12.56085],[77.43645,12.56101],[77.43639,12.55983],[77.43459,12.56021],[77.43283,12.55516],[77.42999,12.55561],[77.42998,12.55296],[77.42928,12.55108],[77.43012,12.55065],[77.43066,12.55118],[77.43412,12.55049],[77.43391,12.54739],[77.436,12.54766],[77.43797,12.54691],[77.438,12.54479],[77.43907,12.54442],[77.43911,12.54292],[77.44484,12.54184],[77.45272,12.53684],[77.4602,12.53366],[77.45234,12.53231],[77.44907,12.53259],[77.44637,12.53167],[77.44467,12.53161],[77.44295,12.53204],[77.44169,12.53527],[77.44071,12.53607],[77.4365,12.53673],[77.43379,12.53643],[77.42705,12.53724],[77.42664,12.53788],[77.42532,12.53791],[77.42453,12.53684],[77.42457,12.53556],[77.42548,12.5337],[77.42491,12.53271],[77.42387,12.53246],[77.42304,12.53138],[77.42049,12.53172],[77.41768,12.5314],[77.41694,12.53223],[77.41644,12.53215],[77.41698,12.53524],[77.41584,12.53584],[77.41593,12.5398],[77.40685,12.54048],[77.38417,12.538],[77.38313,12.53726],[77.38577,12.54559],[77.3871,12.54802],[77.40603,12.55297],[77.40766,12.55957],[77.40783,12.56216],[77.40899,12.56291],[77.40919,12.5645],[77.41491,12.56388],[77.423,12.56008],[77.42593,12.55969],[77.42756,12.56563],[77.42848,12.56553],[77.42891,12.56945],[77.42759,12.57008],[77.42861,12.5726],[77.42975,12.57259],[77.4295,12.5741],[77.42887,12.57409],[77.42899,12.57518],[77.43092,12.57845],[77.43152,12.58166],[77.43336,12.58168],[77.43321,12.57999],[77.43388,12.57996],[77.43392,12.57933]]]}},{"type":"Feature","properties":{"unitId":678,"unitName":"Kodihalli PS"},"geometry":{"type":"MultiPolygon","coordinates":[[[[77.5439,12.59211],[77.5462,12.58795],[77.55008,12.58348],[77.56469,12.58168],[77.56647,12.57913],[77.5685,12.57818],[77.57213,12.57763],[77.57401,12.57656],[77.57586,12.57193],[77.57714,12.5707],[77.57912,12.5667],[77.58119,12.56485],[77.57534,12.56459],[77.57204,12.56334],[77.56488,12.56437],[77.56019,12.56211],[77.55878,12.56206],[77.55398,12.55937],[77.55245,12.55755],[77.55199,12.55464],[77.54995,12.55035],[77.54998,12.547],[77.55596,12.54268],[77.56523,12.54226],[77.5835,12.54888],[77.58171,12.55035],[77.58452,12.55173],[77.58814,12.54986],[77.58994,12.54778],[77.58802,12.53582],[77.58839,12.5322],[77.58984,12.52918],[77.58809,12.51686],[77.59478,12.51593],[77.60147,12.51601],[77.6045,12.5147],[77.61026,12.51329],[77.61201,12.51437],[77.61202,12.51293],[77.61554,12.50885],[77.61445,12.50665],[77.61378,12.50295],[77.61017,12.50048],[77.60313,12.49732],[77.60132,12.49595],[77.59448,12.48872],[77.59255,12.48768],[77.59078,12.48425],[77.58893,12.48445],[77.5871,12.48388],[77.58592,12.48209],[77.58497,12.48161],[77.58306,12.47806],[77.58577,12.47696],[77.58918,12.47737],[77.59095,12.47656],[77.59326,12.47624],[77.59367,12.47527],[77.59486,12.47489],[77.59855,12.47553],[77.60519,12.47432],[77.60694,12.4745],[77.61595,12.48413],[77.61776,12.48707],[77.62059,12.48905],[77.62213,12.49183],[77.62668,12.49686],[77.62981,12.49569],[77.63255,12.49071],[77.63629,12.48758],[77.63288,12.47906],[77.63339,12.47756],[77.63292,12.47318],[77.63387,12.4708],[77.63163,12.47085],[77.63141,12.46875],[77.62963,12.46781],[77.63032,12.46677],[77.62893,12.46005],[77.62705,12.45878],[77.62761,12.45618],[77.6275,12.45515],[77.62684,12.4554],[77.62904,12.44916],[77.62903,12.4451],[77.62704,12.44093],[77.62676,12.43716],[77.62742,12.43422],[77.62661,12.42822],[77.62804,12.42343],[77.6288,12.42263],[77.62841,12.41804],[77.62099,12.41426],[77.6207,12.41341],[77.62264,12.40331],[77.62132,12.4029],[77.62043,12.39375],[77.62151,12.39116],[77.62101,12.38417],[77.6194,12.38203],[77.61772,12.38144],[77.61701,12.36997],[77.61533,12.36621],[77.61436,12.3626],[77.6127,12.36136],[77.60788,12.36067],[77.60096,12.35872],[77.59874,12.35285],[77.59787,12.3486],[77.59442,12.34534],[77.59178,12.34046],[77.5859,12.33828],[77.58244,12.33792],[77.5806,12.33623],[77.57887,12.33582],[77.57512,12.33364],[77.57902,12.3497],[77.57286,12.32436],[77.57341,12.32397],[77.56603,12.30687],[77.5574,12.30523],[77.55772,12.30202],[77.55736,12.30171],[77.55656,12.30239],[77.55501,12.3002],[77.55287,12.29873],[77.55152,12.29672],[77.55106,12.28927],[77.54826,12.28835],[77.53397,12.28938],[77.53248,12.28259],[77.53293,12.28258],[77.53116,12.27747],[77.52824,12.27136],[77.52564,12.27163],[77.51611,12.26798],[77.51011,12.26877],[77.50395,12.27399],[77.48983,12.27806],[77.48714,12.27313],[77.48139,12.26976],[77.47775,12.26331],[77.47826,12.25935],[77.47954,12.25742],[77.47537,12.25474],[77.47362,12.24909],[77.47338,12.24363],[77.47431,12.24339],[77.47395,12.24075],[77.47277,12.24068],[77.46612,12.24283],[77.46055,12.2466],[77.45467,12.24677],[77.45238,12.24751],[77.44811,12.25192],[77.44678,12.25802],[77.44159,12.26589],[77.43234,12.28333],[77.42988,12.28669],[77.43772,12.29206],[77.44034,12.29472],[77.4407,12.29602],[77.43986,12.30081],[77.43976,12.31079],[77.44257,12.31751],[77.44733,12.32314],[77.45096,12.33749],[77.45083,12.34037],[77.44947,12.34412],[77.44942,12.34863],[77.449,12.35011],[77.44567,12.3509],[77.44413,12.35232],[77.44335,12.35582],[77.44258,12.35696],[77.43802,12.35785],[77.43654,12.35875],[77.43425,12.36424],[77.43566,12.3724],[77.43799,12.37737],[77.43548,12.38109],[77.43501,12.38259],[77.4365,12.38926],[77.43636,12.39079],[77.43472,12.39299],[77.43119,12.3952],[77.4302,12.39775],[77.4312,12.40449],[77.43732,12.41273],[77.43779,12.41631],[77.44066,12.42467],[77.43522,12.42764],[77.43484,12.42842],[77.43438,12.4314],[77.43583,12.43864],[77.4339,12.43977],[77.44516,12.44368],[77.43426,12.45721],[77.44202,12.46298],[77.44259,12.46189],[77.44306,12.4619],[77.45431,12.46404],[77.45255,12.47489],[77.45233,12.48551],[77.45624,12.48316],[77.46302,12.48381],[77.46336,12.48441],[77.46828,12.48495],[77.47055,12.47865],[77.47597,12.4703],[77.47965,12.46281],[77.48517,12.46733],[77.48335,12.4711],[77.48231,12.47424],[77.4814,12.47955],[77.47982,12.48347],[77.48077,12.48578],[77.48208,12.48714],[77.48318,12.49002],[77.483,12.49733],[77.48225,12.50024],[77.4777,12.49901],[77.47792,12.50053],[77.47689,12.50088],[77.47693,12.49857],[77.47652,12.49883],[77.47643,12.50182],[77.47572,12.50182],[77.47635,12.49877],[77.47403,12.49926],[77.47302,12.49755],[77.4728,12.49883],[77.4717,12.49905],[77.47155,12.49721],[77.47239,12.49604],[77.47137,12.49351],[77.47177,12.49073],[77.47063,12.48694],[77.46846,12.48721],[77.46857,12.48845],[77.46593,12.48917],[77.46412,12.4903],[77.4635,12.49743],[77.4625,12.50099],[77.46216,12.50435],[77.46255,12.51014],[77.46312,12.51195],[77.46268,12.51344],[77.46356,12.51571],[77.4775,12.52115],[77.48282,12.52158],[77.48661,12.52376],[77.48681,12.52671],[77.48514,12.53722],[77.48457,12.53894],[77.48265,12.54087],[77.48358,12.54347],[77.48479,12.54502],[77.48698,12.55304],[77.48779,12.55384],[77.4991,12.55363],[77.50181,12.55138],[77.50765,12.54848],[77.50978,12.54966],[77.51355,12.55685],[77.51619,12.56022],[77.51559,12.56325],[77.5135,12.56432],[77.51585,12.56588],[77.5178,12.57017],[77.52344,12.57643],[77.52519,12.57721],[77.52877,12.57716],[77.53476,12.58005],[77.53435,12.58256],[77.53559,12.59001],[77.53543,12.59174],[77.5381,12.59403],[77.53975,12.59533],[77.5439,12.59211]]],[[[77.43669,12.29609],[77.43856,12.29486],[77.43896,12.29516],[77.43949,12.29447],[77.43637,12.29263],[77.43462,12.29438],[77.43617,12.29658],[77.43669,12.29609]]]]}},{"type":"Feature","properties":{"unitId":679,"unitName":"Kudur PS"},"geometry":{"type":"Polygon","coordinates":[[[77.16487,13.19339],[77.16451,13.18981],[77.16585,13.18843],[77.1654,13.18796],[77.16833,13.18398],[77.16988,13.18403],[77.17529,13.18619],[77.17947,13.18592],[77.1794,13.18649],[77.18125,13.18623],[77.18217,13.18662],[77.19104,13.18468],[77.19459,13.18134],[77.19748,13.18027],[77.19818,13.18219],[77.20283,13.18221],[77.20585,13.18106],[77.20703,13.17887],[77.20683,13.17515],[77.20755,13.17336],[77.20948,13.17256],[77.21029,13.16998],[77.21447,13.16791],[77.21611,13.16534],[77.21653,13.1591],[77.21363,13.15717],[77.21301,13.15346],[77.2155,13.14881],[77.21736,13.14913],[77.22191,13.14851],[77.2216,13.14635],[77.23063,13.14515],[77.23163,13.14736],[77.23353,13.14666],[77.24044,13.14569],[77.24264,13.14709],[77.24673,13.15329],[77.25071,13.15261],[77.25211,13.15336],[77.25434,13.15308],[77.25747,13.15345],[77.2585,13.15246],[77.2598,13.15212],[77.26544,13.15169],[77.26689,13.15185],[77.26984,13.15419],[77.27425,13.15359],[77.2745,13.14294],[77.27255,13.14184],[77.27142,13.14392],[77.26736,13.14343],[77.26711,13.13485],[77.26639,13.13308],[77.26546,13.13307],[77.2649,13.13166],[77.26555,13.12997],[77.26548,13.12874],[77.26683,13.12618],[77.26519,13.12574],[77.26569,13.12477],[77.26545,13.12376],[77.26597,13.12327],[77.26568,13.12294],[77.26653,13.12267],[77.26681,13.11983],[77.2683,13.11946],[77.26855,13.11889],[77.2724,13.11912],[77.27385,13.11868],[77.27488,13.11995],[77.27696,13.12047],[77.27716,13.12496],[77.27822,13.12784],[77.2781,13.13061],[77.27867,13.13077],[77.27899,13.13508],[77.28083,13.13501],[77.28496,13.13374],[77.28554,13.12744],[77.2867,13.12459],[77.28641,13.12408],[77.28698,13.12046],[77.29096,13.12102],[77.29234,13.11228],[77.29192,13.11053],[77.29495,13.10916],[77.29859,13.10867],[77.3,13.10976],[77.30237,13.11017],[77.30318,13.11092],[77.30997,13.10756],[77.31373,13.10681],[77.31256,13.10143],[77.31246,13.09783],[77.3102,13.09018],[77.3096,13.08595],[77.30936,13.08333],[77.30977,13.08335],[77.3089,13.0787],[77.30942,13.07544],[77.30879,13.0677],[77.30914,13.05954],[77.3086,13.05676],[77.31069,13.04629],[77.31301,13.04676],[77.31424,13.04752],[77.31611,13.04731],[77.31676,13.048],[77.32193,13.04903],[77.33053,13.04812],[77.33006,13.0447],[77.33074,13.04387],[77.33103,13.04141],[77.32931,13.03971],[77.33012,13.03662],[77.32986,13.0334],[77.32887,13.03123],[77.32915,13.03027],[77.33006,13.02948],[77.3305,13.02768],[77.32919,13.02549],[77.32816,13.02553],[77.32684,13.02451],[77.32614,13.02353],[77.32594,13.02193],[77.31786,13.02141],[77.31751,13.02326],[77.31277,13.02507],[77.30496,13.03041],[77.30294,13.03007],[77.30287,13.02716],[77.30198,13.02427],[77.29947,13.02243],[77.29901,13.02123],[77.29636,13.0224],[77.29605,13.02406],[77.29275,13.02284],[77.2881,13.02367],[77.28685,13.02153],[77.28271,13.02054],[77.28005,13.01931],[77.27858,13.02006],[77.27269,13.01956],[77.27137,13.01751],[77.26695,13.02391],[77.26429,13.02955],[77.26003,13.03223],[77.2536,13.03284],[77.25074,13.02779],[77.24974,13.02805],[77.24848,13.02582],[77.24649,13.02409],[77.24495,13.02504],[77.24352,13.02419],[77.2375,13.02632],[77.23822,13.02915],[77.24085,13.0325],[77.24244,13.03844],[77.2441,13.03692],[77.24615,13.04198],[77.24671,13.04467],[77.24234,13.0455],[77.2361,13.04534],[77.23542,13.04302],[77.23448,13.04271],[77.23202,13.04378],[77.23191,13.04547],[77.22259,13.0468],[77.21991,13.04767],[77.21804,13.04732],[77.21436,13.03728],[77.21508,13.03591],[77.21696,13.03482],[77.21782,13.03294],[77.21866,13.03248],[77.21766,13.02684],[77.21498,13.02752],[77.21366,13.02691],[77.21231,13.02706],[77.21098,13.0277],[77.20641,13.02823],[77.2029,13.02018],[77.20235,13.02089],[77.19863,13.02101],[77.1963,13.01867],[77.18634,13.02344],[77.17668,13.03284],[77.17473,13.03572],[77.17005,13.02731],[77.17698,13.03044],[77.18205,13.02668],[77.17929,13.02501],[77.17049,13.02346],[77.16952,13.02513],[77.16992,13.02644],[77.16737,13.02418],[77.16641,13.02411],[77.16446,13.01971],[77.15629,13.01971],[77.15625,13.01883],[77.1547,13.01866],[77.15346,13.01387],[77.15068,13.01451],[77.15093,13.0108],[77.14927,13.01082],[77.14893,13.01192],[77.14812,13.01253],[77.1481,13.01331],[77.14738,13.01334],[77.14724,13.01248],[77.1459,13.01164],[77.14184,13.01245],[77.14058,13.01611],[77.13957,13.01571],[77.13891,13.01153],[77.1398,13.00954],[77.13954,13.0083],[77.13991,13.00821],[77.13864,13.0055],[77.1352,13.00294],[77.13189,13.00599],[77.12363,13.00665],[77.12303,13.00547],[77.12131,13.00651],[77.11654,13.00994],[77.11784,13.01231],[77.11813,13.01448],[77.11668,13.01492],[77.11289,13.01784],[77.10889,13.02305],[77.10497,13.02482],[77.09953,13.02615],[77.09836,13.02471],[77.09654,13.02538],[77.09576,13.02661],[77.09293,13.02711],[77.09385,13.03028],[77.08962,13.02956],[77.08829,13.03192],[77.08571,13.03309],[77.08323,13.03886],[77.08209,13.03991],[77.06959,13.03985],[77.07129,13.04416],[77.07206,13.0485],[77.07271,13.04937],[77.07317,13.05237],[77.07475,13.05696],[77.0757,13.05655],[77.076,13.05816],[77.07753,13.05774],[77.07777,13.05976],[77.07736,13.06103],[77.08068,13.06251],[77.07833,13.06277],[77.07631,13.06226],[77.07664,13.0618],[77.07598,13.061],[77.07375,13.06066],[77.07381,13.06137],[77.07337,13.06142],[77.07429,13.06621],[77.07015,13.06654],[77.07062,13.06786],[77.07336,13.06822],[77.07412,13.06975],[77.07498,13.06951],[77.07549,13.07196],[77.07705,13.07351],[77.07976,13.07829],[77.08172,13.0864],[77.08157,13.0887],[77.07957,13.09464],[77.07722,13.09595],[77.07604,13.10045],[77.07445,13.10337],[77.07452,13.1067],[77.07405,13.10681],[77.07286,13.11479],[77.071,13.11482],[77.07102,13.11447],[77.07054,13.11596],[77.06989,13.12421],[77.0702,13.12893],[77.07119,13.13141],[77.07198,13.13212],[77.07351,13.13218],[77.07934,13.13157],[77.07928,13.13347],[77.08335,13.13656],[77.0921,13.13579],[77.0937,13.14149],[77.0958,13.14618],[77.10341,13.1446],[77.10387,13.14568],[77.1044,13.14571],[77.10523,13.14534],[77.10508,13.14478],[77.1078,13.14434],[77.10833,13.13943],[77.10815,13.13856],[77.10709,13.13853],[77.10684,13.13522],[77.10951,13.13483],[77.10941,13.13354],[77.11184,13.13369],[77.11265,13.13259],[77.11582,13.13119],[77.11662,13.1328],[77.11821,13.14097],[77.11568,13.14181],[77.11724,13.14615],[77.11786,13.14603],[77.11799,13.14672],[77.11902,13.14679],[77.11916,13.14739],[77.11868,13.14739],[77.12013,13.15251],[77.11873,13.15817],[77.11876,13.16343],[77.12264,13.1631],[77.12329,13.16387],[77.12618,13.16344],[77.12683,13.16353],[77.12696,13.16432],[77.12893,13.16424],[77.13031,13.16625],[77.13108,13.16604],[77.13238,13.16707],[77.13456,13.17059],[77.13546,13.1704],[77.13846,13.17762],[77.14186,13.17524],[77.14191,13.17431],[77.14262,13.17353],[77.14838,13.1736],[77.15103,13.18152],[77.15196,13.18147],[77.15205,13.18231],[77.15143,13.18235],[77.15231,13.18565],[77.15608,13.19353],[77.16012,13.19383],[77.15954,13.19421],[77.16253,13.19645],[77.16489,13.19656],[77.16487,13.19339]]]}},{"type":"Feature","properties":{"unitId":680,"unitName":"M.K. Doddi PS"},"geometry":{"type":"Polygon","coordinates":[[[77.17549,12.80194],[77.17519,12.79689],[77.17608,12.7743],[77.17709,12.77292],[77.17638,12.76535],[77.17709,12.7454],[77.1766,12.74336],[77.18544,12.72698],[77.18619,12.72388],[77.18958,12.72459],[77.19006,12.72431],[77.19697,12.72596],[77.19909,12.72912],[77.20143,12.7299],[77.20296,12.7311],[77.20417,12.73126],[77.20434,12.73405],[77.20339,12.73687],[77.20431,12.73847],[77.20819,12.74116],[77.21003,12.74315],[77.2135,12.74377],[77.21364,12.74473],[77.21531,12.74446],[77.21793,12.74242],[77.21852,12.74074],[77.22536,12.73031],[77.22762,12.72581],[77.22905,12.7178],[77.22895,12.71267],[77.22739,12.70338],[77.22689,12.70258],[77.21279,12.70082],[77.19925,12.70689],[77.18633,12.71404],[77.18376,12.71438],[77.18332,12.71325],[77.1826,12.71334],[77.18226,12.71273],[77.17922,12.71369],[77.17478,12.71347],[77.16803,12.70979],[77.16831,12.70728],[77.16758,12.70723],[77.16722,12.70392],[77.1675,12.70299],[77.16805,12.70283],[77.16773,12.69936],[77.16668,12.69932],[77.1654,12.69717],[77.16437,12.69638],[77.16241,12.69654],[77.16238,12.69618],[77.15761,12.69515],[77.15515,12.69389],[77.15444,12.69274],[77.15426,12.68937],[77.15326,12.68927],[77.15224,12.68835],[77.15152,12.68685],[77.14959,12.68631],[77.14951,12.6858],[77.14772,12.68575],[77.14687,12.68468],[77.14712,12.68216],[77.14831,12.67976],[77.14798,12.67798],[77.1517,12.67725],[77.15174,12.67651],[77.15285,12.67568],[77.15336,12.67424],[77.15424,12.67388],[77.15406,12.67229],[77.1549,12.66786],[77.15354,12.66254],[77.15498,12.66783],[77.1569,12.66755],[77.15642,12.66575],[77.15687,12.66574],[77.15718,12.66453],[77.15815,12.65865],[77.16074,12.65755],[77.16043,12.65558],[77.16143,12.65545],[77.16183,12.65468],[77.16206,12.65156],[77.16113,12.64961],[77.16014,12.64866],[77.15953,12.64524],[77.15816,12.645],[77.15874,12.64683],[77.15866,12.65175],[77.1565,12.65214],[77.15643,12.65114],[77.15087,12.65191],[77.15049,12.65144],[77.14912,12.65154],[77.14777,12.65214],[77.14746,12.65299],[77.14691,12.653],[77.1389,12.65194],[77.1367,12.65262],[77.13669,12.65389],[77.13224,12.65405],[77.13197,12.6535],[77.12947,12.65393],[77.12646,12.65338],[77.12552,12.65404],[77.11862,12.65453],[77.11716,12.65479],[77.1163,12.65788],[77.11457,12.65882],[77.115,12.65396],[77.11437,12.65052],[77.11542,12.64799],[77.11532,12.64382],[77.11673,12.64287],[77.11764,12.63919],[77.1207,12.64044],[77.12095,12.64102],[77.12098,12.64071],[77.12235,12.64127],[77.12452,12.6408],[77.12559,12.64001],[77.12784,12.64004],[77.12761,12.63658],[77.12295,12.63535],[77.11799,12.63231],[77.11682,12.63062],[77.11735,12.63021],[77.11727,12.62962],[77.11821,12.62936],[77.11825,12.62835],[77.1125,12.62848],[77.11071,12.62793],[77.10767,12.62819],[77.1055,12.62767],[77.10275,12.62878],[77.101,12.62897],[77.10038,12.6456],[77.09941,12.65079],[77.09914,12.65832],[77.10004,12.67014],[77.0994,12.67321],[77.08407,12.67496],[77.07889,12.6762],[77.07895,12.67707],[77.07579,12.67713],[77.0747,12.67769],[77.07414,12.67859],[77.0743,12.6818],[77.07548,12.68181],[77.0756,12.68347],[77.07449,12.68367],[77.07406,12.68654],[77.07422,12.69147],[77.07311,12.69222],[77.0738,12.70328],[77.07541,12.70839],[77.07553,12.71142],[77.07618,12.71209],[77.07765,12.71719],[77.07797,12.72018],[77.07864,12.72205],[77.07941,12.72191],[77.08168,12.73123],[77.08085,12.73149],[77.08072,12.73321],[77.08185,12.7374],[77.08197,12.74537],[77.08088,12.74756],[77.07988,12.74741],[77.07853,12.7546],[77.0797,12.75983],[77.08348,12.75874],[77.08454,12.75767],[77.0858,12.75479],[77.08759,12.75355],[77.08597,12.7511],[77.09199,12.75106],[77.09151,12.75242],[77.09199,12.75316],[77.09186,12.75514],[77.09249,12.75609],[77.09165,12.75982],[77.09191,12.76293],[77.0926,12.76386],[77.09197,12.76385],[77.09211,12.76428],[77.09423,12.76696],[77.0948,12.77083],[77.09725,12.77383],[77.10121,12.7771],[77.10638,12.77976],[77.10653,12.78029],[77.10795,12.78023],[77.10909,12.7785],[77.11077,12.77717],[77.1121,12.77669],[77.11474,12.77664],[77.1151,12.77582],[77.11717,12.77583],[77.11831,12.77481],[77.12004,12.77507],[77.12293,12.7739],[77.12618,12.77475],[77.12704,12.77821],[77.12917,12.77837],[77.13138,12.7805],[77.13329,12.78075],[77.13685,12.78379],[77.13857,12.78231],[77.14021,12.78229],[77.1412,12.78159],[77.14249,12.78199],[77.1429,12.78301],[77.14401,12.78295],[77.14435,12.78345],[77.14608,12.78395],[77.14723,12.78611],[77.14856,12.7855],[77.14864,12.78602],[77.14961,12.7859],[77.15089,12.7913],[77.151,12.79292],[77.15043,12.79418],[77.15209,12.79334],[77.1539,12.79777],[77.15746,12.79897],[77.16111,12.80136],[77.16856,12.80176],[77.16919,12.80311],[77.17549,12.80194]]]}},{"type":"Feature","properties":{"unitId":681,"unitName":"Magadi PS"},"geometry":{"type":"MultiPolygon","coordinates":[[[[77.22981,13.04562],[77.23191,13.04547],[77.23202,13.04378],[77.23448,13.04271],[77.23542,13.04302],[77.2361,13.04534],[77.24234,13.0455],[77.24671,13.04467],[77.24615,13.04198],[77.2441,13.03692],[77.24244,13.03844],[77.24085,13.0325],[77.23822,13.02915],[77.2375,13.02632],[77.24352,13.02419],[77.24495,13.02504],[77.24649,13.02409],[77.24848,13.02582],[77.24974,13.02805],[77.25074,13.02779],[77.2536,13.03284],[77.26003,13.03223],[77.26429,13.02955],[77.26695,13.02391],[77.2719,13.01704],[77.27232,13.0149],[77.27065,13.01113],[77.27015,13.00388],[77.26919,12.99798],[77.26825,12.99403],[77.26691,12.99249],[77.26584,12.99011],[77.26513,12.98361],[77.26556,12.98219],[77.26426,12.98125],[77.27301,12.97666],[77.2772,12.97798],[77.28196,12.97839],[77.28161,12.97889],[77.28232,12.97895],[77.28425,12.98046],[77.29048,12.97336],[77.28702,12.97054],[77.28734,12.96939],[77.28658,12.96802],[77.28213,12.96621],[77.27258,12.96656],[77.27147,12.96558],[77.2731,12.96355],[77.2771,12.961],[77.27751,12.95998],[77.27987,12.95942],[77.2809,12.95803],[77.27992,12.95687],[77.28746,12.9494],[77.28961,12.94923],[77.29027,12.94655],[77.29193,12.94572],[77.29732,12.93868],[77.30265,12.93385],[77.30382,12.93149],[77.30617,12.9296],[77.30845,12.92654],[77.31191,12.92304],[77.31301,12.92012],[77.31573,12.91689],[77.31599,12.91363],[77.31799,12.91119],[77.31807,12.90947],[77.31719,12.90912],[77.31612,12.91027],[77.31474,12.91059],[77.31457,12.90535],[77.31273,12.90386],[77.31526,12.90021],[77.31504,12.89881],[77.31554,12.89705],[77.31538,12.8933],[77.3131,12.8893],[77.31374,12.88755],[77.31513,12.88618],[77.31815,12.8844],[77.32024,12.88398],[77.32319,12.87951],[77.32579,12.87733],[77.32444,12.87467],[77.32422,12.87173],[77.32383,12.87126],[77.32619,12.86878],[77.32534,12.86567],[77.32542,12.86103],[77.31745,12.85017],[77.31417,12.85072],[77.31534,12.85407],[77.31499,12.85726],[77.31679,12.86039],[77.31674,12.86218],[77.31765,12.86595],[77.31666,12.86691],[77.30656,12.87143],[77.30554,12.87293],[77.30411,12.87393],[77.29526,12.87371],[77.29359,12.8745],[77.29366,12.87609],[77.29285,12.87588],[77.29283,12.8755],[77.2898,12.87615],[77.28841,12.87148],[77.28807,12.87143],[77.29155,12.86517],[77.28919,12.86265],[77.28867,12.86084],[77.28918,12.86063],[77.28919,12.85977],[77.28793,12.85761],[77.28878,12.8561],[77.28427,12.85745],[77.28084,12.85636],[77.272,12.85624],[77.26965,12.85175],[77.26228,12.85176],[77.25867,12.84738],[77.25639,12.84591],[77.25533,12.84241],[77.25439,12.8423],[77.25323,12.84078],[77.24904,12.83816],[77.24283,12.83629],[77.23882,12.83563],[77.23578,12.83388],[77.23248,12.8445],[77.21963,12.83718],[77.21424,12.83726],[77.21577,12.8322],[77.21264,12.83183],[77.20627,12.83263],[77.20195,12.83161],[77.19105,12.83311],[77.18451,12.82666],[77.17615,12.82845],[77.17576,12.82687],[77.17397,12.82538],[77.17407,12.82432],[77.1734,12.82359],[77.17013,12.82437],[77.16935,12.82601],[77.16889,12.826],[77.16982,12.82814],[77.16908,12.82875],[77.16997,12.82955],[77.16975,12.83068],[77.17025,12.83147],[77.16911,12.83295],[77.16931,12.83331],[77.16176,12.83346],[77.16023,12.83461],[77.15944,12.83264],[77.15786,12.83093],[77.15816,12.82791],[77.15662,12.82751],[77.15534,12.82898],[77.15527,12.82969],[77.15352,12.83088],[77.15218,12.83025],[77.15005,12.83037],[77.15089,12.83412],[77.15004,12.83612],[77.14834,12.83692],[77.14888,12.8381],[77.14851,12.8393],[77.1488,12.84013],[77.14805,12.84102],[77.14905,12.84238],[77.14985,12.8452],[77.14972,12.84607],[77.14888,12.84615],[77.14955,12.84836],[77.14583,12.84951],[77.14488,12.85108],[77.13846,12.85295],[77.13532,12.8567],[77.13576,12.86076],[77.13297,12.85889],[77.13284,12.86414],[77.13448,12.87807],[77.13229,12.87926],[77.13333,12.88823],[77.13068,12.88878],[77.12689,12.88835],[77.1259,12.88768],[77.12336,12.88814],[77.12028,12.88662],[77.11889,12.88428],[77.10735,12.88907],[77.10578,12.89266],[77.10708,12.89311],[77.11006,12.89303],[77.11415,12.89688],[77.11754,12.89725],[77.11765,12.89803],[77.12023,12.8998],[77.12057,12.89699],[77.12347,12.89717],[77.12389,12.89753],[77.12297,12.90115],[77.12438,12.90162],[77.12739,12.89951],[77.13234,12.89796],[77.13331,12.89939],[77.13643,12.90141],[77.13593,12.90246],[77.13644,12.90527],[77.14098,12.91615],[77.14309,12.91623],[77.14402,12.91715],[77.14815,12.9158],[77.14859,12.91628],[77.15065,12.91563],[77.15197,12.91648],[77.15269,12.91588],[77.15276,12.91476],[77.15764,12.91355],[77.1584,12.91672],[77.15937,12.91664],[77.16019,12.91889],[77.16125,12.91956],[77.16198,12.92193],[77.16321,12.92324],[77.16434,12.92629],[77.16428,12.92773],[77.16522,12.92848],[77.16359,12.93357],[77.16272,12.93356],[77.16265,12.93425],[77.16155,12.93465],[77.16078,12.93438],[77.16058,12.93734],[77.15962,12.93744],[77.15698,12.94216],[77.15731,12.94425],[77.15603,12.94986],[77.1559,12.95306],[77.15687,12.95825],[77.1532,12.95975],[77.15089,12.9618],[77.14333,12.96353],[77.13767,12.96778],[77.1375,12.96863],[77.13507,12.97135],[77.13495,12.9723],[77.13117,12.97578],[77.13049,12.97865],[77.13301,12.98193],[77.13198,12.98338],[77.13288,12.98611],[77.1356,12.98522],[77.1365,12.98574],[77.13744,12.98563],[77.14171,12.98437],[77.14233,12.98661],[77.14469,12.98617],[77.14455,12.98801],[77.14277,12.98934],[77.14164,12.99147],[77.14231,12.99166],[77.14227,12.99205],[77.14058,12.99279],[77.14026,12.99415],[77.13558,12.9965],[77.13665,13.00185],[77.1352,13.00294],[77.13864,13.0055],[77.13991,13.00821],[77.13954,13.0083],[77.1398,13.00954],[77.13891,13.01153],[77.13957,13.01571],[77.14058,13.01611],[77.14184,13.01245],[77.1459,13.01164],[77.14724,13.01248],[77.14738,13.01334],[77.1481,13.01331],[77.14812,13.01253],[77.14893,13.01192],[77.14927,13.01082],[77.15093,13.0108],[77.15068,13.01451],[77.15346,13.01387],[77.1547,13.01866],[77.15625,13.01883],[77.15629,13.01971],[77.16446,13.01971],[77.16641,13.02411],[77.16737,13.02418],[77.16992,13.02644],[77.16952,13.02513],[77.17049,13.02346],[77.17929,13.02501],[77.18205,13.02668],[77.17698,13.03044],[77.17005,13.02731],[77.17473,13.03572],[77.17668,13.03284],[77.18634,13.02344],[77.1963,13.01867],[77.19863,13.02101],[77.20235,13.02089],[77.2029,13.02018],[77.20641,13.02823],[77.21098,13.0277],[77.21231,13.02706],[77.21366,13.02691],[77.21498,13.02752],[77.21766,13.02684],[77.21866,13.03248],[77.21782,13.03294],[77.21696,13.03482],[77.21508,13.03591],[77.21436,13.03728],[77.21804,13.04732],[77.21991,13.04767],[77.22259,13.0468],[77.22981,13.04562]]],[[[77.11793,13.00898],[77.12303,13.00547],[77.12285,13.00443],[77.12392,13.00294],[77.12779,13.00118],[77.12972,12.99896],[77.12871,12.99639],[77.12888,12.99552],[77.12029,12.99509],[77.11432,12.99607],[77.11108,12.99559],[77.10664,12.99665],[77.10553,12.99344],[77.10507,12.99366],[77.10485,12.99303],[77.10342,12.9928],[77.09754,12.99826],[77.09827,12.99909],[77.09859,13.00044],[77.1011,13.00087],[77.10292,13.0072],[77.10799,13.00849],[77.11382,13.00866],[77.11654,13.00994],[77.11793,13.00898]]]]}},{"type":"Feature","properties":{"unitId":682,"unitName":"Ramanagara Rural PS"},"geometry":{"type":"Polygon","coordinates":[[[77.29127,12.87578],[77.29283,12.8755],[77.29285,12.87588],[77.29366,12.87609],[77.29359,12.8745],[77.29526,12.87371],[77.30411,12.87393],[77.30554,12.87293],[77.30656,12.87143],[77.31666,12.86691],[77.31765,12.86595],[77.31674,12.86218],[77.31679,12.86039],[77.31499,12.85726],[77.31534,12.85407],[77.31417,12.85072],[77.31745,12.85017],[77.32542,12.86103],[77.32812,12.85969],[77.33379,12.85979],[77.34538,12.85805],[77.3453,12.85257],[77.34372,12.85319],[77.34249,12.85291],[77.34196,12.85157],[77.3457,12.84825],[77.3489,12.8471],[77.35064,12.8458],[77.35189,12.8436],[77.35195,12.84042],[77.35276,12.83781],[77.35133,12.8316],[77.35238,12.82809],[77.35242,12.8256],[77.35474,12.8187],[77.35931,12.81051],[77.3585,12.8034],[77.35978,12.80194],[77.35982,12.80035],[77.35875,12.79701],[77.35782,12.79138],[77.35889,12.79086],[77.35835,12.78732],[77.36056,12.7864],[77.36028,12.78475],[77.35875,12.78392],[77.3581,12.78123],[77.35892,12.77993],[77.36035,12.77918],[77.36137,12.77713],[77.35765,12.77581],[77.3532,12.77219],[77.35177,12.77226],[77.35135,12.76854],[77.35152,12.76425],[77.35275,12.76439],[77.35279,12.76262],[77.35363,12.76144],[77.35846,12.75921],[77.36198,12.75825],[77.36027,12.75131],[77.35833,12.75172],[77.35472,12.75128],[77.3547,12.74569],[77.3572,12.73733],[77.35719,12.7361],[77.35951,12.73407],[77.35985,12.73081],[77.3595,12.72954],[77.37588,12.73152],[77.38102,12.73172],[77.38435,12.73064],[77.38732,12.73025],[77.38732,12.72823],[77.39251,12.70866],[77.38961,12.70833],[77.38977,12.70765],[77.38885,12.70657],[77.38932,12.70518],[77.38898,12.70486],[77.39027,12.70255],[77.39018,12.7003],[77.39151,12.69893],[77.39208,12.69679],[77.3935,12.69652],[77.3937,12.69591],[77.39599,12.69485],[77.3963,12.69321],[77.39474,12.69405],[77.39124,12.69185],[77.38735,12.69104],[77.38467,12.68979],[77.37903,12.69139],[77.37706,12.69083],[77.37663,12.68727],[77.379,12.68593],[77.38025,12.6846],[77.38189,12.6777],[77.38157,12.66695],[77.38222,12.66558],[77.38333,12.66464],[77.38247,12.6612],[77.38076,12.65795],[77.38074,12.65613],[77.38195,12.65302],[77.38279,12.65209],[77.38459,12.65148],[77.38642,12.64436],[77.38591,12.64429],[77.38549,12.64247],[77.37662,12.64094],[77.37512,12.64377],[77.37433,12.64885],[77.37201,12.65375],[77.36677,12.65864],[77.36621,12.6602],[77.36213,12.66161],[77.36037,12.65157],[77.35907,12.64724],[77.36017,12.6457],[77.35948,12.64474],[77.35993,12.64419],[77.35952,12.64362],[77.358,12.64484],[77.35431,12.64539],[77.3546,12.64249],[77.35394,12.6406],[77.3505,12.63678],[77.34902,12.63638],[77.34804,12.63542],[77.34817,12.63223],[77.34712,12.62727],[77.34012,12.6134],[77.34043,12.61236],[77.33982,12.611],[77.33914,12.61107],[77.33926,12.6103],[77.3345,12.6091],[77.33464,12.607],[77.33582,12.60385],[77.33557,12.60199],[77.33335,12.60186],[77.33301,12.6001],[77.32985,12.59695],[77.33062,12.59546],[77.33247,12.59535],[77.33386,12.59423],[77.33572,12.59114],[77.33544,12.58971],[77.32533,12.58911],[77.3267,12.58323],[77.32587,12.58192],[77.32046,12.58307],[77.31729,12.5813],[77.31595,12.57907],[77.31326,12.57694],[77.31155,12.57641],[77.30689,12.57909],[77.30662,12.58672],[77.30348,12.5873],[77.30049,12.58555],[77.29758,12.5865],[77.29576,12.58872],[77.29368,12.59032],[77.29384,12.59537],[77.29303,12.59959],[77.29079,12.60019],[77.28913,12.60188],[77.28867,12.60185],[77.28611,12.60005],[77.28262,12.59971],[77.28216,12.59712],[77.27801,12.5978],[77.27918,12.60066],[77.27746,12.60507],[77.27084,12.59776],[77.26932,12.59317],[77.26266,12.59081],[77.26211,12.59335],[77.26234,12.5951],[77.25976,12.59764],[77.25502,12.60101],[77.25162,12.58995],[77.24908,12.59085],[77.23801,12.59917],[77.23871,12.60175],[77.24166,12.60655],[77.2426,12.61007],[77.24482,12.61012],[77.24464,12.61089],[77.2456,12.61091],[77.24472,12.61625],[77.24535,12.61764],[77.24685,12.61864],[77.24732,12.62014],[77.24995,12.6212],[77.24152,12.623],[77.24086,12.62253],[77.23901,12.62282],[77.23822,12.62235],[77.23581,12.62315],[77.23457,12.6242],[77.23514,12.62418],[77.23637,12.62784],[77.24013,12.63336],[77.24244,12.63306],[77.24328,12.63526],[77.24518,12.63476],[77.24423,12.63158],[77.24565,12.63144],[77.24932,12.62902],[77.25847,12.62594],[77.26075,12.62932],[77.26609,12.62818],[77.26685,12.63717],[77.26771,12.63911],[77.26881,12.64449],[77.26885,12.64594],[77.26639,12.65042],[77.26379,12.65115],[77.25987,12.65138],[77.25539,12.6552],[77.25208,12.65645],[77.25894,12.66121],[77.25845,12.66645],[77.26114,12.67064],[77.26238,12.67414],[77.26213,12.67664],[77.25743,12.67777],[77.2558,12.67873],[77.2563,12.6806],[77.25704,12.68234],[77.25976,12.68474],[77.26061,12.6863],[77.26089,12.6888],[77.26514,12.69011],[77.26773,12.69409],[77.26562,12.69476],[77.26546,12.69553],[77.26287,12.69706],[77.26231,12.69542],[77.25982,12.69653],[77.26031,12.69878],[77.25813,12.70004],[77.24932,12.69448],[77.24971,12.68945],[77.24598,12.6858],[77.2447,12.6854],[77.24077,12.68935],[77.24608,12.69494],[77.24656,12.69392],[77.25746,12.70057],[77.25785,12.70236],[77.26022,12.7031],[77.25996,12.70352],[77.26446,12.70637],[77.26523,12.70603],[77.26491,12.70403],[77.26544,12.70196],[77.26493,12.69996],[77.26657,12.69972],[77.27067,12.7006],[77.2757,12.70088],[77.27883,12.70017],[77.28296,12.70003],[77.284,12.70723],[77.2884,12.70412],[77.29003,12.70804],[77.29175,12.70946],[77.29213,12.71294],[77.29628,12.71382],[77.2978,12.71333],[77.30015,12.7146],[77.30247,12.71417],[77.30527,12.71252],[77.30922,12.71833],[77.31018,12.72112],[77.31135,12.72224],[77.31176,12.72773],[77.31333,12.73074],[77.31581,12.73304],[77.31842,12.7329],[77.31916,12.73398],[77.31874,12.73397],[77.31467,12.74093],[77.3111,12.74079],[77.30915,12.73925],[77.30822,12.73951],[77.30765,12.73875],[77.30676,12.73851],[77.30661,12.73706],[77.30524,12.73684],[77.30568,12.73669],[77.30535,12.73578],[77.30429,12.73506],[77.30401,12.73391],[77.30268,12.73339],[77.30107,12.734],[77.29903,12.73189],[77.29899,12.73129],[77.29742,12.73104],[77.29738,12.73151],[77.29515,12.73078],[77.29499,12.73111],[77.29411,12.73048],[77.29382,12.7292],[77.2909,12.72764],[77.29005,12.72767],[77.28847,12.72585],[77.28763,12.72582],[77.28683,12.72607],[77.28692,12.7276],[77.28801,12.72835],[77.28922,12.73034],[77.29022,12.73012],[77.28992,12.73152],[77.28934,12.73174],[77.28656,12.72853],[77.28737,12.73086],[77.28403,12.73179],[77.28205,12.73173],[77.28199,12.73694],[77.28241,12.73871],[77.28453,12.74128],[77.28424,12.74231],[77.28207,12.74304],[77.27957,12.74566],[77.27458,12.74851],[77.27226,12.74784],[77.26213,12.74784],[77.26358,12.74663],[77.25815,12.74501],[77.2558,12.74339],[77.25419,12.74055],[77.25263,12.73595],[77.25012,12.73536],[77.24784,12.73556],[77.24759,12.73506],[77.24731,12.7313],[77.2478,12.72943],[77.24917,12.72633],[77.25198,12.72345],[77.2529,12.72065],[77.25216,12.71443],[77.24947,12.71032],[77.24894,12.70859],[77.24912,12.70686],[77.24944,12.70526],[77.25337,12.70091],[77.24951,12.69815],[77.24831,12.69905],[77.24688,12.69926],[77.24311,12.69671],[77.2398,12.6954],[77.24021,12.69525],[77.2397,12.69494],[77.23943,12.69336],[77.23725,12.69062],[77.2345,12.68894],[77.23025,12.69325],[77.22904,12.69617],[77.22752,12.70409],[77.22895,12.71267],[77.22905,12.7178],[77.22762,12.72581],[77.22536,12.73031],[77.21852,12.74074],[77.21793,12.74242],[77.21531,12.74446],[77.21364,12.74473],[77.2135,12.74377],[77.21003,12.74315],[77.20819,12.74116],[77.20431,12.73847],[77.20339,12.73687],[77.20434,12.73405],[77.20417,12.73126],[77.20296,12.7311],[77.20143,12.7299],[77.19909,12.72912],[77.19697,12.72596],[77.19006,12.72431],[77.18958,12.72459],[77.18619,12.72388],[77.18544,12.72698],[77.1766,12.74336],[77.17709,12.7454],[77.17638,12.76535],[77.17709,12.77292],[77.17608,12.7743],[77.17519,12.79689],[77.17549,12.80194],[77.16919,12.80311],[77.16856,12.80176],[77.16111,12.80136],[77.15746,12.79897],[77.1539,12.79777],[77.15209,12.79334],[77.15043,12.79418],[77.13802,12.8127],[77.14262,12.82048],[77.14669,12.81951],[77.14877,12.82136],[77.15236,12.82223],[77.15216,12.82341],[77.15413,12.82385],[77.15705,12.82712],[77.15663,12.82751],[77.15816,12.82791],[77.15786,12.83093],[77.15944,12.83264],[77.16023,12.83461],[77.16176,12.83346],[77.16931,12.83331],[77.16911,12.83295],[77.17025,12.83147],[77.16975,12.83068],[77.16997,12.82955],[77.16908,12.82875],[77.16982,12.82814],[77.16889,12.826],[77.16935,12.82601],[77.17013,12.82437],[77.1734,12.82359],[77.17407,12.82432],[77.17397,12.82538],[77.17576,12.82687],[77.17615,12.82845],[77.18451,12.82666],[77.19105,12.83311],[77.20195,12.83161],[77.20627,12.83263],[77.21264,12.83183],[77.21577,12.8322],[77.21424,12.83726],[77.21963,12.83718],[77.23248,12.8445],[77.23578,12.83388],[77.23882,12.83563],[77.24283,12.83629],[77.24904,12.83816],[77.25323,12.84078],[77.25439,12.8423],[77.25533,12.84241],[77.25639,12.84591],[77.25867,12.84738],[77.26228,12.85176],[77.26965,12.85175],[77.272,12.85624],[77.28084,12.85636],[77.28427,12.85745],[77.28878,12.8561],[77.28793,12.85761],[77.28919,12.85977],[77.28918,12.86063],[77.28867,12.86084],[77.28919,12.86265],[77.29155,12.86517],[77.28807,12.87143],[77.28841,12.87148],[77.2898,12.87615],[77.29127,12.87578]]]}},{"type":"Feature","properties":{"unitId":683,"unitName":"Ramanagara Town PS"},"geometry":{"type":"Polygon","coordinates":[[[77.31394,12.74108],[77.31467,12.74093],[77.31874,12.73397],[77.31916,12.73398],[77.31842,12.7329],[77.31581,12.73304],[77.31333,12.73074],[77.31176,12.72773],[77.31135,12.72224],[77.31018,12.72112],[77.30922,12.71833],[77.30527,12.71252],[77.30247,12.71417],[77.30015,12.7146],[77.2978,12.71333],[77.29628,12.71382],[77.29213,12.71294],[77.29175,12.70946],[77.29003,12.70804],[77.2884,12.70412],[77.284,12.70723],[77.27927,12.70983],[77.27769,12.71132],[77.27691,12.71343],[77.2778,12.72233],[77.27671,12.72462],[77.2768,12.72601],[77.27752,12.72698],[77.28153,12.7296],[77.28183,12.73159],[77.28351,12.73186],[77.28737,12.73086],[77.28656,12.72853],[77.28934,12.73174],[77.28992,12.73152],[77.29022,12.73012],[77.28922,12.73034],[77.28801,12.72835],[77.28692,12.7276],[77.28683,12.72607],[77.28847,12.72585],[77.29005,12.72767],[77.2909,12.72764],[77.29382,12.7292],[77.29411,12.73048],[77.29499,12.73111],[77.29515,12.73078],[77.29738,12.73151],[77.29742,12.73104],[77.29899,12.73129],[77.29903,12.73189],[77.30107,12.734],[77.30268,12.73339],[77.30401,12.73391],[77.30429,12.73506],[77.30535,12.73578],[77.30568,12.73669],[77.30524,12.73684],[77.30661,12.73706],[77.30676,12.73851],[77.30765,12.73875],[77.30822,12.73951],[77.30915,12.73925],[77.3111,12.74079],[77.31394,12.74108]]]}},{"type":"Feature","properties":{"unitId":684,"unitName":"Sathanuru PS"},"geometry":{"type":"Polygon","coordinates":[[[77.26538,12.54921],[77.26422,12.54791],[77.26446,12.54676],[77.26639,12.54663],[77.26972,12.54788],[77.27277,12.54793],[77.27226,12.54605],[77.27091,12.54458],[77.2711,12.54419],[77.27169,12.54362],[77.27551,12.54234],[77.27678,12.54099],[77.27551,12.53982],[77.27237,12.53868],[77.27233,12.53756],[77.27347,12.53659],[77.2739,12.53474],[77.27611,12.5304],[77.27914,12.53135],[77.27972,12.531],[77.27965,12.53002],[77.28055,12.52893],[77.28584,12.53013],[77.28684,12.53073],[77.28682,12.53157],[77.28839,12.53203],[77.29471,12.53221],[77.30198,12.53008],[77.30341,12.53511],[77.30449,12.53633],[77.30429,12.53802],[77.30376,12.53862],[77.30492,12.53921],[77.30911,12.5361],[77.31039,12.54053],[77.31367,12.53553],[77.31336,12.53306],[77.32196,12.53134],[77.32301,12.53158],[77.32316,12.5322],[77.32261,12.53257],[77.32292,12.5342],[77.32416,12.53502],[77.32437,12.53572],[77.32233,12.53629],[77.32351,12.539],[77.3239,12.54384],[77.32559,12.54667],[77.32918,12.54663],[77.32957,12.54732],[77.3315,12.54705],[77.33234,12.5474],[77.33209,12.54821],[77.33351,12.54783],[77.33596,12.54876],[77.33939,12.54897],[77.34211,12.54823],[77.34775,12.54555],[77.35773,12.54385],[77.36069,12.5342],[77.35893,12.53167],[77.35804,12.51705],[77.36717,12.5039],[77.37433,12.50421],[77.37588,12.4999],[77.37689,12.49377],[77.3772,12.49413],[77.3774,12.49374],[77.37894,12.49361],[77.38027,12.49392],[77.38084,12.49253],[77.38017,12.48847],[77.38449,12.48809],[77.3856,12.4871],[77.38749,12.48312],[77.38377,12.4819],[77.3828,12.47755],[77.38368,12.46075],[77.3906,12.45967],[77.39076,12.46114],[77.39512,12.46131],[77.39619,12.46326],[77.40937,12.45844],[77.40996,12.45937],[77.41958,12.45521],[77.43344,12.44024],[77.43583,12.43864],[77.43438,12.4314],[77.43484,12.42842],[77.43522,12.42764],[77.44066,12.42467],[77.43779,12.41631],[77.43732,12.41273],[77.4312,12.40449],[77.4302,12.39775],[77.43119,12.3952],[77.43472,12.39299],[77.43636,12.39079],[77.4365,12.38926],[77.43501,12.38259],[77.43548,12.38109],[77.43799,12.37737],[77.43566,12.3724],[77.43425,12.36424],[77.43654,12.35875],[77.43802,12.35785],[77.44258,12.35696],[77.44335,12.35582],[77.44413,12.35232],[77.44567,12.3509],[77.449,12.35011],[77.44942,12.34863],[77.44947,12.34412],[77.45083,12.34037],[77.45096,12.33749],[77.44733,12.32314],[77.44257,12.31751],[77.43976,12.31079],[77.43986,12.30081],[77.4407,12.29602],[77.44034,12.29472],[77.43772,12.29206],[77.43317,12.28875],[77.42988,12.28669],[77.41833,12.28637],[77.41316,12.2809],[77.40595,12.27587],[77.35809,12.2774],[77.355,12.27574],[77.34454,12.27762],[77.33533,12.28788],[77.32614,12.30277],[77.31978,12.30223],[77.31902,12.3025],[77.3194,12.3058],[77.3237,12.3079],[77.32517,12.30767],[77.32589,12.31095],[77.32451,12.31109],[77.32397,12.31182],[77.32511,12.31215],[77.3251,12.31322],[77.32413,12.31372],[77.32454,12.32815],[77.33242,12.35374],[77.3254,12.36626],[77.3122,12.39227],[77.30259,12.39201],[77.29487,12.39425],[77.28902,12.39291],[77.28493,12.394],[77.28392,12.40686],[77.2831,12.4066],[77.28163,12.40708],[77.2818,12.40918],[77.28379,12.40857],[77.28394,12.41125],[77.28276,12.41455],[77.28288,12.41581],[77.28209,12.41657],[77.28171,12.42145],[77.28625,12.42113],[77.28528,12.42196],[77.28523,12.42885],[77.28097,12.42876],[77.27983,12.42925],[77.27759,12.42926],[77.27753,12.42971],[77.27539,12.43009],[77.27514,12.43067],[77.27363,12.4301],[77.27235,12.43217],[77.26965,12.43423],[77.27174,12.43547],[77.27293,12.43724],[77.27408,12.43638],[77.27511,12.43657],[77.2752,12.43727],[77.27389,12.43767],[77.27406,12.43882],[77.27507,12.43968],[77.27457,12.4422],[77.27409,12.44249],[77.27442,12.44283],[77.27419,12.4441],[77.27346,12.44515],[77.27266,12.44848],[77.26948,12.46477],[77.26673,12.4623],[77.26513,12.46194],[77.26011,12.46286],[77.25776,12.4636],[77.25794,12.46403],[77.25713,12.46459],[77.25466,12.47009],[77.25323,12.4696],[77.24828,12.46996],[77.24819,12.46946],[77.24692,12.46937],[77.24561,12.46979],[77.24461,12.46957],[77.24359,12.47026],[77.24363,12.47111],[77.23635,12.47096],[77.23633,12.4726],[77.23539,12.47264],[77.23508,12.47363],[77.23513,12.47493],[77.23604,12.47504],[77.23621,12.47655],[77.23601,12.47822],[77.23499,12.47809],[77.23598,12.48225],[77.23349,12.48407],[77.23166,12.48369],[77.22996,12.48391],[77.23012,12.47965],[77.22809,12.47982],[77.22705,12.47942],[77.22702,12.47744],[77.22751,12.4774],[77.2271,12.4748],[77.22554,12.47467],[77.22614,12.47818],[77.22584,12.47906],[77.2263,12.48257],[77.22585,12.48547],[77.22612,12.48951],[77.23102,12.48779],[77.23106,12.48732],[77.23436,12.48673],[77.23633,12.48666],[77.23678,12.48811],[77.23738,12.48846],[77.23792,12.48808],[77.23914,12.48887],[77.23889,12.4927],[77.23817,12.49555],[77.23878,12.49972],[77.23869,12.5038],[77.23966,12.50346],[77.23989,12.50707],[77.24401,12.50683],[77.24476,12.50722],[77.24859,12.50719],[77.24914,12.50792],[77.25414,12.50783],[77.25718,12.50913],[77.25632,12.51079],[77.25622,12.51219],[77.25665,12.51868],[77.25607,12.52228],[77.25622,12.52458],[77.2558,12.52435],[77.25443,12.53091],[77.25891,12.53131],[77.25923,12.53251],[77.25866,12.53386],[77.25605,12.53486],[77.25507,12.53632],[77.2541,12.54023],[77.25386,12.54364],[77.25301,12.54479],[77.25437,12.54859],[77.25663,12.54908],[77.26219,12.55184],[77.26378,12.55239],[77.26939,12.55123],[77.27052,12.55022],[77.2673,12.54996],[77.26538,12.54921]],[[77.43633,12.29265],[77.43949,12.29447],[77.43617,12.29658],[77.43462,12.29438],[77.43633,12.29265]]]}}]}