{"type":"FeatureCollection","features":[{"type":"Feature","properties":{"unitId":818,"unitName":"B. Gudi PS"},"geometry":{"type":"Polygon","coordinates":[[[76.87571,16.89665],[76.8823,16.89657],[76.89193,16.89549],[76.90256,16.8936],[76.90214,16.8789],[76.90707,16.87778],[76.90704,16.87637],[76.91071,16.87653],[76.91337,16.87565],[76.9169,16.87246],[76.91896,16.87223],[76.91939,16.87109],[76.92117,16.87052],[76.91586,16.862],[76.91317,16.86039],[76.90764,16.85919],[76.90444,16.85795],[76.90282,16.85637],[76.90199,16.85369],[76.90214,16.84311],[76.9025,16.83821],[76.90345,16.83347],[76.90626,16.82369],[76.90947,16.81811],[76.91207,16.81653],[76.91435,16.8163],[76.91939,16.81837],[76.92131,16.82102],[76.92228,16.82609],[76.92439,16.82991],[76.92598,16.83106],[76.92878,16.83212],[76.94584,16.8306],[76.94833,16.82984],[76.94781,16.82681],[76.94667,16.82705],[76.9462,16.82553],[76.94479,16.81477],[76.9433,16.81491],[76.94188,16.80366],[76.94067,16.79986],[76.93953,16.79257],[76.93874,16.78494],[76.91995,16.78129],[76.9185,16.78136],[76.91744,16.77697],[76.91622,16.7675],[76.90825,16.76747],[76.90454,16.76623],[76.89156,16.76527],[76.88143,16.76369],[76.88026,16.75003],[76.87569,16.75071],[76.86576,16.75088],[76.8615,16.75167],[76.86154,16.75895],[76.85712,16.75937],[76.84036,16.75948],[76.84029,16.75491],[76.83417,16.75462],[76.83497,16.75171],[76.83666,16.74845],[76.83723,16.74465],[76.83831,16.74455],[76.83786,16.73995],[76.83443,16.73792],[76.83274,16.73486],[76.83029,16.73448],[76.81765,16.73687],[76.81437,16.73709],[76.81394,16.73169],[76.8113,16.72084],[76.80947,16.71624],[76.80917,16.71412],[76.80956,16.70852],[76.80567,16.6996],[76.79919,16.68674],[76.79748,16.6822],[76.78888,16.68336],[76.78858,16.68589],[76.78889,16.6885],[76.79078,16.69769],[76.79004,16.70924],[76.78156,16.7093],[76.78581,16.7253],[76.78738,16.73448],[76.78802,16.74002],[76.7879,16.74082],[76.78699,16.74077],[76.78697,16.74611],[76.7762,16.74612],[76.77687,16.75361],[76.77817,16.75729],[76.77912,16.76225],[76.78133,16.76827],[76.78309,16.77683],[76.78249,16.77728],[76.78236,16.77851],[76.78147,16.77945],[76.77831,16.7797],[76.77375,16.77802],[76.77021,16.77985],[76.76827,16.77836],[76.76638,16.77788],[76.76383,16.77583],[76.76134,16.77625],[76.75975,16.77577],[76.75242,16.77751],[76.74541,16.77832],[76.74532,16.791],[76.74455,16.80266],[76.74497,16.81641],[76.7547,16.81463],[76.75633,16.81524],[76.75667,16.81624],[76.75654,16.81855],[76.7549,16.81983],[76.7542,16.82215],[76.75496,16.82578],[76.75591,16.82586],[76.75714,16.82699],[76.75838,16.83138],[76.75768,16.83414],[76.75692,16.83448],[76.75654,16.83534],[76.75527,16.83581],[76.7537,16.83829],[76.75901,16.84565],[76.76489,16.84324],[76.78881,16.83776],[76.78983,16.84481],[76.79145,16.85027],[76.79761,16.8497],[76.80007,16.85037],[76.80222,16.8493],[76.80539,16.85044],[76.8066,16.85269],[76.80889,16.85386],[76.80948,16.85497],[76.80927,16.85554],[76.81141,16.85588],[76.81144,16.85774],[76.81213,16.85861],[76.81367,16.85913],[76.81532,16.87008],[76.817,16.8746],[76.82611,16.87304],[76.82842,16.87362],[76.82777,16.8708],[76.83206,16.86968],[76.83491,16.86786],[76.83796,16.8691],[76.84131,16.86716],[76.84337,16.86757],[76.84423,16.86893],[76.8458,16.8687],[76.84732,16.87348],[76.84888,16.87524],[76.85287,16.87728],[76.8532,16.87794],[76.85445,16.87822],[76.85684,16.89209],[76.86192,16.89164],[76.86262,16.89247],[76.86694,16.89243],[76.87072,16.89305],[76.87053,16.89654],[76.87571,16.89665]]]}},{"type":"Feature","properties":{"unitId":819,"unitName":"Gogi PS"},"geometry":{"type":"Polygon","coordinates":[[[76.7095,16.78898],[76.70905,16.7808],[76.71918,16.77806],[76.7249,16.78533],[76.72518,16.7841],[76.72624,16.78328],[76.72634,16.78266],[76.72732,16.78231],[76.72746,16.78144],[76.73304,16.77888],[76.73454,16.77931],[76.73635,16.77642],[76.74597,16.77833],[76.75242,16.77751],[76.75975,16.77577],[76.76134,16.77625],[76.76383,16.77583],[76.76638,16.77788],[76.76827,16.77836],[76.77021,16.77985],[76.77375,16.77802],[76.77831,16.7797],[76.78147,16.77945],[76.78236,16.77851],[76.78276,16.77678],[76.78309,16.77683],[76.78133,16.76827],[76.77912,16.76225],[76.77817,16.75729],[76.77687,16.75361],[76.7762,16.74612],[76.78697,16.74611],[76.78699,16.74077],[76.7879,16.74082],[76.78802,16.74002],[76.78738,16.73448],[76.78581,16.7253],[76.78156,16.7093],[76.79004,16.70924],[76.79078,16.69769],[76.78889,16.6885],[76.78858,16.68589],[76.78888,16.68336],[76.79579,16.68223],[76.79678,16.65978],[76.79611,16.65871],[76.79598,16.65659],[76.79181,16.64624],[76.78822,16.63865],[76.78656,16.63104],[76.78644,16.63006],[76.7871,16.62985],[76.78693,16.62838],[76.79001,16.62824],[76.79026,16.62765],[76.78838,16.61772],[76.78421,16.61745],[76.78404,16.61418],[76.78143,16.61231],[76.77764,16.61049],[76.77531,16.60866],[76.77202,16.60286],[76.7715,16.60143],[76.77183,16.59959],[76.7689,16.59614],[76.76787,16.59598],[76.76839,16.59452],[76.76474,16.59461],[76.76425,16.59502],[76.76432,16.5945],[76.7634,16.59468],[76.76245,16.59329],[76.75614,16.59195],[76.75514,16.59645],[76.75421,16.59804],[76.75365,16.60231],[76.75418,16.6032],[76.75316,16.60566],[76.75257,16.61094],[76.74929,16.61026],[76.74283,16.61075],[76.74076,16.60935],[76.73883,16.60907],[76.7392,16.6076],[76.73342,16.60733],[76.7309,16.60768],[76.72444,16.61024],[76.7198,16.60987],[76.71723,16.61137],[76.71242,16.61129],[76.71003,16.61183],[76.70265,16.60624],[76.70055,16.60685],[76.69593,16.60683],[76.69166,16.60574],[76.69095,16.6074],[76.68986,16.60819],[76.689,16.61262],[76.68826,16.61267],[76.68708,16.61378],[76.68631,16.61679],[76.68454,16.62024],[76.68372,16.6238],[76.68314,16.62445],[76.68311,16.62646],[76.68235,16.62659],[76.68186,16.62598],[76.68082,16.6264],[76.68165,16.62855],[76.68163,16.63052],[76.68019,16.63016],[76.67969,16.63069],[76.67831,16.62996],[76.67757,16.6303],[76.67369,16.6302],[76.67325,16.62868],[76.66968,16.62861],[76.66001,16.63082],[76.65522,16.63123],[76.65474,16.63259],[76.65312,16.63307],[76.64937,16.63277],[76.64938,16.6468],[76.64882,16.65399],[76.64775,16.65434],[76.64712,16.65366],[76.64495,16.65477],[76.64404,16.65677],[76.64373,16.66018],[76.64309,16.66102],[76.64325,16.66201],[76.64215,16.66353],[76.63469,16.66376],[76.63712,16.66725],[76.63765,16.67012],[76.63852,16.67201],[76.63888,16.67612],[76.63857,16.67814],[76.63684,16.68199],[76.63685,16.68312],[76.63645,16.68327],[76.63636,16.68473],[76.63579,16.68508],[76.63717,16.68789],[76.63472,16.6956],[76.63196,16.69837],[76.62582,16.6964],[76.62284,16.69479],[76.61993,16.70399],[76.61879,16.70382],[76.61828,16.70754],[76.61566,16.7086],[76.61718,16.71194],[76.61874,16.7138],[76.62058,16.71902],[76.62284,16.74236],[76.62685,16.74404],[76.63514,16.7453],[76.63579,16.74203],[76.63547,16.73517],[76.63317,16.72302],[76.64307,16.72014],[76.65349,16.71447],[76.65859,16.71256],[76.66097,16.71647],[76.65845,16.72493],[76.65748,16.72581],[76.65919,16.72559],[76.65776,16.72773],[76.65774,16.73141],[76.65448,16.73789],[76.65443,16.74243],[76.65382,16.74584],[76.653,16.7476],[76.65267,16.75247],[76.65322,16.7558],[76.65415,16.75738],[76.65781,16.76198],[76.66098,16.76727],[76.67203,16.76561],[76.67563,16.76567],[76.67798,16.77287],[76.67948,16.78141],[76.67955,16.78483],[76.68723,16.78481],[76.69754,16.78591],[76.69921,16.79002],[76.69895,16.79035],[76.7003,16.79072],[76.70269,16.78865],[76.70937,16.79255],[76.7095,16.78898]],[[76.72887,16.77171],[76.725,16.75942],[76.72389,16.75281],[76.72837,16.75201],[76.73886,16.75176],[76.74008,16.75784],[76.74025,16.77003],[76.73912,16.77151],[76.72887,16.77171]]]}},{"type":"Feature","properties":{"unitId":820,"unitName":"Gurmitkal PS"},"geometry":{"type":"MultiPolygon","coordinates":[[[[77.2198,16.94298],[77.22452,16.94274],[77.22686,16.94068],[77.22691,16.94136],[77.23139,16.94346],[77.23137,16.9424],[77.2318,16.94256],[77.2315,16.93823],[77.23412,16.93872],[77.24222,16.94249],[77.24394,16.94121],[77.24492,16.93974],[77.24622,16.93239],[77.24708,16.9334],[77.24878,16.9338],[77.25018,16.93365],[77.25085,16.93273],[77.25255,16.93226],[77.25447,16.93257],[77.25793,16.93043],[77.26014,16.92999],[77.2622,16.92797],[77.26378,16.92841],[77.26582,16.9299],[77.26839,16.92933],[77.26895,16.92833],[77.27343,16.92823],[77.27576,16.93078],[77.28272,16.93367],[77.28797,16.93528],[77.28789,16.93593],[77.28922,16.93723],[77.28927,16.93632],[77.29013,16.93602],[77.29009,16.93544],[77.29114,16.93562],[77.29273,16.93506],[77.29328,16.93333],[77.29387,16.93287],[77.29595,16.93282],[77.29808,16.93207],[77.30083,16.92982],[77.30528,16.92953],[77.3076,16.9289],[77.30753,16.92836],[77.31124,16.92763],[77.31233,16.92852],[77.31275,16.93044],[77.31623,16.93284],[77.31788,16.93539],[77.32062,16.93614],[77.32655,16.93465],[77.33631,16.93054],[77.33656,16.9309],[77.33867,16.93046],[77.34027,16.93136],[77.34092,16.93377],[77.34171,16.93447],[77.34217,16.92885],[77.34348,16.92493],[77.34441,16.9241],[77.34634,16.91967],[77.3467,16.91762],[77.34638,16.91626],[77.3475,16.91455],[77.34891,16.91061],[77.34926,16.91068],[77.3497,16.9087],[77.35158,16.90737],[77.35412,16.90806],[77.35492,16.90663],[77.36467,16.90502],[77.36623,16.90425],[77.36695,16.90186],[77.36854,16.90157],[77.36971,16.89882],[77.37135,16.89718],[77.37158,16.89875],[77.37643,16.89819],[77.37646,16.89525],[77.37815,16.89505],[77.37824,16.89639],[77.38017,16.89655],[77.38135,16.89621],[77.38307,16.89457],[77.38431,16.89647],[77.38449,16.89834],[77.38717,16.89808],[77.38717,16.8972],[77.38859,16.89681],[77.38868,16.89396],[77.38809,16.89384],[77.38758,16.89283],[77.38816,16.8927],[77.38853,16.8911],[77.38919,16.89129],[77.39011,16.89378],[77.39121,16.89475],[77.39114,16.89693],[77.39329,16.8975],[77.3932,16.89968],[77.39358,16.90084],[77.395,16.90143],[77.39511,16.9031],[77.39567,16.9028],[77.39588,16.90356],[77.39756,16.90354],[77.40116,16.90246],[77.40107,16.90165],[77.40008,16.9014],[77.40289,16.90135],[77.40405,16.90013],[77.40383,16.90105],[77.40593,16.90163],[77.40544,16.89877],[77.40464,16.89877],[77.4045,16.89828],[77.40455,16.89687],[77.40181,16.89696],[77.4013,16.8995],[77.39956,16.89892],[77.39995,16.89599],[77.40259,16.89518],[77.40433,16.89527],[77.40182,16.88752],[77.40144,16.88426],[77.40251,16.88393],[77.40119,16.88229],[77.40258,16.88209],[77.40331,16.88067],[77.40919,16.87849],[77.41005,16.8771],[77.4089,16.87558],[77.40968,16.87332],[77.41149,16.87433],[77.4139,16.87665],[77.41541,16.87568],[77.41616,16.87638],[77.41606,16.87752],[77.41753,16.88107],[77.41836,16.88189],[77.42455,16.885],[77.42943,16.8857],[77.43148,16.88517],[77.43318,16.88529],[77.43561,16.88641],[77.4372,16.88588],[77.44768,16.88629],[77.46004,16.88501],[77.46028,16.88077],[77.45955,16.87552],[77.46208,16.8648],[77.46189,16.86121],[77.46251,16.85619],[77.46406,16.85159],[77.46233,16.84439],[77.46071,16.84225],[77.45979,16.83829],[77.46039,16.83624],[77.4613,16.83602],[77.45909,16.83293],[77.45702,16.8313],[77.45884,16.82712],[77.46239,16.82323],[77.46263,16.8178],[77.46205,16.81346],[77.46496,16.81039],[77.46588,16.80872],[77.46599,16.80551],[77.47284,16.80267],[77.47236,16.79401],[77.47575,16.79175],[77.47427,16.78749],[77.4711,16.78427],[77.46731,16.78245],[77.46354,16.78236],[77.44813,16.77823],[77.43888,16.77872],[77.43992,16.77484],[77.44296,16.76923],[77.44674,16.76521],[77.44041,16.75176],[77.43932,16.75183],[77.43723,16.74831],[77.43425,16.74043],[77.43343,16.73697],[77.43243,16.73665],[77.4316,16.73528],[77.4298,16.7351],[77.42946,16.73399],[77.42841,16.73323],[77.42826,16.73087],[77.42709,16.72949],[77.42702,16.72831],[77.42799,16.72697],[77.43026,16.7265],[77.43086,16.72361],[77.42914,16.72285],[77.4259,16.72275],[77.42578,16.72177],[77.42792,16.71639],[77.42222,16.71668],[77.4093,16.71932],[77.40723,16.71114],[77.40632,16.71095],[77.40563,16.70712],[77.40426,16.70612],[77.40414,16.7022],[77.4033,16.70156],[77.40328,16.70054],[77.4025,16.70045],[77.40246,16.69901],[77.39965,16.69964],[77.39427,16.69978],[77.39473,16.70106],[77.39354,16.70266],[77.38012,16.70473],[77.37823,16.70471],[77.37788,16.70302],[77.37533,16.70289],[77.37485,16.7025],[77.3748,16.70144],[77.36671,16.70672],[77.35443,16.71142],[77.35234,16.70654],[77.35169,16.7005],[77.3493,16.70095],[77.34855,16.69634],[77.34512,16.69608],[77.34396,16.69543],[77.34235,16.69608],[77.34021,16.69907],[77.33729,16.69915],[77.33353,16.70095],[77.33295,16.70245],[77.33219,16.70307],[77.33036,16.70342],[77.32664,16.70612],[77.32554,16.70077],[77.32325,16.69585],[77.32199,16.68994],[77.32279,16.68398],[77.32252,16.6828],[77.31776,16.68268],[77.31726,16.6832],[77.31532,16.68227],[77.30812,16.6824],[77.30563,16.6809],[77.29799,16.67982],[77.29681,16.67913],[77.29282,16.68031],[77.29307,16.68159],[77.28944,16.68766],[77.28768,16.69196],[77.28688,16.69199],[77.28662,16.69285],[77.2856,16.69352],[77.2847,16.69353],[77.28552,16.69483],[77.28507,16.69513],[77.28166,16.69449],[77.28027,16.69783],[77.28192,16.701],[77.27773,16.70096],[77.27676,16.70701],[77.27442,16.70977],[77.27377,16.70989],[77.27159,16.71318],[77.26823,16.71455],[77.27079,16.72147],[77.27102,16.72451],[77.27048,16.72674],[77.27253,16.72767],[77.27364,16.73099],[77.27322,16.73249],[77.27201,16.73228],[77.27064,16.73559],[77.27233,16.73572],[77.27273,16.73986],[77.26973,16.74018],[77.26935,16.74414],[77.27275,16.74513],[77.27116,16.74668],[77.27143,16.74832],[77.27208,16.74793],[77.2752,16.75167],[77.27206,16.75284],[77.27241,16.75615],[77.27323,16.75632],[77.27144,16.75758],[77.2714,16.75894],[77.27244,16.76018],[77.27393,16.75974],[77.27417,16.76033],[77.27154,16.76123],[77.2712,16.7627],[77.2706,16.76284],[77.27059,16.76243],[77.2673,16.76447],[77.26731,16.76337],[77.2712,16.7604],[77.27052,16.75924],[77.26954,16.75877],[77.26716,16.75907],[77.26717,16.7596],[77.26068,16.76278],[77.25981,16.7636],[77.25806,16.77209],[77.25939,16.77876],[77.26116,16.78259],[77.26348,16.78415],[77.26304,16.78683],[77.26192,16.78887],[77.26178,16.79095],[77.26007,16.7973],[77.26045,16.80045],[77.25755,16.80102],[77.25626,16.80519],[77.25609,16.81215],[77.25726,16.81214],[77.25699,16.81429],[77.25531,16.81593],[77.25537,16.81916],[77.25434,16.82073],[77.25548,16.82179],[77.25667,16.83058],[77.25751,16.83032],[77.25766,16.84054],[77.25969,16.84729],[77.26104,16.86147],[77.24187,16.86814],[77.24852,16.87887],[77.24605,16.88276],[77.24293,16.883],[77.23645,16.88658],[77.23367,16.88505],[77.23388,16.88262],[77.23252,16.88175],[77.23167,16.8871],[77.23041,16.89097],[77.22662,16.89023],[77.22663,16.88924],[77.22025,16.88846],[77.22001,16.88945],[77.19338,16.88604],[77.17636,16.88784],[77.17108,16.8924],[77.19216,16.91201],[77.19404,16.92856],[77.19201,16.92907],[77.19681,16.9306],[77.19871,16.93377],[77.20085,16.936],[77.20413,16.93664],[77.20462,16.93756],[77.20603,16.93792],[77.20785,16.93752],[77.20837,16.93834],[77.20849,16.94062],[77.20956,16.94104],[77.2093,16.94212],[77.21125,16.9448],[77.21423,16.94324],[77.2198,16.94298]]],[[[77.40836,16.66661],[77.40857,16.6662],[77.4089,16.6664],[77.40956,16.66229],[77.4094,16.65946],[77.41426,16.65787],[77.41739,16.65749],[77.41759,16.65692],[77.41447,16.65095],[77.41289,16.64513],[77.41244,16.64451],[77.41182,16.64468],[77.41169,16.64378],[77.40849,16.64488],[77.40918,16.64767],[77.40672,16.64821],[77.40664,16.6495],[77.40465,16.64939],[77.40374,16.65128],[77.4034,16.65795],[77.40433,16.66131],[77.40423,16.66555],[77.40645,16.66501],[77.40696,16.66689],[77.40836,16.66661]]],[[[77.40939,16.69084],[77.41326,16.69064],[77.41572,16.68148],[77.41285,16.68085],[77.40864,16.68127],[77.40853,16.68261],[77.40899,16.6835],[77.40825,16.68521],[77.40816,16.68714],[77.40716,16.68734],[77.40681,16.69073],[77.40939,16.69084]]]]}},{"type":"Feature","properties":{"unitId":821,"unitName":"Hunsagi PS"},"geometry":{"type":"Polygon","coordinates":[[[76.51937,16.56926],[76.52565,16.56966],[76.52785,16.56931],[76.52928,16.56852],[76.53047,16.56574],[76.53186,16.56428],[76.53112,16.56195],[76.52934,16.56001],[76.52964,16.5585],[76.53029,16.55855],[76.53155,16.5564],[76.53285,16.55775],[76.53381,16.55788],[76.53571,16.55719],[76.53505,16.55693],[76.53502,16.5549],[76.5365,16.55476],[76.53643,16.55144],[76.53714,16.54605],[76.53773,16.54675],[76.54467,16.54637],[76.5441,16.54095],[76.5575,16.53727],[76.56578,16.53643],[76.5665,16.53722],[76.57075,16.53706],[76.57202,16.53824],[76.58309,16.54067],[76.58886,16.54121],[76.58966,16.54242],[76.59178,16.54048],[76.59427,16.53223],[76.59513,16.53065],[76.59712,16.52889],[76.59699,16.52449],[76.59899,16.52449],[76.6007,16.52528],[76.60175,16.5249],[76.60293,16.52161],[76.60533,16.52145],[76.6055,16.521],[76.60645,16.52136],[76.60854,16.51413],[76.61054,16.51305],[76.60943,16.51292],[76.61142,16.50666],[76.61351,16.50389],[76.61604,16.4964],[76.61856,16.49169],[76.62143,16.49053],[76.62967,16.49053],[76.63488,16.49125],[76.63452,16.48367],[76.63353,16.47767],[76.63545,16.47714],[76.63299,16.46769],[76.63111,16.46823],[76.63065,16.46678],[76.62828,16.46729],[76.62716,16.46318],[76.62914,16.46338],[76.62965,16.46163],[76.6225,16.45124],[76.6182,16.45069],[76.61642,16.44963],[76.61363,16.4462],[76.60741,16.44166],[76.60182,16.43479],[76.60084,16.43279],[76.6048,16.43051],[76.59711,16.42856],[76.59666,16.43042],[76.59739,16.43275],[76.59533,16.43244],[76.59436,16.43361],[76.59295,16.43354],[76.59306,16.4356],[76.59133,16.43569],[76.59074,16.43222],[76.58795,16.43306],[76.58888,16.43489],[76.58649,16.43571],[76.58635,16.43373],[76.58189,16.43423],[76.58128,16.42971],[76.5811,16.42927],[76.57972,16.42922],[76.57945,16.42653],[76.57413,16.42599],[76.57425,16.4272],[76.57357,16.42747],[76.57233,16.42708],[76.57014,16.42781],[76.57007,16.4274],[76.56714,16.428],[76.566,16.42886],[76.55767,16.42318],[76.55367,16.42237],[76.54734,16.42278],[76.54536,16.42325],[76.54574,16.42396],[76.54381,16.42434],[76.54372,16.42399],[76.54064,16.42406],[76.54106,16.41988],[76.54315,16.4176],[76.54253,16.41455],[76.54286,16.41375],[76.54368,16.41337],[76.5444,16.41164],[76.54416,16.40984],[76.54556,16.40911],[76.54678,16.40935],[76.54799,16.40696],[76.54879,16.40687],[76.54923,16.40619],[76.54676,16.40352],[76.54243,16.40382],[76.54165,16.40788],[76.53888,16.40761],[76.53967,16.40327],[76.53866,16.40317],[76.53846,16.40249],[76.53674,16.403],[76.53597,16.40387],[76.53391,16.40284],[76.53477,16.39935],[76.54069,16.39654],[76.54137,16.39396],[76.54097,16.3922],[76.54169,16.39211],[76.54108,16.39017],[76.54143,16.38852],[76.54333,16.38778],[76.54313,16.38728],[76.54388,16.38688],[76.54501,16.38377],[76.54061,16.3833],[76.53558,16.38208],[76.5345,16.38024],[76.5346,16.37852],[76.53735,16.37467],[76.53521,16.37384],[76.53163,16.37486],[76.52424,16.37541],[76.52371,16.37291],[76.52318,16.37247],[76.51975,16.37328],[76.51899,16.37289],[76.51766,16.37121],[76.51786,16.36937],[76.51587,16.36815],[76.51279,16.36864],[76.51224,16.36968],[76.50885,16.36886],[76.5078,16.36963],[76.50772,16.37128],[76.50528,16.37144],[76.50456,16.37242],[76.50108,16.37243],[76.49999,16.37317],[76.49534,16.37272],[76.49507,16.37336],[76.4905,16.37299],[76.48325,16.37354],[76.48324,16.3786],[76.48189,16.38177],[76.47869,16.39526],[76.47679,16.41296],[76.4755,16.41488],[76.47093,16.41463],[76.4673,16.41562],[76.46442,16.41706],[76.46092,16.41558],[76.45766,16.41565],[76.45489,16.4167],[76.4521,16.41615],[76.44594,16.41779],[76.44513,16.41875],[76.44385,16.41867],[76.44251,16.41158],[76.44273,16.40938],[76.43817,16.41001],[76.41633,16.40983],[76.40346,16.41064],[76.40408,16.41626],[76.40314,16.42325],[76.40303,16.43185],[76.40308,16.43278],[76.41476,16.43328],[76.43504,16.43576],[76.43246,16.44862],[76.43172,16.4684],[76.43075,16.4739],[76.43066,16.48609],[76.42981,16.4984],[76.43096,16.50287],[76.43144,16.50292],[76.43263,16.50473],[76.43349,16.50973],[76.43418,16.51876],[76.43344,16.51895],[76.43336,16.51994],[76.43185,16.52276],[76.43078,16.52751],[76.44446,16.53164],[76.44447,16.53219],[76.44923,16.53321],[76.44896,16.53523],[76.46903,16.53771],[76.47283,16.53943],[76.47547,16.54178],[76.47936,16.5396],[76.48311,16.53274],[76.48529,16.53076],[76.48625,16.52873],[76.4869,16.52877],[76.48762,16.52734],[76.49029,16.52782],[76.49104,16.52833],[76.49081,16.53055],[76.49153,16.5304],[76.49149,16.53234],[76.49303,16.53365],[76.4919,16.53567],[76.4952,16.54286],[76.49608,16.54832],[76.49679,16.54938],[76.50221,16.55156],[76.49839,16.56453],[76.49997,16.56481],[76.49991,16.56548],[76.50264,16.56587],[76.50284,16.56481],[76.51056,16.56453],[76.51134,16.56845],[76.51229,16.56952],[76.51538,16.57035],[76.51937,16.56926]],[[76.55899,16.44284],[76.55964,16.44172],[76.5606,16.44374],[76.56264,16.44457],[76.56459,16.44341],[76.5662,16.44549],[76.56839,16.44426],[76.57099,16.44162],[76.57216,16.4415],[76.57335,16.44225],[76.57356,16.44133],[76.57634,16.44186],[76.5791,16.44151],[76.57942,16.44047],[76.58158,16.43971],[76.58359,16.44956],[76.58505,16.45342],[76.57048,16.45428],[76.5657,16.45338],[76.56295,16.45178],[76.5598,16.44773],[76.55905,16.4451],[76.55899,16.44284]]]}},{"type":"Feature","properties":{"unitId":822,"unitName":"Kodekal PS"},"geometry":{"type":"MultiPolygon","coordinates":[[[[76.62262,16.4328],[76.62194,16.42534],[76.62358,16.42417],[76.62327,16.42246],[76.61843,16.42158],[76.61559,16.42047],[76.61614,16.41699],[76.61926,16.4109],[76.62044,16.40585],[76.62147,16.40519],[76.62161,16.40421],[76.62624,16.39736],[76.62994,16.39646],[76.6307,16.39427],[76.63179,16.38884],[76.63071,16.3887],[76.63169,16.38356],[76.63205,16.37189],[76.63094,16.37048],[76.62974,16.3703],[76.62949,16.368],[76.62801,16.36744],[76.62863,16.36313],[76.63274,16.35397],[76.62381,16.35008],[76.61297,16.34211],[76.60676,16.34053],[76.59672,16.34041],[76.59016,16.33972],[76.58767,16.33656],[76.58053,16.331],[76.57284,16.33073],[76.56656,16.32971],[76.53917,16.31234],[76.53622,16.30878],[76.52774,16.30801],[76.51747,16.30437],[76.49876,16.30169],[76.50005,16.29915],[76.49118,16.29718],[76.47688,16.2908],[76.4635,16.28106],[76.46335,16.283],[76.45838,16.29237],[76.45839,16.29606],[76.45635,16.29506],[76.45455,16.29598],[76.45188,16.29513],[76.44669,16.29495],[76.44542,16.29763],[76.44469,16.30398],[76.44343,16.30765],[76.43872,16.30669],[76.4317,16.30418],[76.42905,16.30411],[76.42543,16.30318],[76.42295,16.30144],[76.42094,16.30219],[76.41308,16.3025],[76.41186,16.30175],[76.4153,16.29822],[76.42078,16.29571],[76.42747,16.29085],[76.42966,16.28813],[76.43608,16.28619],[76.43812,16.28504],[76.44474,16.28068],[76.44885,16.27739],[76.44986,16.27592],[76.43232,16.26073],[76.42663,16.2592],[76.41909,16.2535],[76.41758,16.25479],[76.41778,16.26274],[76.4171,16.2699],[76.41197,16.27718],[76.41175,16.27891],[76.40929,16.28247],[76.40645,16.28449],[76.40731,16.2875],[76.4061,16.28811],[76.406,16.2902],[76.40904,16.30017],[76.41101,16.30127],[76.4107,16.30238],[76.40518,16.30761],[76.40123,16.3143],[76.39662,16.31267],[76.38589,16.31607],[76.37869,16.31073],[76.37852,16.30945],[76.37484,16.3108],[76.37369,16.31173],[76.36764,16.31044],[76.36837,16.3131],[76.36541,16.32],[76.36373,16.32235],[76.36201,16.3288],[76.36241,16.33428],[76.3614,16.34459],[76.3619,16.35244],[76.3604,16.36006],[76.36085,16.36295],[76.36886,16.36205],[76.38614,16.36239],[76.38574,16.36685],[76.38467,16.36872],[76.38505,16.37199],[76.38558,16.37187],[76.38661,16.37354],[76.38828,16.38082],[76.38927,16.38309],[76.38922,16.38475],[76.39105,16.38499],[76.39116,16.3866],[76.39339,16.39078],[76.39387,16.39352],[76.39496,16.39394],[76.39473,16.39745],[76.39893,16.39773],[76.39954,16.39814],[76.40191,16.4072],[76.40346,16.41064],[76.41633,16.40983],[76.43817,16.41001],[76.44273,16.40938],[76.44251,16.41158],[76.44385,16.41867],[76.44513,16.41875],[76.44594,16.41779],[76.4521,16.41615],[76.45489,16.4167],[76.45766,16.41565],[76.46092,16.41558],[76.46442,16.41706],[76.4673,16.41562],[76.47093,16.41463],[76.4755,16.41488],[76.47679,16.41296],[76.47869,16.39526],[76.48189,16.38177],[76.48324,16.3786],[76.48325,16.37354],[76.4905,16.37299],[76.49507,16.37336],[76.49534,16.37272],[76.49999,16.37317],[76.50108,16.37243],[76.50456,16.37242],[76.50528,16.37144],[76.50772,16.37128],[76.5078,16.36963],[76.50885,16.36886],[76.51224,16.36968],[76.51279,16.36864],[76.51587,16.36815],[76.51786,16.36937],[76.51766,16.37121],[76.51899,16.37289],[76.51975,16.37328],[76.52318,16.37247],[76.52371,16.37291],[76.52424,16.37541],[76.53163,16.37486],[76.53521,16.37384],[76.53735,16.37467],[76.5346,16.37852],[76.5345,16.38024],[76.53558,16.38208],[76.54061,16.3833],[76.54501,16.38377],[76.54388,16.38688],[76.54313,16.38728],[76.54333,16.38778],[76.54143,16.38852],[76.54108,16.39017],[76.54169,16.39211],[76.54097,16.3922],[76.54137,16.39396],[76.54069,16.39654],[76.53477,16.39935],[76.53391,16.40284],[76.53597,16.40387],[76.53674,16.403],[76.53846,16.40249],[76.53866,16.40317],[76.53967,16.40327],[76.53888,16.40761],[76.54165,16.40788],[76.54243,16.40382],[76.54676,16.40352],[76.54923,16.40619],[76.54879,16.40687],[76.54799,16.40696],[76.54678,16.40935],[76.54556,16.40911],[76.54416,16.40984],[76.5444,16.41164],[76.54368,16.41337],[76.54286,16.41375],[76.54253,16.41455],[76.54315,16.4176],[76.54106,16.41988],[76.54064,16.42406],[76.54372,16.42399],[76.54381,16.42434],[76.54574,16.42396],[76.54536,16.42325],[76.54734,16.42278],[76.55367,16.42237],[76.55767,16.42318],[76.566,16.42886],[76.56714,16.428],[76.57007,16.4274],[76.57014,16.42781],[76.57233,16.42708],[76.57357,16.42747],[76.57425,16.4272],[76.57413,16.42599],[76.57945,16.42653],[76.57972,16.42922],[76.5811,16.42927],[76.58128,16.42971],[76.58189,16.43423],[76.58635,16.43373],[76.58649,16.43571],[76.58888,16.43489],[76.58795,16.43306],[76.59074,16.43222],[76.59133,16.43569],[76.59306,16.4356],[76.59295,16.43354],[76.59436,16.43361],[76.59533,16.43244],[76.59739,16.43275],[76.59666,16.43042],[76.59711,16.42856],[76.6048,16.43051],[76.60084,16.43279],[76.60182,16.43479],[76.60741,16.44166],[76.61277,16.44545],[76.61629,16.44951],[76.6182,16.45069],[76.62102,16.4509],[76.62112,16.44559],[76.62256,16.43878],[76.62262,16.4328]]],[[[76.57048,16.45428],[76.58505,16.45342],[76.58359,16.44956],[76.58158,16.43971],[76.57942,16.44047],[76.5791,16.44151],[76.57634,16.44186],[76.57356,16.44133],[76.57335,16.44225],[76.57216,16.4415],[76.57099,16.44162],[76.56839,16.44426],[76.5662,16.44549],[76.56459,16.44341],[76.56264,16.44457],[76.5606,16.44374],[76.55964,16.44172],[76.55882,16.4437],[76.5593,16.44662],[76.5617,16.45035],[76.56295,16.45178],[76.5657,16.45338],[76.57048,16.45428]]]]}},{"type":"Feature","properties":{"unitId":823,"unitName":"Kembhavi PS"},"geometry":{"type":"MultiPolygon","coordinates":[[[[76.62284,16.75222],[76.62284,16.74236],[76.62098,16.72116],[76.62017,16.71724],[76.61874,16.7138],[76.61718,16.71194],[76.61566,16.7086],[76.61828,16.70754],[76.61879,16.70382],[76.61993,16.70399],[76.62284,16.69479],[76.62582,16.6964],[76.63196,16.69837],[76.63472,16.6956],[76.63717,16.68789],[76.63579,16.68508],[76.63636,16.68473],[76.63645,16.68327],[76.63685,16.68312],[76.63684,16.68199],[76.63857,16.67814],[76.63888,16.67612],[76.63852,16.67201],[76.63765,16.67012],[76.63712,16.66725],[76.63469,16.66376],[76.64215,16.66353],[76.64325,16.66201],[76.64309,16.66102],[76.64373,16.66018],[76.64404,16.65677],[76.64495,16.65477],[76.64712,16.65366],[76.64775,16.65434],[76.64882,16.65399],[76.64938,16.6468],[76.64937,16.63277],[76.65312,16.63307],[76.65474,16.63259],[76.65522,16.63123],[76.66001,16.63082],[76.66968,16.62861],[76.67325,16.62868],[76.67369,16.6302],[76.67757,16.6303],[76.67831,16.62996],[76.67969,16.63069],[76.68019,16.63016],[76.68163,16.63052],[76.68165,16.62855],[76.68082,16.6264],[76.68186,16.62598],[76.68235,16.62659],[76.68311,16.62646],[76.68314,16.62445],[76.68372,16.6238],[76.68454,16.62024],[76.68631,16.61679],[76.68708,16.61378],[76.68826,16.61267],[76.689,16.61262],[76.68986,16.60819],[76.69095,16.6074],[76.69166,16.60574],[76.69119,16.59996],[76.693,16.59975],[76.69307,16.59665],[76.69216,16.59548],[76.6908,16.59602],[76.68979,16.59105],[76.68915,16.58995],[76.68863,16.57896],[76.68799,16.57724],[76.68673,16.57784],[76.68657,16.57895],[76.68511,16.57925],[76.67416,16.57856],[76.67395,16.57804],[76.67333,16.578],[76.67329,16.57736],[76.67272,16.57739],[76.67267,16.57925],[76.67223,16.5795],[76.66605,16.57826],[76.66604,16.57479],[76.66551,16.57234],[76.66098,16.57029],[76.65598,16.56875],[76.65505,16.56568],[76.65358,16.5657],[76.65166,16.55854],[76.65155,16.55635],[76.65288,16.54803],[76.65349,16.54687],[76.65413,16.5466],[76.65192,16.54495],[76.64829,16.54398],[76.6476,16.54021],[76.64351,16.53898],[76.64216,16.53882],[76.64062,16.53934],[76.63443,16.53887],[76.62783,16.53756],[76.62662,16.53921],[76.6256,16.54235],[76.61936,16.5526],[76.61946,16.55718],[76.62068,16.55729],[76.61952,16.55959],[76.62073,16.56048],[76.62164,16.56384],[76.62058,16.56575],[76.62049,16.56753],[76.61948,16.5675],[76.61785,16.57309],[76.61671,16.57312],[76.61753,16.57902],[76.61715,16.58145],[76.61375,16.58567],[76.61245,16.58616],[76.59491,16.58797],[76.58399,16.58633],[76.58187,16.58502],[76.5817,16.58348],[76.58117,16.58285],[76.57967,16.58283],[76.57793,16.5789],[76.57903,16.57765],[76.57932,16.57495],[76.58099,16.57361],[76.58152,16.57243],[76.5828,16.57177],[76.58269,16.5701],[76.58348,16.56865],[76.58061,16.56442],[76.58078,16.56345],[76.5819,16.56144],[76.58219,16.56],[76.58183,16.55914],[76.58246,16.55608],[76.58287,16.55497],[76.58353,16.55459],[76.58327,16.55274],[76.5842,16.55069],[76.58659,16.54982],[76.58633,16.54753],[76.58775,16.54522],[76.58796,16.54378],[76.58898,16.54364],[76.58966,16.54242],[76.58886,16.54121],[76.58309,16.54067],[76.57202,16.53824],[76.57075,16.53706],[76.5665,16.53722],[76.56578,16.53643],[76.5575,16.53727],[76.5441,16.54095],[76.54467,16.54637],[76.53773,16.54675],[76.53714,16.54605],[76.53643,16.55144],[76.5365,16.55476],[76.53502,16.5549],[76.53505,16.55693],[76.53571,16.55719],[76.53381,16.55788],[76.53285,16.55775],[76.53155,16.5564],[76.53029,16.55855],[76.52964,16.5585],[76.52934,16.56001],[76.53112,16.56195],[76.53186,16.56428],[76.53047,16.56574],[76.52928,16.56852],[76.52635,16.56959],[76.52326,16.56973],[76.52021,16.56914],[76.51538,16.57035],[76.51151,16.56891],[76.51056,16.56453],[76.50284,16.56481],[76.50264,16.56587],[76.49991,16.56548],[76.49997,16.56481],[76.49839,16.56453],[76.50221,16.55156],[76.49679,16.54938],[76.49608,16.54832],[76.4952,16.54286],[76.4919,16.53567],[76.49303,16.53365],[76.49149,16.53234],[76.49153,16.5304],[76.49081,16.53055],[76.49104,16.52833],[76.49029,16.52782],[76.48762,16.52734],[76.4869,16.52877],[76.48625,16.52873],[76.48529,16.53076],[76.48311,16.53274],[76.47936,16.5396],[76.47547,16.54178],[76.47283,16.53943],[76.46903,16.53771],[76.44896,16.53523],[76.44923,16.53321],[76.44447,16.53219],[76.44446,16.53164],[76.43042,16.52757],[76.42937,16.53131],[76.42866,16.53175],[76.4271,16.54037],[76.4237,16.5475],[76.42401,16.5487],[76.42363,16.55025],[76.42275,16.55096],[76.42167,16.55972],[76.42253,16.55982],[76.42309,16.56508],[76.42403,16.56771],[76.42237,16.56815],[76.42308,16.57356],[76.42148,16.57389],[76.41988,16.58005],[76.41897,16.57978],[76.41837,16.58481],[76.4162,16.59003],[76.41334,16.58983],[76.41381,16.59344],[76.41471,16.5943],[76.41608,16.59816],[76.41606,16.6027],[76.41402,16.60846],[76.41295,16.6087],[76.41008,16.61371],[76.4099,16.6149],[76.4105,16.61509],[76.40887,16.62149],[76.40791,16.6222],[76.40821,16.62282],[76.40757,16.62299],[76.40467,16.62649],[76.40499,16.62719],[76.40423,16.62745],[76.40445,16.63042],[76.40362,16.633],[76.4029,16.64008],[76.40331,16.64413],[76.40629,16.65543],[76.41026,16.66234],[76.41147,16.66339],[76.41411,16.66381],[76.41577,16.66912],[76.41701,16.66884],[76.41796,16.67037],[76.4203,16.67231],[76.4227,16.68017],[76.42666,16.68702],[76.42668,16.68953],[76.42519,16.69406],[76.42572,16.69574],[76.42888,16.69699],[76.42975,16.69639],[76.43051,16.69658],[76.43033,16.69859],[76.43154,16.70109],[76.43627,16.70316],[76.43746,16.70314],[76.44003,16.70683],[76.44048,16.70949],[76.44095,16.70992],[76.44927,16.71166],[76.45273,16.71467],[76.4551,16.71179],[76.45685,16.71084],[76.45844,16.70892],[76.46187,16.70893],[76.46112,16.71113],[76.46686,16.71158],[76.47371,16.71097],[76.47821,16.71118],[76.48085,16.71167],[76.489,16.71632],[76.49209,16.71729],[76.49872,16.72054],[76.49866,16.72138],[76.50314,16.72302],[76.50297,16.72681],[76.50228,16.72693],[76.50212,16.72863],[76.50255,16.73847],[76.50576,16.74172],[76.50631,16.74178],[76.50794,16.74431],[76.50988,16.74537],[76.51117,16.74688],[76.51255,16.7472],[76.51636,16.75061],[76.5232,16.75092],[76.54139,16.74788],[76.54753,16.74733],[76.54894,16.75132],[76.55348,16.75105],[76.55357,16.75305],[76.56241,16.75329],[76.57034,16.75262],[76.57136,16.75616],[76.57486,16.75622],[76.57791,16.75776],[76.58121,16.75828],[76.58137,16.76566],[76.58977,16.76571],[76.59984,16.76716],[76.62371,16.76515],[76.62308,16.75904],[76.6236,16.75819],[76.62346,16.75483],[76.62284,16.75222]]],[[[76.62668,16.53675],[76.62831,16.53338],[76.62817,16.53273],[76.6299,16.53047],[76.62999,16.52855],[76.62801,16.52787],[76.62446,16.52813],[76.62064,16.52204],[76.61934,16.52118],[76.61701,16.51779],[76.61662,16.51476],[76.61565,16.51411],[76.61226,16.51406],[76.61129,16.51314],[76.61054,16.51305],[76.60854,16.51413],[76.60645,16.52136],[76.6055,16.521],[76.60533,16.52145],[76.60293,16.52161],[76.60175,16.5249],[76.6007,16.52528],[76.59899,16.52449],[76.59699,16.52449],[76.59712,16.52889],[76.59513,16.53065],[76.59427,16.53223],[76.59604,16.53214],[76.60474,16.5341],[76.61016,16.53414],[76.61394,16.5354],[76.6175,16.53595],[76.62433,16.53566],[76.62668,16.53675]]],[[[76.65863,16.71266],[76.65349,16.71447],[76.64307,16.72014],[76.63317,16.72302],[76.63547,16.73517],[76.64092,16.73419],[76.64553,16.73272],[76.65845,16.72493],[76.66097,16.71647],[76.65863,16.71266]]]]}},{"type":"Feature","properties":{"unitId":824,"unitName":"Narayanpur PS"},"geometry":{"type":"MultiPolygon","coordinates":[[[[76.39851,16.43479],[76.40328,16.43426],[76.403,16.42531],[76.40408,16.41626],[76.40346,16.41064],[76.40191,16.4072],[76.39954,16.39814],[76.39893,16.39773],[76.39473,16.39745],[76.39496,16.39394],[76.39387,16.39352],[76.39339,16.39078],[76.39116,16.3866],[76.39105,16.38499],[76.38922,16.38475],[76.38927,16.38309],[76.38828,16.38082],[76.38661,16.37354],[76.38558,16.37187],[76.38505,16.37199],[76.38467,16.36872],[76.38574,16.36685],[76.38614,16.36239],[76.36886,16.36205],[76.36085,16.36295],[76.3604,16.36006],[76.3619,16.35244],[76.3614,16.34459],[76.36241,16.33428],[76.36201,16.3288],[76.36373,16.32235],[76.36541,16.32],[76.36837,16.3131],[76.36764,16.31044],[76.37369,16.31173],[76.37484,16.3108],[76.37852,16.30945],[76.37869,16.31073],[76.38589,16.31607],[76.39662,16.31267],[76.40123,16.3143],[76.40518,16.30761],[76.4107,16.30238],[76.41101,16.30127],[76.40904,16.30017],[76.406,16.2902],[76.4061,16.28811],[76.40731,16.2875],[76.40645,16.28449],[76.40929,16.28247],[76.41175,16.27891],[76.41197,16.27718],[76.4171,16.2699],[76.41778,16.26274],[76.41758,16.25479],[76.41909,16.2535],[76.41381,16.25052],[76.41459,16.248],[76.41628,16.246],[76.4161,16.24187],[76.41411,16.2406],[76.40108,16.23952],[76.39776,16.23479],[76.39561,16.22914],[76.38233,16.22275],[76.37383,16.21789],[76.3688,16.21777],[76.36849,16.21394],[76.36292,16.2059],[76.36166,16.20818],[76.35548,16.20653],[76.35358,16.20454],[76.3522,16.20181],[76.35067,16.201],[76.34775,16.19829],[76.34376,16.19727],[76.34271,16.19744],[76.33937,16.19511],[76.33918,16.19547],[76.33542,16.19413],[76.33602,16.19282],[76.33321,16.19194],[76.33009,16.19352],[76.33601,16.20104],[76.33627,16.20195],[76.33896,16.20294],[76.3418,16.20648],[76.34331,16.20938],[76.34469,16.2106],[76.34672,16.21561],[76.34732,16.21868],[76.34696,16.2229],[76.35076,16.22666],[76.35256,16.23461],[76.35015,16.23628],[76.34967,16.23711],[76.35052,16.23756],[76.34978,16.23877],[76.34966,16.24159],[76.3479,16.24427],[76.34752,16.24785],[76.34538,16.24966],[76.34791,16.25655],[76.34852,16.25948],[76.3487,16.26443],[76.34741,16.27053],[76.34749,16.27667],[76.34785,16.27744],[76.34122,16.27731],[76.34176,16.27836],[76.33929,16.27954],[76.33105,16.28019],[76.32059,16.28253],[76.32051,16.2867],[76.31836,16.28705],[76.31037,16.28628],[76.30462,16.28415],[76.29977,16.28319],[76.29861,16.29909],[76.29985,16.30746],[76.30146,16.31134],[76.30272,16.31668],[76.30274,16.31896],[76.30132,16.31928],[76.30098,16.3184],[76.30027,16.3185],[76.29697,16.31947],[76.29668,16.32051],[76.29509,16.32039],[76.2954,16.32172],[76.29533,16.32231],[76.29479,16.32226],[76.29502,16.32446],[76.29229,16.32541],[76.29227,16.32797],[76.2914,16.33162],[76.29194,16.33497],[76.29864,16.33769],[76.29933,16.33849],[76.30039,16.33848],[76.30327,16.34066],[76.30566,16.34267],[76.30511,16.34481],[76.30556,16.3459],[76.30783,16.3459],[76.30913,16.34536],[76.31411,16.34594],[76.31413,16.35381],[76.31372,16.35541],[76.31126,16.36178],[76.30972,16.36177],[76.3079,16.37079],[76.30456,16.37805],[76.30463,16.38042],[76.30756,16.39114],[76.3097,16.39619],[76.3096,16.39717],[76.31079,16.39706],[76.31107,16.39626],[76.31224,16.39594],[76.31366,16.39721],[76.31481,16.39682],[76.31587,16.39595],[76.31605,16.39496],[76.31698,16.39456],[76.32027,16.39762],[76.32155,16.39739],[76.3229,16.39593],[76.3289,16.39737],[76.33205,16.39689],[76.33603,16.40201],[76.33698,16.40552],[76.3366,16.4067],[76.33283,16.40689],[76.33155,16.40766],[76.33049,16.40968],[76.3309,16.41175],[76.33265,16.41408],[76.33337,16.41668],[76.33291,16.42041],[76.33137,16.42522],[76.332,16.42718],[76.35028,16.42708],[76.35331,16.42415],[76.35456,16.42228],[76.3599,16.42261],[76.36876,16.42445],[76.374,16.4248],[76.37598,16.42408],[76.37746,16.42423],[76.3848,16.42574],[76.38787,16.43432],[76.39005,16.43779],[76.39326,16.43595],[76.39851,16.43479]]],[[[76.44366,16.3067],[76.44469,16.30398],[76.44542,16.29763],[76.44669,16.29495],[76.45188,16.29513],[76.45455,16.29598],[76.45635,16.29506],[76.45839,16.29606],[76.45838,16.29237],[76.46335,16.283],[76.46374,16.27809],[76.45862,16.2772],[76.45359,16.2732],[76.45067,16.27447],[76.45051,16.27534],[76.44885,16.27739],[76.44474,16.28068],[76.43608,16.28619],[76.42966,16.28813],[76.42747,16.29085],[76.42078,16.29571],[76.4153,16.29822],[76.41186,16.30175],[76.41417,16.30271],[76.42094,16.30219],[76.42295,16.30144],[76.42543,16.30318],[76.42905,16.30411],[76.4317,16.30418],[76.43872,16.30669],[76.44343,16.30765],[76.44366,16.3067]]]]}},{"type":"Feature","properties":{"unitId":825,"unitName":"Saidapur PS"},"geometry":{"type":"Polygon","coordinates":[[[77.4488,16.72005],[77.45148,16.71943],[77.45626,16.71628],[77.45885,16.71633],[77.46082,16.71842],[77.46259,16.7179],[77.46359,16.71906],[77.46487,16.7184],[77.46521,16.71875],[77.46954,16.71776],[77.4735,16.71574],[77.4711,16.70941],[77.47145,16.70567],[77.47043,16.70576],[77.47026,16.70511],[77.46977,16.70067],[77.4704,16.69968],[77.46891,16.69961],[77.46976,16.69842],[77.46979,16.6968],[77.46934,16.69303],[77.46834,16.69298],[77.46824,16.69209],[77.46925,16.69129],[77.46867,16.68972],[77.46895,16.68917],[77.46829,16.68719],[77.46816,16.68448],[77.46484,16.67964],[77.4638,16.67665],[77.45506,16.67884],[77.44764,16.67907],[77.44698,16.67862],[77.44706,16.67801],[77.44646,16.67777],[77.44606,16.67663],[77.44396,16.67591],[77.4421,16.67117],[77.44249,16.66943],[77.43544,16.67052],[77.43355,16.67024],[77.42907,16.66826],[77.42477,16.66751],[77.42211,16.66758],[77.41859,16.66855],[77.4191,16.66423],[77.41838,16.65815],[77.41934,16.65794],[77.41883,16.65735],[77.41916,16.65727],[77.42127,16.65795],[77.42696,16.65613],[77.42949,16.65587],[77.42994,16.65636],[77.43051,16.65454],[77.43221,16.65437],[77.4323,16.65326],[77.43307,16.65298],[77.43214,16.65234],[77.43213,16.65154],[77.43452,16.65016],[77.44007,16.64552],[77.43953,16.64439],[77.43866,16.64503],[77.43835,16.64408],[77.43769,16.64412],[77.43751,16.64368],[77.43594,16.6441],[77.43419,16.64356],[77.43391,16.6424],[77.43472,16.64117],[77.44163,16.64094],[77.44272,16.64043],[77.44333,16.64183],[77.44468,16.64177],[77.44405,16.64012],[77.44516,16.6401],[77.44822,16.64279],[77.45049,16.64273],[77.4527,16.64526],[77.45631,16.64713],[77.45649,16.64814],[77.45701,16.64813],[77.45698,16.64969],[77.45999,16.64997],[77.46117,16.65066],[77.46349,16.65483],[77.46556,16.65322],[77.47244,16.65226],[77.4728,16.6471],[77.4739,16.64545],[77.47349,16.6447],[77.47129,16.64416],[77.47125,16.64352],[77.47203,16.64268],[77.47176,16.64192],[77.46928,16.6388],[77.4688,16.6366],[77.46495,16.63341],[77.46467,16.62975],[77.46264,16.62647],[77.46096,16.62698],[77.45996,16.62612],[77.46011,16.62552],[77.45913,16.62547],[77.45709,16.62294],[77.4555,16.62265],[77.45501,16.62192],[77.45582,16.61929],[77.45465,16.61823],[77.45436,16.61649],[77.45903,16.61328],[77.46076,16.61099],[77.46806,16.60884],[77.46804,16.6079],[77.46758,16.60782],[77.46771,16.60656],[77.46842,16.60639],[77.46832,16.60553],[77.46683,16.60042],[77.4671,16.59918],[77.46366,16.59948],[77.46241,16.5965],[77.46514,16.59377],[77.46516,16.59016],[77.46387,16.58632],[77.46125,16.583],[77.46033,16.58369],[77.46085,16.58471],[77.45883,16.58518],[77.45629,16.58499],[77.43951,16.58704],[77.43419,16.58188],[77.43087,16.57786],[77.42857,16.57243],[77.42645,16.57183],[77.42325,16.56832],[77.41498,16.56709],[77.41495,16.56579],[77.41269,16.56924],[77.41024,16.57085],[77.40758,16.57142],[77.40404,16.57106],[77.40182,16.56945],[77.4011,16.56826],[77.3993,16.56738],[77.39494,16.5697],[77.39255,16.56969],[77.39215,16.56366],[77.39707,16.56411],[77.39786,16.55942],[77.39904,16.5589],[77.39957,16.55523],[77.40375,16.55379],[77.40358,16.55088],[77.40894,16.54993],[77.40893,16.54933],[77.41014,16.54928],[77.41014,16.54855],[77.41598,16.54883],[77.41815,16.5485],[77.41813,16.54652],[77.41871,16.54638],[77.41903,16.54564],[77.41878,16.54224],[77.4196,16.53918],[77.41929,16.53574],[77.41799,16.53393],[77.4171,16.52549],[77.41754,16.52484],[77.41696,16.52455],[77.41784,16.52427],[77.41797,16.52279],[77.41627,16.51756],[77.4124,16.51923],[77.41165,16.51898],[77.4095,16.52037],[77.40177,16.52143],[77.3995,16.52073],[77.39804,16.52082],[77.39516,16.51975],[77.39361,16.51895],[77.39079,16.516],[77.3815,16.51545],[77.37723,16.51389],[77.37277,16.5099],[77.37197,16.50275],[77.36952,16.49276],[77.36918,16.48808],[77.35839,16.48912],[77.35417,16.48858],[77.35187,16.49065],[77.34623,16.49021],[77.34611,16.48791],[77.34401,16.4877],[77.34408,16.48664],[77.34236,16.48627],[77.32437,16.48676],[77.32454,16.49118],[77.31157,16.49456],[77.29802,16.49626],[77.29922,16.49171],[77.29908,16.48902],[77.29792,16.48608],[77.29484,16.4816],[77.29404,16.47669],[77.2836,16.4761],[77.2763,16.47392],[77.27096,16.47343],[77.26373,16.47334],[77.25334,16.47516],[77.25084,16.47562],[77.25089,16.47698],[77.24635,16.47777],[77.24,16.47642],[77.23857,16.47377],[77.23567,16.47254],[77.23319,16.47797],[77.23317,16.48327],[77.23461,16.48924],[77.2343,16.49138],[77.23285,16.49354],[77.23039,16.49511],[77.22195,16.4976],[77.21019,16.49721],[77.20422,16.50317],[77.20175,16.50808],[77.19993,16.50748],[77.19718,16.51338],[77.1962,16.51638],[77.1955,16.52094],[77.19659,16.52547],[77.19831,16.52506],[77.20068,16.53686],[77.20066,16.54126],[77.19902,16.54416],[77.19657,16.54673],[77.19333,16.54784],[77.18932,16.54827],[77.17996,16.5479],[77.17752,16.54872],[77.17578,16.55004],[77.17162,16.55933],[77.17005,16.56402],[77.169,16.56896],[77.16828,16.58058],[77.16628,16.5873],[77.16481,16.59611],[77.16508,16.59952],[77.16627,16.60239],[77.17168,16.60986],[77.18082,16.61989],[77.20931,16.61482],[77.21294,16.6144],[77.21499,16.61585],[77.22048,16.6132],[77.23088,16.61207],[77.23205,16.61762],[77.22963,16.61838],[77.22992,16.61897],[77.22751,16.62133],[77.22308,16.62917],[77.22097,16.62984],[77.22029,16.63065],[77.22007,16.63151],[77.22155,16.6328],[77.22172,16.63464],[77.22084,16.63461],[77.22062,16.63551],[77.22222,16.63692],[77.22356,16.63708],[77.22436,16.63982],[77.22492,16.63964],[77.22588,16.6404],[77.22958,16.64462],[77.23067,16.65116],[77.23153,16.66463],[77.23247,16.66931],[77.23129,16.67007],[77.23233,16.67424],[77.23072,16.67431],[77.23147,16.67568],[77.23055,16.67847],[77.23179,16.68309],[77.23268,16.68301],[77.2329,16.68401],[77.23404,16.68376],[77.23491,16.6856],[77.23415,16.68619],[77.23423,16.68827],[77.23585,16.69274],[77.23783,16.69216],[77.23832,16.69637],[77.24236,16.69513],[77.24264,16.69621],[77.24643,16.69564],[77.24666,16.70064],[77.24513,16.70691],[77.25041,16.70919],[77.25446,16.70979],[77.25891,16.71117],[77.26199,16.713],[77.26242,16.71543],[77.26706,16.71531],[77.27159,16.71318],[77.27377,16.70989],[77.27442,16.70977],[77.27676,16.70701],[77.27773,16.70096],[77.28192,16.701],[77.28027,16.69783],[77.28166,16.69449],[77.28507,16.69513],[77.28552,16.69483],[77.2847,16.69353],[77.2856,16.69352],[77.28662,16.69285],[77.28688,16.69199],[77.28768,16.69196],[77.28944,16.68766],[77.29307,16.68159],[77.29282,16.68031],[77.29681,16.67913],[77.29799,16.67982],[77.30563,16.6809],[77.30812,16.6824],[77.31532,16.68227],[77.31726,16.6832],[77.31776,16.68268],[77.32252,16.6828],[77.32279,16.68398],[77.32199,16.68994],[77.32325,16.69585],[77.32554,16.70077],[77.32664,16.70612],[77.33036,16.70342],[77.33219,16.70307],[77.33295,16.70245],[77.33353,16.70095],[77.33729,16.69915],[77.34021,16.69907],[77.34235,16.69608],[77.34396,16.69543],[77.34512,16.69608],[77.34855,16.69634],[77.3493,16.70095],[77.35169,16.7005],[77.35234,16.70654],[77.35443,16.71142],[77.36671,16.70672],[77.3748,16.70144],[77.37485,16.7025],[77.37533,16.70289],[77.37788,16.70302],[77.37823,16.70471],[77.38012,16.70473],[77.39354,16.70266],[77.39473,16.70106],[77.39427,16.69978],[77.39965,16.69964],[77.40246,16.69901],[77.4025,16.70045],[77.40328,16.70054],[77.4033,16.70156],[77.40414,16.7022],[77.40426,16.70612],[77.40563,16.70712],[77.40632,16.71095],[77.40723,16.71114],[77.4093,16.71932],[77.42534,16.71631],[77.42792,16.71639],[77.428,16.71707],[77.43171,16.71673],[77.43221,16.71727],[77.43308,16.71719],[77.43557,16.71302],[77.43665,16.71206],[77.43851,16.71168],[77.43948,16.71341],[77.44115,16.71255],[77.4417,16.71673],[77.44365,16.71632],[77.44433,16.71935],[77.44524,16.71906],[77.44586,16.72216],[77.44674,16.72106],[77.4488,16.72005]],[[77.40662,16.66562],[77.40645,16.66501],[77.40423,16.66555],[77.40433,16.66131],[77.4034,16.65795],[77.40374,16.65128],[77.40465,16.64939],[77.40664,16.6495],[77.40672,16.64821],[77.40918,16.64767],[77.40849,16.64488],[77.41169,16.64378],[77.41182,16.64468],[77.41244,16.64451],[77.41289,16.64513],[77.41447,16.65095],[77.41759,16.65692],[77.41739,16.65749],[77.41426,16.65787],[77.4094,16.65946],[77.40956,16.66229],[77.4089,16.6664],[77.40696,16.66689],[77.40662,16.66562]],[[77.40839,16.69083],[77.40681,16.69073],[77.40716,16.68734],[77.40816,16.68714],[77.40825,16.68521],[77.40899,16.6835],[77.40853,16.68261],[77.40864,16.68127],[77.41285,16.68085],[77.41572,16.68148],[77.41326,16.69064],[77.40839,16.69083]]]}},{"type":"Feature","properties":{"unitId":826,"unitName":"Shahapur PS"},"geometry":{"type":"Polygon","coordinates":[[[76.94921,16.82956],[76.95421,16.82461],[76.95914,16.82157],[76.97022,16.81693],[76.98232,16.80984],[76.99506,16.81338],[76.99974,16.81342],[77.00169,16.81264],[77.00299,16.80646],[77.00439,16.80409],[77.0104,16.79935],[77.01399,16.79749],[77.02232,16.79486],[77.02696,16.79115],[77.03371,16.78286],[77.03582,16.78196],[77.04434,16.78],[77.04763,16.77812],[77.05269,16.77337],[77.05677,16.76534],[77.04738,16.76195],[77.04256,16.76079],[77.03872,16.76005],[77.03271,16.76013],[77.03036,16.75494],[77.02763,16.7507],[77.02538,16.75057],[77.02486,16.74943],[77.02395,16.74985],[77.02285,16.74958],[77.02182,16.74543],[77.01926,16.74325],[77.01906,16.74152],[77.01855,16.74138],[77.01896,16.74029],[77.01843,16.73844],[77.01364,16.73814],[77.01089,16.73936],[77.00908,16.73939],[77.00506,16.7405],[76.99749,16.74048],[76.99663,16.73532],[76.99484,16.72977],[76.99251,16.73046],[76.99016,16.73198],[76.97589,16.73213],[76.97112,16.73083],[76.96761,16.73103],[76.95941,16.73048],[76.95944,16.72681],[76.9586,16.7212],[76.95923,16.72021],[76.95839,16.71254],[76.95662,16.71045],[76.95497,16.70973],[76.95346,16.70812],[76.95265,16.70557],[76.95315,16.70324],[76.95597,16.69693],[76.95658,16.69315],[76.95684,16.68946],[76.95534,16.68024],[76.96633,16.67831],[76.96809,16.67673],[76.96803,16.67473],[76.97283,16.67203],[76.97281,16.67137],[76.97526,16.67009],[76.9785,16.66713],[76.98151,16.66542],[76.99196,16.66198],[76.99071,16.65801],[76.99171,16.65388],[76.9916,16.65165],[76.98825,16.64631],[76.98528,16.64428],[76.98423,16.64283],[76.98102,16.64417],[76.97919,16.64399],[76.97331,16.64488],[76.96848,16.64661],[76.96281,16.64783],[76.96185,16.64609],[76.96043,16.63826],[76.96066,16.63583],[76.9579,16.63447],[76.95491,16.63492],[76.95119,16.63479],[76.95053,16.63028],[76.94715,16.63023],[76.94932,16.62081],[76.95525,16.60481],[76.98565,16.60544],[76.98578,16.60512],[76.98545,16.60133],[76.9862,16.59868],[76.98705,16.59783],[76.9856,16.596],[76.98414,16.595],[76.98419,16.5926],[76.98345,16.59045],[76.97968,16.58508],[76.9794,16.58434],[76.97979,16.58108],[76.97754,16.57963],[76.97627,16.57691],[76.97348,16.57593],[76.97267,16.57502],[76.97085,16.57627],[76.96902,16.57664],[76.96586,16.57304],[76.96625,16.57163],[76.9682,16.57176],[76.97066,16.5711],[76.97354,16.56818],[76.97454,16.56648],[76.97586,16.56537],[76.97918,16.55727],[76.97404,16.55498],[76.97086,16.55275],[76.96909,16.54992],[76.96873,16.54255],[76.97457,16.5268],[76.97549,16.51946],[76.97528,16.51571],[76.97395,16.51115],[76.97162,16.50866],[76.96732,16.50553],[76.9594,16.5022],[76.95461,16.50123],[76.94631,16.49847],[76.94105,16.49777],[76.94105,16.4941],[76.92864,16.49223],[76.92641,16.49134],[76.92561,16.49312],[76.91745,16.48973],[76.90717,16.4875],[76.90163,16.48726],[76.8934,16.48952],[76.88496,16.49255],[76.87961,16.49229],[76.87929,16.49361],[76.87944,16.50708],[76.87802,16.51632],[76.87751,16.52738],[76.87499,16.52753],[76.87372,16.52712],[76.86766,16.52774],[76.8589,16.53068],[76.851,16.53158],[76.85103,16.53662],[76.84962,16.54354],[76.84822,16.55762],[76.84291,16.55794],[76.84303,16.55965],[76.84037,16.55992],[76.82991,16.56278],[76.82133,16.56628],[76.82215,16.56996],[76.82051,16.56895],[76.8186,16.56898],[76.81773,16.56851],[76.81576,16.56928],[76.81361,16.56839],[76.81186,16.56861],[76.80591,16.56668],[76.80203,16.5664],[76.80069,16.57573],[76.79301,16.57723],[76.79066,16.57905],[76.78851,16.58315],[76.78208,16.58903],[76.77131,16.59532],[76.7689,16.59614],[76.77183,16.59959],[76.7715,16.60143],[76.77202,16.60286],[76.77531,16.60866],[76.77764,16.61049],[76.78143,16.61231],[76.78404,16.61418],[76.78421,16.61745],[76.78838,16.61772],[76.79026,16.62765],[76.79001,16.62824],[76.78693,16.62838],[76.7871,16.62985],[76.78644,16.63006],[76.78656,16.63104],[76.78822,16.63865],[76.79181,16.64624],[76.79598,16.65659],[76.79632,16.65941],[76.79676,16.65958],[76.79579,16.68223],[76.79748,16.6822],[76.79919,16.68674],[76.80567,16.6996],[76.80956,16.70852],[76.80917,16.71412],[76.80947,16.71624],[76.8113,16.72084],[76.81394,16.73169],[76.81437,16.73709],[76.81765,16.73687],[76.83029,16.73448],[76.83274,16.73486],[76.83443,16.73792],[76.83786,16.73995],[76.83831,16.74455],[76.83723,16.74465],[76.83666,16.74845],[76.83497,16.75171],[76.83417,16.75462],[76.84029,16.75491],[76.84036,16.75948],[76.85712,16.75937],[76.86154,16.75895],[76.8615,16.75167],[76.86576,16.75088],[76.87569,16.75071],[76.88026,16.75003],[76.88143,16.76369],[76.89156,16.76527],[76.90454,16.76623],[76.90825,16.76747],[76.91622,16.7675],[76.91744,16.77697],[76.9185,16.78136],[76.91995,16.78129],[76.93874,16.78494],[76.93953,16.79257],[76.94067,16.79986],[76.94188,16.80366],[76.9433,16.81491],[76.94479,16.81477],[76.9462,16.82553],[76.94667,16.82705],[76.94781,16.82681],[76.94833,16.82984],[76.94921,16.82956]]]}},{"type":"Feature","properties":{"unitId":827,"unitName":"Shorapur PS"},"geometry":{"type":"Polygon","coordinates":[[[76.7105,16.61156],[76.71723,16.61137],[76.7198,16.60987],[76.72444,16.61024],[76.7309,16.60768],[76.73342,16.60733],[76.7392,16.6076],[76.73883,16.60907],[76.74076,16.60935],[76.74283,16.61075],[76.74929,16.61026],[76.75257,16.61094],[76.75316,16.60566],[76.75418,16.6032],[76.75365,16.60231],[76.75421,16.59804],[76.75514,16.59645],[76.75614,16.59195],[76.76245,16.59329],[76.7634,16.59468],[76.76432,16.5945],[76.76425,16.59502],[76.76474,16.59461],[76.76839,16.59452],[76.76787,16.59598],[76.7689,16.59614],[76.77131,16.59532],[76.78208,16.58903],[76.78851,16.58315],[76.79066,16.57905],[76.79301,16.57723],[76.80069,16.57573],[76.80203,16.5664],[76.80591,16.56668],[76.81186,16.56861],[76.81361,16.56839],[76.81576,16.56928],[76.81773,16.56851],[76.8186,16.56898],[76.82051,16.56895],[76.82215,16.56996],[76.82133,16.56628],[76.82991,16.56278],[76.84037,16.55992],[76.84303,16.55965],[76.84291,16.55794],[76.84822,16.55762],[76.84962,16.54354],[76.85103,16.53662],[76.851,16.53158],[76.8589,16.53068],[76.86766,16.52774],[76.87372,16.52712],[76.87499,16.52753],[76.87751,16.52738],[76.87802,16.51632],[76.87944,16.50708],[76.87929,16.49361],[76.87961,16.49229],[76.87246,16.49046],[76.86844,16.48714],[76.86449,16.48306],[76.8635,16.4756],[76.86558,16.46053],[76.86347,16.45403],[76.85462,16.44266],[76.85819,16.4409],[76.85418,16.43916],[76.85089,16.43514],[76.84812,16.43262],[76.84159,16.42824],[76.84037,16.42996],[76.82501,16.42518],[76.82517,16.42446],[76.82301,16.424],[76.81432,16.42283],[76.80271,16.42209],[76.79037,16.42028],[76.79028,16.41824],[76.78931,16.41745],[76.78858,16.41759],[76.78869,16.41684],[76.77934,16.41653],[76.7752,16.41762],[76.77133,16.42003],[76.76019,16.42246],[76.75498,16.42003],[76.74835,16.412],[76.7457,16.40941],[76.74151,16.40662],[76.73546,16.40387],[76.73214,16.40287],[76.72258,16.39781],[76.71752,16.39578],[76.71881,16.39241],[76.70706,16.38943],[76.70281,16.38791],[76.68531,16.37868],[76.68117,16.37745],[76.68092,16.37847],[76.66549,16.37335],[76.65878,16.36972],[76.65525,16.36538],[76.6504,16.36084],[76.64903,16.35836],[76.64614,16.35592],[76.64185,16.3544],[76.63997,16.35534],[76.63274,16.35397],[76.62863,16.36313],[76.62801,16.36744],[76.62949,16.368],[76.62974,16.3703],[76.63094,16.37048],[76.63205,16.37189],[76.63169,16.38356],[76.63071,16.3887],[76.63179,16.38884],[76.6307,16.39427],[76.62994,16.39646],[76.62624,16.39736],[76.62161,16.40421],[76.62147,16.40519],[76.62044,16.40585],[76.61926,16.4109],[76.61614,16.41699],[76.61559,16.42047],[76.61843,16.42158],[76.62327,16.42246],[76.62358,16.423],[76.62333,16.42468],[76.62194,16.42534],[76.62267,16.43698],[76.62245,16.43995],[76.62112,16.44559],[76.62084,16.44986],[76.62102,16.4509],[76.6225,16.45124],[76.62965,16.46163],[76.62914,16.46338],[76.62716,16.46318],[76.62828,16.46729],[76.63065,16.46678],[76.63111,16.46823],[76.63299,16.46769],[76.63333,16.46861],[76.63545,16.47714],[76.63353,16.47767],[76.63452,16.48367],[76.63488,16.49125],[76.62967,16.49053],[76.62143,16.49053],[76.61856,16.49169],[76.61604,16.4964],[76.61351,16.50389],[76.61142,16.50666],[76.60943,16.51292],[76.61159,16.51319],[76.61226,16.51406],[76.61565,16.51411],[76.61662,16.51476],[76.61701,16.51779],[76.61934,16.52118],[76.62064,16.52204],[76.62446,16.52813],[76.62721,16.52781],[76.62941,16.52829],[76.62999,16.52855],[76.6299,16.53047],[76.62817,16.53273],[76.62831,16.53338],[76.62662,16.53691],[76.62433,16.53566],[76.6175,16.53595],[76.61394,16.5354],[76.61016,16.53414],[76.60474,16.5341],[76.59604,16.53214],[76.59427,16.53223],[76.59178,16.54048],[76.58979,16.54221],[76.58898,16.54364],[76.58796,16.54378],[76.58775,16.54522],[76.58633,16.54753],[76.58659,16.54982],[76.5842,16.55069],[76.58327,16.55274],[76.5836,16.55429],[76.58246,16.55608],[76.58183,16.55914],[76.58219,16.56],[76.5819,16.56144],[76.58061,16.56442],[76.58352,16.56905],[76.58269,16.5701],[76.5828,16.57177],[76.58152,16.57243],[76.58099,16.57361],[76.57932,16.57495],[76.57903,16.57765],[76.57796,16.57902],[76.57967,16.58283],[76.58117,16.58285],[76.5817,16.58348],[76.58187,16.58502],[76.58399,16.58633],[76.58734,16.58696],[76.59491,16.58797],[76.60145,16.58754],[76.60774,16.58647],[76.6111,16.58651],[76.61375,16.58567],[76.61715,16.58145],[76.61753,16.57902],[76.61671,16.57312],[76.61785,16.57309],[76.61948,16.5675],[76.62049,16.56753],[76.62058,16.56575],[76.62164,16.56384],[76.62073,16.56048],[76.61952,16.55959],[76.62068,16.55729],[76.61946,16.55718],[76.61936,16.5526],[76.6256,16.54235],[76.62662,16.53921],[76.62783,16.53756],[76.63443,16.53887],[76.64062,16.53934],[76.64216,16.53882],[76.64351,16.53898],[76.6476,16.54021],[76.64829,16.54398],[76.65192,16.54495],[76.65413,16.5466],[76.65349,16.54687],[76.65288,16.54803],[76.65155,16.55635],[76.65166,16.55854],[76.65358,16.5657],[76.65505,16.56568],[76.65598,16.56875],[76.66098,16.57029],[76.66551,16.57234],[76.66604,16.57479],[76.66605,16.57826],[76.67223,16.5795],[76.67267,16.57925],[76.67272,16.57739],[76.67329,16.57736],[76.67333,16.578],[76.67395,16.57804],[76.67416,16.57856],[76.68511,16.57925],[76.68657,16.57895],[76.68673,16.57784],[76.68799,16.57724],[76.68863,16.57896],[76.68915,16.58995],[76.68979,16.59105],[76.6908,16.59602],[76.69216,16.59548],[76.69307,16.59665],[76.693,16.59975],[76.69119,16.59996],[76.69162,16.60573],[76.69593,16.60683],[76.70055,16.60685],[76.70265,16.60624],[76.71003,16.61183],[76.7105,16.61156]]]}},{"type":"Feature","properties":{"unitId":828,"unitName":"Wadagera PS"},"geometry":{"type":"Polygon","coordinates":[[[77.05773,16.76352],[77.06097,16.75403],[77.06382,16.75166],[77.07369,16.74538],[77.07896,16.74442],[77.1016,16.74339],[77.10955,16.74153],[77.11696,16.73912],[77.12416,16.73646],[77.12822,16.73421],[77.13217,16.7303],[77.13493,16.72503],[77.13794,16.72153],[77.14047,16.71747],[77.14521,16.71211],[77.14815,16.70467],[77.14993,16.70499],[77.15085,16.70077],[77.1495,16.70044],[77.15263,16.68901],[77.15294,16.68507],[77.15179,16.68192],[77.14196,16.6756],[77.13704,16.67139],[77.13204,16.66313],[77.13072,16.65522],[77.13184,16.64978],[77.13513,16.6449],[77.13829,16.6423],[77.14477,16.64125],[77.14724,16.64241],[77.14994,16.64492],[77.15267,16.64662],[77.15599,16.64717],[77.16067,16.64662],[77.16302,16.64477],[77.16551,16.64152],[77.16719,16.63761],[77.17125,16.63174],[77.17952,16.62588],[77.18076,16.62286],[77.18082,16.61989],[77.17168,16.60986],[77.16627,16.60239],[77.16508,16.59952],[77.16481,16.59611],[77.16628,16.5873],[77.16828,16.58058],[77.169,16.56896],[77.17005,16.56402],[77.17469,16.55227],[77.17578,16.55004],[77.17752,16.54872],[77.17996,16.5479],[77.18932,16.54827],[77.19333,16.54784],[77.19657,16.54673],[77.19902,16.54416],[77.20066,16.54126],[77.20068,16.53686],[77.19831,16.52506],[77.19659,16.52547],[77.1955,16.52094],[77.1962,16.51638],[77.19718,16.51338],[77.19993,16.50748],[77.20175,16.50808],[77.20422,16.50317],[77.21019,16.49721],[77.22195,16.4976],[77.23039,16.49511],[77.23285,16.49354],[77.2343,16.49138],[77.23461,16.48924],[77.23317,16.48327],[77.23319,16.47797],[77.23567,16.47254],[77.23813,16.47349],[77.2513,16.46157],[77.25857,16.4567],[77.26577,16.44912],[77.26886,16.44243],[77.27181,16.43294],[77.27757,16.42702],[77.28207,16.42108],[77.28978,16.41288],[77.29054,16.41274],[77.2897,16.40862],[77.289,16.40872],[77.2895,16.40761],[77.28879,16.40801],[77.28872,16.40762],[77.28949,16.40757],[77.28841,16.4022],[77.28585,16.40215],[77.28644,16.40138],[77.28586,16.40126],[77.28545,16.40218],[77.28492,16.40196],[77.28509,16.40114],[77.28406,16.40044],[77.26761,16.39643],[77.2703,16.40268],[77.2696,16.40581],[77.26529,16.40579],[77.26016,16.40952],[77.25824,16.41185],[77.25592,16.41247],[77.24992,16.41584],[77.22449,16.42153],[77.2239,16.42243],[77.20007,16.42383],[77.18679,16.42367],[77.18178,16.42438],[77.17677,16.42629],[77.17439,16.42817],[77.17253,16.42884],[77.17387,16.43014],[77.1716,16.43268],[77.16089,16.44194],[77.16042,16.44476],[77.15971,16.44607],[77.15921,16.44594],[77.15873,16.44729],[77.15796,16.45536],[77.16001,16.45532],[77.15863,16.46586],[77.15319,16.47467],[77.14822,16.47719],[77.1408,16.47867],[77.1311,16.48228],[77.11134,16.4847],[77.10598,16.4869],[77.09383,16.4958],[77.08281,16.50143],[77.07143,16.50621],[77.07058,16.50478],[77.06666,16.50844],[77.0544,16.51719],[77.05105,16.51745],[77.04311,16.51264],[77.04057,16.51213],[77.03061,16.50277],[77.0309,16.50249],[77.02829,16.49977],[77.026,16.49868],[77.02576,16.49902],[77.02383,16.49781],[77.02121,16.49801],[77.02043,16.4974],[77.01705,16.49761],[77.0169,16.49726],[77.00993,16.49959],[77.00914,16.50103],[77.00791,16.5009],[77.00965,16.50344],[77.00678,16.50777],[77.00371,16.51368],[77.00519,16.52614],[77.00811,16.53656],[77.0081,16.5428],[77.00703,16.54814],[77.00359,16.55224],[76.99515,16.55705],[76.99156,16.55828],[76.99099,16.55578],[76.98795,16.55667],[76.98229,16.55642],[76.97918,16.55727],[76.97586,16.56537],[76.97454,16.56648],[76.97354,16.56818],[76.97066,16.5711],[76.9682,16.57176],[76.96625,16.57163],[76.96591,16.57208],[76.96586,16.57304],[76.96662,16.57423],[76.96902,16.57664],[76.97085,16.57627],[76.97267,16.57502],[76.97348,16.57593],[76.97658,16.57714],[76.97754,16.57963],[76.97979,16.58108],[76.9794,16.58434],[76.97968,16.58508],[76.98345,16.59045],[76.98419,16.5926],[76.98414,16.595],[76.9856,16.596],[76.98705,16.59783],[76.9862,16.59868],[76.98545,16.60133],[76.98565,16.60544],[76.95525,16.60481],[76.94932,16.62081],[76.94715,16.63023],[76.95053,16.63028],[76.95119,16.63479],[76.95491,16.63492],[76.9579,16.63447],[76.96066,16.63583],[76.96043,16.63826],[76.96185,16.64609],[76.96281,16.64783],[76.96848,16.64661],[76.97331,16.64488],[76.97919,16.64399],[76.98102,16.64417],[76.98423,16.64283],[76.98528,16.64428],[76.98825,16.64631],[76.9916,16.65165],[76.99171,16.65388],[76.99071,16.65801],[76.99196,16.66198],[76.98151,16.66542],[76.9785,16.66713],[76.97526,16.67009],[76.97281,16.67137],[76.97283,16.67203],[76.96803,16.67473],[76.96809,16.67673],[76.96633,16.67831],[76.95534,16.68024],[76.95684,16.68946],[76.95658,16.69315],[76.95597,16.69693],[76.95315,16.70324],[76.95265,16.70557],[76.95346,16.70812],[76.95497,16.70973],[76.95662,16.71045],[76.95839,16.71254],[76.95923,16.72021],[76.9586,16.7212],[76.95944,16.72681],[76.95941,16.73048],[76.96761,16.73103],[76.97112,16.73083],[76.97589,16.73213],[76.99016,16.73198],[76.99251,16.73046],[76.99484,16.72977],[76.99663,16.73532],[76.99749,16.74048],[77.00506,16.7405],[77.00908,16.73939],[77.01089,16.73936],[77.01364,16.73814],[77.01843,16.73844],[77.01896,16.74029],[77.01855,16.74138],[77.01906,16.74152],[77.01926,16.74325],[77.02182,16.74543],[77.02285,16.74958],[77.02395,16.74985],[77.02486,16.74943],[77.02538,16.75057],[77.02763,16.7507],[77.03036,16.75494],[77.03271,16.76013],[77.03872,16.76005],[77.04256,16.76079],[77.04738,16.76195],[77.05578,16.76525],[77.05677,16.76534],[77.05773,16.76352]],[[77.27867,16.40284],[77.27882,16.40231],[77.28124,16.40264],[77.28418,16.40451],[77.28408,16.40483],[77.28058,16.40469],[77.27867,16.40284]],[[77.27775,16.40157],[77.27684,16.40178],[77.27669,16.40118],[77.27769,16.40096],[77.27775,16.40157]],[[77.28015,16.40193],[77.28027,16.40144],[77.28101,16.40193],[77.28015,16.40193]]]}},{"type":"Feature","properties":{"unitId":829,"unitName":"Yadgir Town PS"},"geometry":{"type":"Polygon","coordinates":[[[77.12232,16.79814],[77.12321,16.79808],[77.12387,16.79654],[77.12594,16.79621],[77.12675,16.7954],[77.12714,16.79564],[77.12715,16.79501],[77.12797,16.79502],[77.12951,16.78602],[77.13121,16.78679],[77.13177,16.78529],[77.13221,16.78534],[77.13204,16.78442],[77.13346,16.78319],[77.1346,16.78382],[77.13486,16.78549],[77.13819,16.78564],[77.13801,16.78373],[77.13949,16.78309],[77.14052,16.78419],[77.14123,16.78422],[77.14349,16.78396],[77.14342,16.78345],[77.14514,16.78366],[77.14662,16.78289],[77.14931,16.78517],[77.14981,16.78623],[77.15064,16.78671],[77.15344,16.78692],[77.15588,16.78919],[77.15709,16.78882],[77.15832,16.78727],[77.16148,16.78727],[77.16128,16.78623],[77.16208,16.78568],[77.1616,16.78283],[77.16284,16.78364],[77.16494,16.78387],[77.16484,16.78346],[77.16542,16.78374],[77.16529,16.78292],[77.16393,16.78187],[77.16394,16.78101],[77.16293,16.781],[77.15929,16.7776],[77.15818,16.77722],[77.15726,16.77578],[77.15667,16.77278],[77.15029,16.77278],[77.15084,16.76772],[77.15752,16.76682],[77.16439,16.7648],[77.16833,16.76417],[77.17494,16.7619],[77.1823,16.76085],[77.18184,16.75868],[77.17856,16.75422],[77.17728,16.75171],[77.17448,16.73539],[77.17215,16.73581],[77.17109,16.73669],[77.16912,16.73721],[77.16825,16.73695],[77.16711,16.7378],[77.16542,16.74048],[77.16357,16.74049],[77.1591,16.73929],[77.15709,16.74271],[77.15418,16.74269],[77.15353,16.74209],[77.15282,16.74249],[77.15111,16.74595],[77.15088,16.74801],[77.14716,16.74727],[77.14701,16.74552],[77.14435,16.74302],[77.1432,16.74289],[77.14266,16.74129],[77.14108,16.74081],[77.14109,16.737],[77.14449,16.73702],[77.14455,16.73266],[77.14728,16.73269],[77.14719,16.73328],[77.14803,16.73336],[77.1481,16.73188],[77.147,16.73175],[77.14703,16.73001],[77.14492,16.72987],[77.14491,16.72734],[77.14696,16.72534],[77.14827,16.72548],[77.14849,16.72433],[77.14931,16.72445],[77.14994,16.72284],[77.14934,16.72248],[77.15259,16.71827],[77.15272,16.71752],[77.15209,16.71744],[77.15237,16.71599],[77.15104,16.71541],[77.14565,16.7145],[77.14405,16.71364],[77.14047,16.71747],[77.13794,16.72153],[77.13493,16.72503],[77.13217,16.7303],[77.12822,16.73421],[77.12416,16.73646],[77.10955,16.74153],[77.1016,16.74339],[77.08154,16.74434],[77.0825,16.75206],[77.0855,16.76727],[77.09226,16.76593],[77.10131,16.76544],[77.1096,16.76554],[77.11132,16.76595],[77.11114,16.77019],[77.11308,16.77566],[77.11344,16.78746],[77.11901,16.79827],[77.12232,16.79814]]]}},{"type":"Feature","properties":{"unitId":830,"unitName":"Yadgir Rural PS"},"geometry":{"type":"Polygon","coordinates":[[[77.06858,16.93247],[77.07231,16.93201],[77.07303,16.93459],[77.07315,16.93737],[77.07514,16.93807],[77.07698,16.93757],[77.0766,16.93902],[77.07872,16.9384],[77.08203,16.94065],[77.08687,16.9317],[77.08794,16.92768],[77.08876,16.9146],[77.09238,16.90921],[77.09308,16.90599],[77.09987,16.90337],[77.10609,16.90261],[77.11547,16.90621],[77.12028,16.90947],[77.12622,16.91758],[77.14974,16.92631],[77.16956,16.9307],[77.18012,16.93369],[77.18458,16.93557],[77.19201,16.92907],[77.19404,16.92856],[77.19216,16.91201],[77.17108,16.8924],[77.17636,16.88784],[77.19338,16.88604],[77.22001,16.88945],[77.22025,16.88846],[77.22663,16.88924],[77.22662,16.89023],[77.23041,16.89097],[77.23167,16.8871],[77.23252,16.88175],[77.23388,16.88262],[77.23367,16.88505],[77.23645,16.88658],[77.24293,16.883],[77.24605,16.88276],[77.24852,16.87887],[77.24187,16.86814],[77.26104,16.86147],[77.25969,16.84729],[77.25766,16.84054],[77.25751,16.83032],[77.25667,16.83058],[77.25548,16.82179],[77.25434,16.82073],[77.25537,16.81916],[77.25531,16.81593],[77.25699,16.81429],[77.25726,16.81214],[77.25609,16.81215],[77.25626,16.80519],[77.25755,16.80102],[77.26045,16.80045],[77.26007,16.7973],[77.26178,16.79095],[77.26192,16.78887],[77.26304,16.78683],[77.26348,16.78415],[77.26116,16.78259],[77.25939,16.77876],[77.25806,16.77209],[77.25981,16.7636],[77.26068,16.76278],[77.26717,16.7596],[77.26716,16.75907],[77.26954,16.75877],[77.27052,16.75924],[77.2712,16.7604],[77.26731,16.76337],[77.2673,16.76447],[77.27059,16.76243],[77.2706,16.76284],[77.2712,16.7627],[77.27154,16.76123],[77.27417,16.76033],[77.27393,16.75974],[77.27244,16.76018],[77.2714,16.75894],[77.27144,16.75758],[77.27323,16.75632],[77.27241,16.75615],[77.27206,16.75284],[77.2752,16.75167],[77.27208,16.74793],[77.27143,16.74832],[77.27116,16.74668],[77.27275,16.74513],[77.26935,16.74414],[77.26973,16.74018],[77.27273,16.73986],[77.27233,16.73572],[77.27064,16.73559],[77.27201,16.73228],[77.27322,16.73249],[77.27364,16.73099],[77.27253,16.72767],[77.27048,16.72674],[77.27102,16.72451],[77.27079,16.72147],[77.26823,16.71455],[77.26706,16.71531],[77.26242,16.71543],[77.26199,16.713],[77.25891,16.71117],[77.25446,16.70979],[77.25041,16.70919],[77.24513,16.70691],[77.24666,16.70064],[77.24643,16.69564],[77.24264,16.69621],[77.24236,16.69513],[77.23832,16.69637],[77.23783,16.69216],[77.23585,16.69274],[77.23455,16.68958],[77.23415,16.68619],[77.23491,16.6856],[77.23404,16.68376],[77.2329,16.68401],[77.23268,16.68301],[77.23179,16.68309],[77.23055,16.67847],[77.23147,16.67568],[77.23072,16.67431],[77.23233,16.67424],[77.23126,16.6705],[77.23247,16.66931],[77.23153,16.66463],[77.23067,16.65116],[77.22986,16.64546],[77.22598,16.64049],[77.22492,16.63964],[77.22436,16.63982],[77.22356,16.63708],[77.22222,16.63692],[77.22062,16.63551],[77.22084,16.63461],[77.22172,16.6348],[77.22155,16.6328],[77.22002,16.63125],[77.22097,16.62984],[77.22308,16.62917],[77.22751,16.62133],[77.22992,16.61897],[77.22963,16.61838],[77.23205,16.61762],[77.23088,16.61207],[77.22048,16.6132],[77.21499,16.61585],[77.21294,16.6144],[77.20931,16.61482],[77.18082,16.61989],[77.18076,16.62286],[77.17952,16.62588],[77.17125,16.63174],[77.16719,16.63761],[77.16551,16.64152],[77.16302,16.64477],[77.16067,16.64662],[77.15599,16.64717],[77.15267,16.64662],[77.14994,16.64492],[77.14724,16.64241],[77.14477,16.64125],[77.13829,16.6423],[77.13513,16.6449],[77.13184,16.64978],[77.13072,16.65522],[77.13133,16.6605],[77.13204,16.66313],[77.13408,16.66693],[77.13704,16.67139],[77.14196,16.6756],[77.15179,16.68192],[77.15294,16.68507],[77.15263,16.68901],[77.1495,16.70044],[77.15085,16.70077],[77.14993,16.70499],[77.14815,16.70467],[77.14666,16.709],[77.14405,16.71364],[77.14565,16.7145],[77.15237,16.71599],[77.15209,16.71744],[77.15272,16.71752],[77.15259,16.71827],[77.14934,16.72248],[77.14994,16.72284],[77.14931,16.72445],[77.14849,16.72433],[77.14827,16.72548],[77.14696,16.72534],[77.14491,16.72734],[77.14492,16.72987],[77.14703,16.73001],[77.147,16.73175],[77.1481,16.73188],[77.14803,16.73336],[77.14719,16.73328],[77.14728,16.73269],[77.14455,16.73266],[77.14449,16.73702],[77.14109,16.737],[77.14108,16.74081],[77.14266,16.74129],[77.1432,16.74289],[77.14435,16.74302],[77.14701,16.74552],[77.14716,16.74727],[77.15088,16.74801],[77.15111,16.74595],[77.15282,16.74249],[77.15353,16.74209],[77.15418,16.74269],[77.15709,16.74271],[77.1591,16.73929],[77.16357,16.74049],[77.16542,16.74048],[77.16711,16.7378],[77.16825,16.73695],[77.16912,16.73721],[77.17109,16.73669],[77.17215,16.73581],[77.17448,16.73539],[77.17728,16.75171],[77.17856,16.75422],[77.18184,16.75868],[77.1823,16.76085],[77.17494,16.7619],[77.16833,16.76417],[77.16439,16.7648],[77.15752,16.76682],[77.15084,16.76772],[77.15029,16.77278],[77.15667,16.77278],[77.15726,16.77578],[77.15818,16.77722],[77.15929,16.7776],[77.16293,16.781],[77.16394,16.78101],[77.16393,16.78187],[77.16529,16.78292],[77.16542,16.78374],[77.16484,16.78346],[77.16494,16.78387],[77.16284,16.78364],[77.1616,16.78283],[77.16208,16.78568],[77.16128,16.78623],[77.16148,16.78727],[77.15832,16.78727],[77.15709,16.78882],[77.15588,16.78919],[77.15344,16.78692],[77.15064,16.78671],[77.14981,16.78623],[77.14931,16.78517],[77.14662,16.78289],[77.14514,16.78366],[77.14342,16.78345],[77.14349,16.78396],[77.14123,16.78422],[77.14052,16.78419],[77.13949,16.78309],[77.13801,16.78373],[77.13819,16.78564],[77.13486,16.78549],[77.1346,16.78382],[77.13346,16.78319],[77.13204,16.78442],[77.13221,16.78534],[77.13177,16.78529],[77.13121,16.78679],[77.12951,16.78602],[77.12797,16.79502],[77.12715,16.79501],[77.12714,16.79564],[77.12675,16.7954],[77.12594,16.79621],[77.12387,16.79654],[77.12321,16.79808],[77.11901,16.79827],[77.11344,16.78746],[77.11308,16.77566],[77.11114,16.77019],[77.11132,16.76595],[77.1096,16.76554],[77.10131,16.76544],[77.09226,16.76593],[77.0855,16.76727],[77.0825,16.75206],[77.08154,16.74434],[77.07896,16.74442],[77.07369,16.74538],[77.06382,16.75166],[77.06097,16.75403],[77.05773,16.76352],[77.05269,16.77337],[77.04763,16.77812],[77.04434,16.78],[77.03582,16.78196],[77.03371,16.78286],[77.02696,16.79115],[77.02232,16.79486],[77.01623,16.7966],[77.0104,16.79935],[77.00439,16.80409],[77.00299,16.80646],[77.00169,16.81264],[76.99974,16.81342],[76.99506,16.81338],[76.99077,16.81243],[76.99041,16.81191],[76.99319,16.83328],[76.99475,16.83325],[76.99538,16.83772],[76.99093,16.83886],[76.9832,16.83991],[76.98377,16.84192],[76.98331,16.84447],[76.98159,16.84718],[76.98108,16.84729],[76.9802,16.8499],[76.98008,16.85201],[76.97889,16.85452],[76.97974,16.85986],[76.98109,16.859],[76.98177,16.86137],[76.9908,16.86045],[76.9927,16.86074],[76.99534,16.86011],[77.00019,16.8601],[77.0076,16.85799],[77.01096,16.86178],[77.01419,16.86328],[77.0166,16.86544],[77.02035,16.86777],[77.02075,16.86872],[77.02257,16.86814],[77.02596,16.86829],[77.02791,16.86779],[77.03028,16.86802],[77.03052,16.86948],[77.03328,16.86905],[77.03561,16.87008],[77.04196,16.86851],[77.04311,16.87011],[77.0429,16.87897],[77.04191,16.8808],[77.04158,16.88269],[77.04014,16.88281],[77.03954,16.88431],[77.03728,16.88429],[77.03729,16.88368],[77.0333,16.88483],[77.03329,16.89334],[77.02835,16.89378],[77.02743,16.89569],[77.0249,16.89612],[77.02383,16.89698],[77.01769,16.89917],[77.01784,16.90319],[77.0201,16.91579],[77.01999,16.92776],[77.02446,16.92502],[77.02487,16.92564],[77.02932,16.9257],[77.03222,16.92457],[77.03359,16.92455],[77.03355,16.92516],[77.03574,16.92501],[77.03774,16.9241],[77.04134,16.92334],[77.04419,16.92685],[77.04593,16.9323],[77.05776,16.9429],[77.05851,16.945],[77.06491,16.95145],[77.06395,16.95373],[77.0665,16.95409],[77.07061,16.95329],[77.06822,16.94201],[77.06806,16.93935],[77.06906,16.93899],[77.06858,16.93247]]]}}]}