{"type":"FeatureCollection","features":[{"type":"Feature","properties":{"unitId":98,"unitName":"Hosakote PS"},"geometry":{"type":"Polygon","coordinates":[[[77.86226,13.13451],[77.86811,13.13026],[77.8741,13.12891],[77.8729,13.12415],[77.87948,13.12332],[77.87951,13.12282],[77.8815,13.12327],[77.88168,13.12376],[77.89759,13.12721],[77.90099,13.12852],[77.90361,13.12541],[77.90462,13.12238],[77.90606,13.12228],[77.90685,13.12114],[77.90698,13.11879],[77.90534,13.11921],[77.90477,13.11676],[77.90625,13.11626],[77.91129,13.11662],[77.91249,13.1095],[77.90824,13.10811],[77.90703,13.10597],[77.90119,13.10218],[77.90221,13.09913],[77.90587,13.09638],[77.91161,13.09487],[77.91187,13.09438],[77.91515,13.08551],[77.91203,13.07849],[77.91805,13.07849],[77.92315,13.08151],[77.92693,13.08199],[77.92747,13.07983],[77.92625,13.07511],[77.92761,13.07426],[77.93157,13.07421],[77.93182,13.07497],[77.93343,13.07536],[77.93392,13.0761],[77.93601,13.07627],[77.93606,13.07712],[77.9367,13.07684],[77.9382,13.07813],[77.939,13.07933],[77.93923,13.08408],[77.94154,13.07776],[77.94159,13.06913],[77.93811,13.06671],[77.92767,13.06878],[77.9268,13.06813],[77.92468,13.06309],[77.92204,13.06034],[77.92159,13.05695],[77.91899,13.05347],[77.91874,13.05109],[77.91551,13.05073],[77.9157,13.05041],[77.91489,13.04942],[77.91164,13.04916],[77.90082,13.05109],[77.89875,13.05225],[77.8983,13.05386],[77.89498,13.05504],[77.89375,13.05435],[77.89241,13.05468],[77.89151,13.05056],[77.89022,13.05054],[77.89002,13.04945],[77.89068,13.048],[77.89466,13.04692],[77.89461,13.0459],[77.88914,13.04515],[77.88763,13.03718],[77.8937,13.0351],[77.89301,13.03127],[77.89058,13.02353],[77.88778,13.02042],[77.88735,13.01894],[77.88797,13.01836],[77.88725,13.01381],[77.88548,13.0089],[77.87885,13.00597],[77.8768,13.0016],[77.87415,12.99896],[77.87246,12.99509],[77.87272,12.99167],[77.87144,12.98632],[77.87061,12.98553],[77.86262,12.98352],[77.86357,12.984],[77.86408,12.98782],[77.86036,12.98659],[77.85814,12.98719],[77.85814,12.98662],[77.86032,12.98652],[77.8606,12.98358],[77.85336,12.98238],[77.84866,12.98212],[77.84846,12.98973],[77.85492,12.99058],[77.84768,12.99057],[77.84675,12.98782],[77.83485,12.98742],[77.83334,12.98707],[77.83013,12.98469],[77.8253,12.9849],[77.82521,12.98362],[77.82154,12.98425],[77.82155,12.98572],[77.81907,12.98583],[77.81883,12.98546],[77.81198,12.98734],[77.8073,12.99002],[77.80882,12.99169],[77.80655,12.99323],[77.8059,12.99299],[77.79933,12.99468],[77.79353,12.994],[77.79298,12.99112],[77.79163,12.9889],[77.79022,12.98954],[77.77866,12.98801],[77.77601,12.98817],[77.7765,12.98832],[77.77611,12.99153],[77.77521,12.9921],[77.77418,12.992],[77.77511,12.99705],[77.77499,13.00086],[77.77382,13.00125],[77.77366,13.00188],[77.77286,13.00194],[77.77246,13.00259],[77.7735,13.00316],[77.77477,13.00288],[77.7755,13.00333],[77.77589,13.0057],[77.77442,13.00644],[77.77341,13.00626],[77.77328,13.01018],[77.774,13.01065],[77.77386,13.01248],[77.77444,13.01339],[77.77343,13.01348],[77.77311,13.01464],[77.77163,13.01505],[77.77291,13.01733],[77.77341,13.01974],[77.77456,13.01965],[77.77515,13.02266],[77.77627,13.02241],[77.77703,13.02436],[77.77776,13.02993],[77.77892,13.02982],[77.77965,13.03181],[77.78135,13.03347],[77.78102,13.03459],[77.77892,13.03461],[77.77859,13.0378],[77.7777,13.03829],[77.77729,13.04115],[77.77476,13.04557],[77.77638,13.04562],[77.77665,13.04661],[77.77437,13.04703],[77.77661,13.04775],[77.77625,13.04764],[77.77601,13.04832],[77.77341,13.04781],[77.77294,13.04861],[77.77008,13.0484],[77.77053,13.0502],[77.77015,13.05429],[77.77053,13.05424],[77.76995,13.0549],[77.77006,13.05595],[77.76921,13.05668],[77.76842,13.05632],[77.76799,13.05697],[77.76795,13.06289],[77.76725,13.06462],[77.76688,13.06462],[77.76286,13.07079],[77.76026,13.07294],[77.75835,13.07374],[77.75842,13.07502],[77.75938,13.07574],[77.75895,13.07742],[77.76091,13.07776],[77.76016,13.08143],[77.76556,13.08148],[77.76692,13.08809],[77.76489,13.09479],[77.76577,13.09699],[77.76476,13.09841],[77.76494,13.10158],[77.76417,13.10287],[77.76452,13.10453],[77.76548,13.10497],[77.76659,13.10793],[77.7656,13.10875],[77.76391,13.10916],[77.76179,13.1128],[77.76179,13.12186],[77.76593,13.12164],[77.76823,13.12228],[77.76948,13.12209],[77.76985,13.1236],[77.77468,13.12226],[77.77633,13.12283],[77.77707,13.12459],[77.77642,13.13001],[77.77367,13.1306],[77.77452,13.13199],[77.77703,13.13216],[77.77825,13.13349],[77.7811,13.13281],[77.78416,13.13113],[77.78548,13.12663],[77.78548,13.12436],[77.79367,13.12224],[77.79395,13.11912],[77.79864,13.11895],[77.79836,13.11421],[77.80992,13.1154],[77.81491,13.12607],[77.81944,13.12742],[77.82857,13.13189],[77.83044,13.1324],[77.84199,13.12944],[77.8436,13.12954],[77.84688,13.12878],[77.84866,13.13482],[77.85282,13.13199],[77.85463,13.12935],[77.85679,13.13334],[77.86226,13.13451]]]}},{"type":"Feature","properties":{"unitId":99,"unitName":"Anugondanahalli PS"},"geometry":{"type":"Polygon","coordinates":[[[77.87061,12.98553],[77.87146,12.98294],[77.87103,12.9795],[77.87149,12.97922],[77.87151,12.97827],[77.87061,12.97812],[77.87031,12.97681],[77.87103,12.97637],[77.87085,12.97592],[77.87188,12.97547],[77.87159,12.9743],[77.87125,12.97363],[77.86938,12.97344],[77.86894,12.97276],[77.86449,12.97323],[77.86587,12.96865],[77.86486,12.96575],[77.86835,12.96347],[77.87133,12.96052],[77.86965,12.95464],[77.86701,12.95053],[77.86982,12.94703],[77.87107,12.94615],[77.87358,12.94559],[77.8717,12.93991],[77.86996,12.93678],[77.86745,12.93382],[77.862,12.93557],[77.85882,12.93579],[77.85547,12.93435],[77.8512,12.93113],[77.84943,12.9274],[77.84863,12.92674],[77.84817,12.92692],[77.8478,12.92619],[77.84093,12.92538],[77.84063,12.92326],[77.84106,12.922],[77.84102,12.91857],[77.84221,12.91426],[77.84553,12.91645],[77.85126,12.91562],[77.85486,12.91681],[77.85653,12.91686],[77.86048,12.91577],[77.85879,12.90753],[77.85871,12.90618],[77.85944,12.90567],[77.85102,12.89152],[77.85314,12.88909],[77.8522,12.88559],[77.85277,12.8856],[77.85403,12.88422],[77.85323,12.88137],[77.85304,12.87672],[77.85707,12.87591],[77.85715,12.87646],[77.85861,12.8773],[77.86026,12.87764],[77.86537,12.87714],[77.86646,12.8758],[77.8676,12.8677],[77.85726,12.86888],[77.8572,12.86761],[77.8559,12.86767],[77.85062,12.86589],[77.84765,12.86917],[77.8427,12.86889],[77.83882,12.86941],[77.83684,12.8705],[77.8368,12.87186],[77.83499,12.87235],[77.83306,12.87411],[77.83196,12.87423],[77.83128,12.87996],[77.83237,12.88242],[77.83018,12.8881],[77.83007,12.8895],[77.82879,12.89056],[77.82814,12.89289],[77.82588,12.8948],[77.82521,12.8962],[77.82532,12.89784],[77.82417,12.89916],[77.82348,12.9009],[77.82095,12.90247],[77.82167,12.90342],[77.82122,12.90568],[77.82227,12.90707],[77.82115,12.90854],[77.82099,12.91205],[77.81968,12.91319],[77.81747,12.91384],[77.81655,12.91488],[77.8165,12.916],[77.81748,12.91757],[77.81782,12.91921],[77.81678,12.92172],[77.81755,12.922],[77.82026,12.92125],[77.82201,12.9217],[77.82968,12.9197],[77.83273,12.92335],[77.832,12.92418],[77.83188,12.92568],[77.82489,12.92763],[77.82239,12.92897],[77.82041,12.92506],[77.81634,12.92576],[77.81588,12.92603],[77.81604,12.9269],[77.81554,12.92799],[77.81374,12.92941],[77.81316,12.9308],[77.81052,12.93335],[77.81017,12.93422],[77.80853,12.9334],[77.80322,12.91943],[77.79769,12.91865],[77.79862,12.92358],[77.79837,12.92563],[77.7935,12.92583],[77.78996,12.92672],[77.78531,12.92716],[77.78253,12.92812],[77.78271,12.9288],[77.77829,12.931],[77.7783,12.93199],[77.7769,12.93221],[77.77802,12.93572],[77.77568,12.93726],[77.77501,12.93948],[77.76535,12.94225],[77.76545,12.94517],[77.77266,12.95148],[77.77103,12.95241],[77.77042,12.95431],[77.76901,12.95566],[77.76842,12.95711],[77.76857,12.9585],[77.76988,12.9598],[77.77089,12.96194],[77.7702,12.96306],[77.77159,12.96547],[77.77459,12.96651],[77.77745,12.96822],[77.77866,12.96772],[77.7786,12.96676],[77.78054,12.96712],[77.78185,12.96613],[77.78418,12.96679],[77.78436,12.96856],[77.78365,12.97062],[77.78229,12.9709],[77.78075,12.97006],[77.7789,12.97024],[77.77864,12.97111],[77.77919,12.97256],[77.77617,12.97467],[77.77698,12.97641],[77.77824,12.97622],[77.77883,12.97716],[77.77843,12.97856],[77.77741,12.97837],[77.77591,12.97993],[77.77463,12.98053],[77.77555,12.98217],[77.77606,12.98233],[77.77658,12.98486],[77.77715,12.98516],[77.77607,12.98587],[77.77601,12.98817],[77.77866,12.98801],[77.79022,12.98954],[77.79163,12.9889],[77.79298,12.99112],[77.79353,12.994],[77.79933,12.99468],[77.8059,12.99299],[77.80655,12.99323],[77.80882,12.99169],[77.8073,12.99002],[77.81198,12.98734],[77.81883,12.98546],[77.81907,12.98583],[77.82155,12.98572],[77.82154,12.98425],[77.82521,12.98362],[77.8253,12.9849],[77.83013,12.98469],[77.83334,12.98707],[77.83485,12.98742],[77.84675,12.98782],[77.84768,12.99057],[77.85492,12.99058],[77.84846,12.98973],[77.84866,12.98212],[77.85336,12.98238],[77.8606,12.98358],[77.86032,12.98652],[77.85814,12.98662],[77.85814,12.98719],[77.86036,12.98659],[77.86408,12.98782],[77.86357,12.984],[77.86262,12.98352],[77.87061,12.98553]]]}},{"type":"Feature","properties":{"unitId":100,"unitName":"Nandagudi PS"},"geometry":{"type":"Polygon","coordinates":[[[77.90133,13.2558],[77.90481,13.25459],[77.90496,13.25428],[77.90431,13.25417],[77.90611,13.2523],[77.90529,13.25037],[77.90511,13.24553],[77.90234,13.24218],[77.89533,13.23862],[77.89169,13.23547],[77.9112,13.23172],[77.91417,13.23163],[77.91516,13.23546],[77.91501,13.23975],[77.91901,13.23989],[77.92315,13.23863],[77.92512,13.23949],[77.92763,13.23947],[77.92952,13.23888],[77.93164,13.24193],[77.93149,13.24232],[77.93179,13.24215],[77.93501,13.24471],[77.93551,13.24583],[77.93751,13.24507],[77.94553,13.24379],[77.94808,13.25052],[77.95633,13.24904],[77.96201,13.24567],[77.96561,13.24446],[77.96545,13.23772],[77.96451,13.23801],[77.96423,13.2322],[77.96034,13.22996],[77.95762,13.22773],[77.95599,13.22794],[77.95422,13.22239],[77.95077,13.2232],[77.94929,13.21986],[77.94779,13.21937],[77.94786,13.21886],[77.94629,13.21876],[77.94627,13.2184],[77.94659,13.21434],[77.94944,13.2139],[77.95205,13.21439],[77.95163,13.21509],[77.95205,13.2185],[77.95432,13.21842],[77.95424,13.21736],[77.95646,13.21848],[77.95776,13.21845],[77.95742,13.21465],[77.95448,13.20525],[77.95647,13.20397],[77.95626,13.20075],[77.95876,13.20055],[77.96134,13.19948],[77.96071,13.19583],[77.96128,13.19543],[77.96144,13.19367],[77.96241,13.19253],[77.96356,13.19218],[77.96283,13.18896],[77.96179,13.1868],[77.96112,13.18286],[77.95925,13.18317],[77.95872,13.18282],[77.95722,13.17997],[77.95692,13.177],[77.95634,13.1762],[77.95563,13.17646],[77.95538,13.17299],[77.95463,13.17169],[77.95572,13.16783],[77.95543,13.16455],[77.9546,13.16261],[77.95283,13.16032],[77.95895,13.15821],[77.9576,13.1529],[77.96051,13.15154],[77.95456,13.14221],[77.9552,13.13846],[77.95626,13.13652],[77.95749,13.1307],[77.95803,13.12984],[77.95556,13.12552],[77.94837,13.127],[77.94637,13.12344],[77.94443,13.12401],[77.94396,13.12335],[77.93798,13.12582],[77.93595,13.1142],[77.93951,13.10946],[77.93348,13.10834],[77.9312,13.10966],[77.92742,13.11035],[77.92565,13.11019],[77.92589,13.11076],[77.92474,13.11305],[77.92387,13.11378],[77.92387,13.11661],[77.91511,13.11765],[77.91469,13.11666],[77.91428,13.11667],[77.91364,13.10999],[77.91255,13.10976],[77.91129,13.11662],[77.90625,13.11626],[77.90477,13.11676],[77.90534,13.11921],[77.90698,13.11879],[77.90685,13.12114],[77.90606,13.12228],[77.90462,13.12238],[77.90361,13.12541],[77.90099,13.12852],[77.89759,13.12721],[77.88168,13.12376],[77.8815,13.12327],[77.87951,13.12282],[77.87948,13.12332],[77.8729,13.12415],[77.8741,13.12891],[77.86811,13.13026],[77.86225,13.1344],[77.8634,13.13924],[77.86633,13.14296],[77.86605,13.1469],[77.8667,13.15063],[77.87123,13.14975],[77.87866,13.14934],[77.87955,13.14882],[77.87979,13.15079],[77.87757,13.15102],[77.8774,13.15414],[77.87525,13.15544],[77.87207,13.15651],[77.86629,13.15726],[77.86334,13.15393],[77.86267,13.15598],[77.85877,13.15772],[77.85716,13.16135],[77.85779,13.16147],[77.85736,13.1626],[77.85991,13.16285],[77.85712,13.17101],[77.87235,13.17172],[77.87296,13.16865],[77.87575,13.16844],[77.87473,13.16508],[77.87508,13.16424],[77.87552,13.16369],[77.87784,13.16327],[77.8819,13.1661],[77.88475,13.17704],[77.87796,13.178],[77.87779,13.18614],[77.8705,13.20001],[77.86983,13.20277],[77.87509,13.20564],[77.87565,13.21374],[77.8732,13.21575],[77.87059,13.21698],[77.87066,13.2182],[77.87271,13.22164],[77.87261,13.22255],[77.87307,13.22248],[77.87779,13.23302],[77.87678,13.23433],[77.87818,13.23748],[77.87992,13.2393],[77.88438,13.23994],[77.88646,13.24165],[77.8872,13.24762],[77.89129,13.25757],[77.90133,13.2558]]]}},{"type":"Feature","properties":{"unitId":101,"unitName":"Sulibele PS"},"geometry":{"type":"MultiPolygon","coordinates":[[[[77.84641,13.24177],[77.8503,13.24133],[77.84987,13.23006],[77.84852,13.2204],[77.84958,13.22013],[77.85006,13.21876],[77.85957,13.22001],[77.85797,13.22146],[77.85779,13.22736],[77.86335,13.24116],[77.86514,13.23697],[77.87165,13.23501],[77.87654,13.23447],[77.87779,13.23302],[77.87307,13.22248],[77.87261,13.22255],[77.87271,13.22164],[77.87066,13.2182],[77.87059,13.21698],[77.8732,13.21575],[77.87565,13.21374],[77.87509,13.20564],[77.86983,13.20277],[77.8705,13.20001],[77.87779,13.18614],[77.87796,13.178],[77.88475,13.17704],[77.8819,13.1661],[77.87784,13.16327],[77.87552,13.16369],[77.87473,13.16508],[77.87575,13.16844],[77.87296,13.16865],[77.87235,13.17172],[77.85712,13.17101],[77.85991,13.16285],[77.85736,13.1626],[77.85779,13.16147],[77.85716,13.16135],[77.85877,13.15772],[77.86267,13.15598],[77.86334,13.15393],[77.86629,13.15726],[77.87207,13.15651],[77.87525,13.15544],[77.8774,13.15414],[77.87757,13.15102],[77.87979,13.15079],[77.87955,13.14882],[77.87866,13.14934],[77.87123,13.14975],[77.8667,13.15063],[77.86605,13.1469],[77.86633,13.14296],[77.8634,13.13924],[77.86225,13.1345],[77.85679,13.13334],[77.85463,13.12935],[77.85282,13.13199],[77.84866,13.13482],[77.84688,13.12878],[77.8436,13.12954],[77.84199,13.12944],[77.83044,13.1324],[77.82857,13.13189],[77.81944,13.12742],[77.81491,13.12607],[77.80992,13.1154],[77.79836,13.11421],[77.79864,13.11895],[77.79395,13.11912],[77.79367,13.12224],[77.78548,13.12436],[77.78548,13.12663],[77.78416,13.13113],[77.7811,13.13281],[77.77825,13.13349],[77.77703,13.13216],[77.77452,13.13199],[77.77367,13.1306],[77.77642,13.13001],[77.77707,13.12459],[77.77607,13.12266],[77.77468,13.12226],[77.76985,13.1236],[77.76948,13.12209],[77.76823,13.12228],[77.7654,13.12163],[77.75905,13.122],[77.76226,13.12712],[77.76382,13.1274],[77.76386,13.12958],[77.76306,13.13049],[77.76334,13.13136],[77.76504,13.13334],[77.76732,13.13364],[77.7675,13.13413],[77.76729,13.13561],[77.76602,13.13732],[77.76575,13.13901],[77.76632,13.14161],[77.76786,13.14261],[77.76799,13.14338],[77.76734,13.14419],[77.76735,13.14554],[77.76823,13.14648],[77.76672,13.14825],[77.76879,13.15059],[77.77075,13.15155],[77.77073,13.15316],[77.77159,13.1531],[77.77148,13.15434],[77.77412,13.1552],[77.7755,13.15836],[77.77675,13.15919],[77.7764,13.1605],[77.77682,13.16119],[77.77745,13.16173],[77.77763,13.16113],[77.77848,13.16085],[77.77826,13.16304],[77.78084,13.16569],[77.78004,13.1659],[77.77994,13.16713],[77.78087,13.16904],[77.78323,13.16941],[77.78364,13.17196],[77.78314,13.1728],[77.78076,13.17444],[77.7821,13.17629],[77.7825,13.17609],[77.78275,13.17697],[77.78155,13.17788],[77.78216,13.17952],[77.78121,13.18037],[77.78122,13.18115],[77.78268,13.18128],[77.78333,13.18363],[77.78159,13.18445],[77.78107,13.18567],[77.78302,13.18725],[77.784,13.18676],[77.78458,13.1872],[77.7851,13.19037],[77.7866,13.19159],[77.78789,13.19395],[77.78668,13.196],[77.78662,13.19728],[77.78549,13.1987],[77.78658,13.20415],[77.78628,13.20493],[77.78704,13.20681],[77.78695,13.20844],[77.78762,13.2106],[77.79463,13.20845],[77.80665,13.2062],[77.81212,13.20618],[77.81254,13.2102],[77.81579,13.22409],[77.81581,13.22643],[77.8161,13.22672],[77.81878,13.22552],[77.82266,13.22788],[77.82282,13.22684],[77.82425,13.2264],[77.82501,13.2255],[77.82549,13.22677],[77.82392,13.22739],[77.82492,13.2271],[77.82517,13.22778],[77.82683,13.22708],[77.83076,13.23605],[77.83266,13.23802],[77.83395,13.24501],[77.84641,13.24177]]],[[[77.88496,13.25018],[77.88516,13.2506],[77.88704,13.25062],[77.88813,13.25008],[77.88714,13.2474],[77.88676,13.24246],[77.88646,13.24165],[77.88438,13.23994],[77.87989,13.2393],[77.8733,13.24451],[77.87413,13.24439],[77.87701,13.24629],[77.87693,13.24708],[77.8798,13.25217],[77.88105,13.25127],[77.88496,13.25018]]]]}},{"type":"Feature","properties":{"unitId":102,"unitName":"Vijayapura PS"},"geometry":{"type":"MultiPolygon","coordinates":[[[[77.74168,13.26652],[77.74048,13.2681],[77.74012,13.26992],[77.74042,13.27044],[77.7394,13.27241],[77.73572,13.27438],[77.73203,13.27526],[77.72833,13.26632],[77.72512,13.26739],[77.72463,13.26829],[77.72294,13.26926],[77.72108,13.27296],[77.71911,13.27409],[77.72009,13.27859],[77.71791,13.27935],[77.7147,13.27863],[77.71464,13.27817],[77.71183,13.27866],[77.71063,13.28039],[77.71125,13.28153],[77.71026,13.28191],[77.71028,13.2828],[77.71164,13.28534],[77.71173,13.29274],[77.71056,13.29689],[77.7108,13.30245],[77.71132,13.30378],[77.70548,13.3072],[77.70325,13.3071],[77.70018,13.30807],[77.69817,13.30799],[77.69794,13.30859],[77.69808,13.31229],[77.6986,13.31386],[77.69734,13.31417],[77.69711,13.31767],[77.70057,13.31838],[77.70056,13.31909],[77.7023,13.31986],[77.70203,13.32255],[77.7059,13.32165],[77.71076,13.32245],[77.71167,13.32213],[77.71255,13.32512],[77.7127,13.32728],[77.70499,13.32823],[77.70281,13.3294],[77.70137,13.33094],[77.70021,13.33111],[77.69953,13.33377],[77.69814,13.33493],[77.70056,13.33992],[77.70368,13.34307],[77.7037,13.34571],[77.69924,13.34741],[77.69892,13.35096],[77.69858,13.35103],[77.69831,13.35726],[77.69881,13.35892],[77.70515,13.36114],[77.70549,13.36197],[77.70654,13.36199],[77.70773,13.36129],[77.70861,13.36364],[77.71033,13.36342],[77.71043,13.36402],[77.70877,13.36422],[77.70902,13.3655],[77.71575,13.36475],[77.7162,13.36507],[77.71764,13.36334],[77.71714,13.36306],[77.71704,13.36224],[77.71715,13.35933],[77.71776,13.35803],[77.71772,13.35324],[77.71621,13.35248],[77.71586,13.35109],[77.71735,13.35179],[77.72805,13.35101],[77.7277,13.35248],[77.72974,13.36071],[77.72824,13.36149],[77.72631,13.3615],[77.72637,13.36187],[77.7276,13.36162],[77.72735,13.36281],[77.72875,13.36268],[77.72899,13.36134],[77.72978,13.36087],[77.73377,13.36048],[77.73606,13.359],[77.73558,13.36049],[77.73645,13.3603],[77.73685,13.36076],[77.73804,13.35905],[77.73982,13.35794],[77.74009,13.35642],[77.74461,13.35362],[77.74537,13.35473],[77.74337,13.35665],[77.74372,13.35742],[77.74198,13.35916],[77.74092,13.35954],[77.74165,13.36088],[77.7424,13.3603],[77.74338,13.36069],[77.74375,13.36137],[77.74846,13.35882],[77.751,13.36051],[77.75151,13.36375],[77.75325,13.36337],[77.75494,13.36479],[77.76037,13.36134],[77.76681,13.35862],[77.77221,13.35733],[77.77256,13.3555],[77.77977,13.35273],[77.78599,13.35243],[77.79107,13.35276],[77.79158,13.34726],[77.7912,13.34583],[77.79473,13.34331],[77.79458,13.34193],[77.79918,13.33882],[77.80497,13.33823],[77.80985,13.33621],[77.80907,13.33338],[77.81507,13.33112],[77.81631,13.33105],[77.82314,13.32633],[77.82531,13.32599],[77.82719,13.32472],[77.82491,13.32153],[77.82393,13.31871],[77.82381,13.31764],[77.82453,13.31606],[77.82558,13.31576],[77.82276,13.31392],[77.82221,13.31268],[77.81922,13.31368],[77.81763,13.31029],[77.81433,13.31003],[77.81216,13.31241],[77.81365,13.31583],[77.81104,13.31681],[77.81071,13.31609],[77.80922,13.31567],[77.80749,13.31439],[77.80436,13.31108],[77.80505,13.31147],[77.81197,13.30984],[77.81373,13.30902],[77.81509,13.30919],[77.81442,13.30376],[77.81874,13.30334],[77.82302,13.30445],[77.82862,13.30381],[77.82831,13.29993],[77.83013,13.29876],[77.82904,13.28952],[77.82228,13.29099],[77.82219,13.29298],[77.82282,13.29572],[77.81705,13.29601],[77.81606,13.28746],[77.81515,13.28491],[77.81304,13.28195],[77.81185,13.27783],[77.81232,13.2723],[77.80927,13.26195],[77.80838,13.26183],[77.80767,13.25945],[77.80637,13.25963],[77.80316,13.25438],[77.79913,13.2555],[77.79773,13.25529],[77.79155,13.25919],[77.78147,13.25892],[77.77657,13.25963],[77.77429,13.26041],[77.77304,13.25898],[77.7727,13.25945],[77.77256,13.25901],[77.77142,13.25908],[77.76471,13.25988],[77.76069,13.26171],[77.75696,13.26072],[77.75668,13.25951],[77.75407,13.26141],[77.7513,13.26179],[77.74777,13.2599],[77.74606,13.26075],[77.74547,13.2632],[77.74152,13.26601],[77.74168,13.26652]]],[[[77.68501,13.336],[77.68677,13.33569],[77.68851,13.33678],[77.68845,13.33574],[77.68786,13.33528],[77.68774,13.33298],[77.68608,13.33355],[77.6848,13.33103],[77.68084,13.33216],[77.68106,13.33288],[77.67922,13.33352],[77.67746,13.33892],[77.68299,13.33815],[77.6851,13.33711],[77.68501,13.336]]]]}},{"type":"Feature","properties":{"unitId":103,"unitName":"Doddabelavangala PS"},"geometry":{"type":"MultiPolygon","coordinates":[[[[77.45697,13.16283],[77.45463,13.16364],[77.45357,13.16346],[77.45017,13.16453],[77.44825,13.16568],[77.44296,13.16687],[77.43337,13.16579],[77.43247,13.16486],[77.42836,13.16558],[77.42039,13.16983],[77.41882,13.17003],[77.41569,13.17226],[77.40286,13.17468],[77.39685,13.17728],[77.39433,13.17741],[77.39269,13.17826],[77.39306,13.18446],[77.39236,13.18471],[77.39246,13.18558],[77.38959,13.19147],[77.38806,13.19202],[77.3902,13.19774],[77.38986,13.2027],[77.3857,13.20426],[77.37685,13.20619],[77.37307,13.20762],[77.37327,13.21176],[77.37435,13.21744],[77.37647,13.22147],[77.37601,13.22533],[77.3721,13.22981],[77.37278,13.23668],[77.37246,13.2395],[77.37301,13.24366],[77.37288,13.24991],[77.3744,13.25373],[77.37381,13.25573],[77.37383,13.25984],[77.36794,13.26139],[77.36781,13.26178],[77.36348,13.26313],[77.36103,13.26122],[77.35676,13.25935],[77.35552,13.25661],[77.35262,13.25757],[77.35122,13.25862],[77.34244,13.25957],[77.33862,13.26406],[77.33638,13.26758],[77.3355,13.27288],[77.33567,13.27479],[77.33009,13.27604],[77.3227,13.27982],[77.32159,13.28111],[77.31672,13.28456],[77.3167,13.28641],[77.31922,13.28647],[77.32069,13.28594],[77.3213,13.28619],[77.32145,13.28723],[77.32349,13.28731],[77.32435,13.28694],[77.32431,13.28632],[77.33123,13.28536],[77.33167,13.28415],[77.33303,13.28446],[77.33532,13.28385],[77.3372,13.28293],[77.33708,13.28154],[77.33831,13.28083],[77.33939,13.28118],[77.34374,13.27977],[77.34712,13.28852],[77.34764,13.29201],[77.35041,13.29142],[77.3511,13.29606],[77.35181,13.29595],[77.35216,13.29769],[77.35272,13.29768],[77.3519,13.30118],[77.35134,13.30173],[77.34998,13.30182],[77.35013,13.3027],[77.34928,13.30437],[77.34964,13.30476],[77.3491,13.30635],[77.34872,13.30604],[77.3465,13.31017],[77.346,13.31225],[77.34672,13.31519],[77.34478,13.31588],[77.34403,13.31722],[77.34251,13.31685],[77.34087,13.32405],[77.33862,13.3288],[77.33932,13.33427],[77.34389,13.33763],[77.34584,13.3494],[77.34243,13.35038],[77.34274,13.35091],[77.34165,13.35323],[77.3421,13.3538],[77.34156,13.35504],[77.34164,13.35732],[77.34246,13.35852],[77.34202,13.35874],[77.34244,13.35915],[77.34265,13.36278],[77.34305,13.36263],[77.34257,13.36606],[77.34469,13.37004],[77.34545,13.37368],[77.33918,13.37448],[77.34045,13.37462],[77.34089,13.37927],[77.34245,13.38418],[77.34369,13.38543],[77.34393,13.39166],[77.34273,13.39199],[77.34342,13.39712],[77.3419,13.39996],[77.3419,13.40173],[77.34292,13.4027],[77.34427,13.40303],[77.34669,13.40303],[77.35255,13.4015],[77.35629,13.40246],[77.36119,13.40261],[77.36184,13.40655],[77.36156,13.4109],[77.36193,13.41522],[77.36334,13.41698],[77.36421,13.42347],[77.36582,13.42282],[77.3718,13.42197],[77.37398,13.42086],[77.3768,13.42482],[77.38007,13.42733],[77.38263,13.42891],[77.39336,13.43306],[77.39615,13.42817],[77.40093,13.42763],[77.40524,13.43065],[77.4094,13.42534],[77.4075,13.42332],[77.41109,13.41854],[77.4136,13.41418],[77.41238,13.40987],[77.4224,13.40449],[77.42584,13.40365],[77.4277,13.40399],[77.42997,13.40368],[77.44122,13.40449],[77.44544,13.40573],[77.44561,13.40512],[77.46132,13.40297],[77.46138,13.40181],[77.45083,13.39627],[77.44962,13.3951],[77.44938,13.39361],[77.44845,13.3929],[77.45287,13.38065],[77.44644,13.36505],[77.44718,13.36454],[77.44752,13.36289],[77.44989,13.36023],[77.46131,13.35815],[77.46122,13.35676],[77.46195,13.35697],[77.46277,13.35611],[77.46328,13.35379],[77.46395,13.35338],[77.46453,13.35189],[77.46626,13.34986],[77.46695,13.34993],[77.46739,13.34934],[77.46762,13.34614],[77.4665,13.34205],[77.46542,13.34075],[77.46533,13.33869],[77.46588,13.3386],[77.46821,13.33614],[77.46944,13.33584],[77.46946,13.33451],[77.47025,13.33439],[77.47104,13.33201],[77.47198,13.33172],[77.47316,13.33041],[77.47214,13.32875],[77.47271,13.32836],[77.47222,13.32819],[77.47154,13.32434],[77.47133,13.32469],[77.46936,13.32432],[77.46947,13.32373],[77.47142,13.32402],[77.47226,13.32172],[77.47416,13.32034],[77.47263,13.3167],[77.47189,13.31334],[77.46968,13.31331],[77.47002,13.30953],[77.46848,13.30322],[77.46746,13.29539],[77.47443,13.29592],[77.47759,13.29494],[77.48253,13.29554],[77.48236,13.29072],[77.48086,13.28578],[77.4823,13.2838],[77.48185,13.27977],[77.48269,13.27797],[77.48252,13.27706],[77.48176,13.2741],[77.47985,13.26999],[77.47561,13.26648],[77.47491,13.26459],[77.47473,13.26044],[77.47375,13.25732],[77.47604,13.25703],[77.47908,13.25392],[77.48424,13.25144],[77.50057,13.25091],[77.50242,13.25046],[77.50507,13.24721],[77.50606,13.24705],[77.50916,13.24668],[77.51196,13.24712],[77.51538,13.24822],[77.51748,13.24973],[77.52009,13.25061],[77.52633,13.25054],[77.52653,13.24859],[77.52747,13.2482],[77.5276,13.24659],[77.52708,13.2451],[77.52779,13.2438],[77.52809,13.24046],[77.53356,13.24046],[77.53508,13.24],[77.53414,13.23627],[77.53868,13.23429],[77.5432,13.233],[77.54295,13.22983],[77.54167,13.22626],[77.54064,13.22601],[77.54001,13.22527],[77.53869,13.22564],[77.53723,13.21904],[77.52738,13.22106],[77.52736,13.22153],[77.52649,13.22164],[77.52637,13.2203],[77.52525,13.21886],[77.52498,13.21775],[77.52539,13.21718],[77.52432,13.21588],[77.52393,13.21594],[77.52281,13.21368],[77.52223,13.21364],[77.52197,13.20817],[77.52128,13.20687],[77.5205,13.20716],[77.52168,13.20887],[77.52079,13.20946],[77.5216,13.21034],[77.52136,13.21085],[77.51953,13.21113],[77.51916,13.20922],[77.51812,13.20942],[77.51863,13.2118],[77.51918,13.21174],[77.52004,13.21414],[77.51994,13.21457],[77.51813,13.21428],[77.5193,13.2164],[77.51815,13.21837],[77.51847,13.22058],[77.51694,13.2215],[77.51148,13.22283],[77.51209,13.22598],[77.50801,13.227],[77.50689,13.22381],[77.5029,13.22564],[77.50164,13.22562],[77.50105,13.22594],[77.50117,13.22647],[77.49957,13.22702],[77.49019,13.22407],[77.48319,13.2229],[77.4792,13.2242],[77.47434,13.21515],[77.47371,13.21154],[77.47358,13.20703],[77.47881,13.20702],[77.4781,13.20421],[77.47852,13.20053],[77.47819,13.19551],[77.47726,13.19283],[77.47602,13.18567],[77.47502,13.1833],[77.47173,13.17966],[77.46916,13.17504],[77.46855,13.17285],[77.46838,13.16805],[77.46608,13.16802],[77.46692,13.1623],[77.46188,13.16172],[77.46095,13.16041],[77.4587,13.16223],[77.45697,13.16283]]],[[[77.48691,13.42616],[77.48793,13.42614],[77.48852,13.42439],[77.48864,13.42497],[77.49119,13.42559],[77.49402,13.42505],[77.49433,13.4256],[77.49495,13.42494],[77.49522,13.42544],[77.50245,13.42466],[77.50143,13.40789],[77.48827,13.40831],[77.4881,13.40993],[77.48515,13.40955],[77.48067,13.40686],[77.47867,13.40704],[77.47678,13.40535],[77.47517,13.41386],[77.47709,13.41322],[77.48432,13.41387],[77.48339,13.41801],[77.48255,13.41972],[77.48501,13.42718],[77.4868,13.42674],[77.48691,13.42616]]],[[[77.47454,13.46784],[77.47703,13.46647],[77.4839,13.46713],[77.4856,13.46555],[77.48815,13.46159],[77.49366,13.45855],[77.4928,13.45445],[77.48763,13.45548],[77.48752,13.45621],[77.48463,13.45643],[77.48202,13.45602],[77.48186,13.45565],[77.4791,13.45593],[77.47228,13.46438],[77.46707,13.46676],[77.47176,13.46938],[77.47454,13.46784]]],[[[77.42293,13.47152],[77.42544,13.47081],[77.4284,13.47073],[77.43479,13.46854],[77.43413,13.46417],[77.43195,13.46295],[77.43083,13.45994],[77.4299,13.4561],[77.43027,13.45514],[77.42983,13.45583],[77.4286,13.4563],[77.42869,13.45788],[77.42303,13.45851],[77.4201,13.46039],[77.42057,13.4637],[77.42293,13.47152]]]]}},{"type":"Feature","properties":{"unitId":104,"unitName":"Nelamangala Town PS"},"geometry":{"type":"MultiPolygon","coordinates":[[[[77.40605,13.10681],[77.41243,13.10397],[77.41791,13.10279],[77.41482,13.09246],[77.41902,13.08975],[77.42188,13.08901],[77.42082,13.085],[77.42148,13.08432],[77.42302,13.08374],[77.42465,13.08504],[77.42596,13.08511],[77.43001,13.08368],[77.42721,13.07665],[77.42463,13.06768],[77.4208,13.06761],[77.41672,13.06899],[77.41479,13.07235],[77.41225,13.07248],[77.40846,13.07191],[77.40823,13.07868],[77.40568,13.08097],[77.40011,13.08347],[77.40047,13.08676],[77.40123,13.0885],[77.40319,13.09014],[77.40515,13.09085],[77.40848,13.09371],[77.407,13.09514],[77.40659,13.09665],[77.40534,13.09749],[77.40592,13.09878],[77.3998,13.10197],[77.401,13.10635],[77.40256,13.10865],[77.40605,13.10681]]],[[[77.3917,13.09087],[77.39274,13.08473],[77.39274,13.07737],[77.38956,13.07801],[77.38415,13.08173],[77.37798,13.08252],[77.37458,13.08411],[77.37379,13.0858],[77.37473,13.08716],[77.37532,13.08718],[77.37715,13.09098],[77.37994,13.0952],[77.38306,13.09396],[77.3876,13.0931],[77.39178,13.09152],[77.3917,13.09087]]],[[[77.3947,13.11985],[77.39355,13.11653],[77.39284,13.10627],[77.39028,13.10491],[77.38711,13.10607],[77.38663,13.10467],[77.38242,13.1055],[77.38054,13.10693],[77.37857,13.10758],[77.38067,13.11444],[77.38308,13.1197],[77.38611,13.11954],[77.38855,13.12004],[77.39283,13.12208],[77.39495,13.12138],[77.3947,13.11985]]],[[[77.37466,13.06959],[77.37751,13.06888],[77.37748,13.06804],[77.37602,13.06562],[77.37536,13.06612],[77.37565,13.06672],[77.37285,13.06807],[77.37364,13.06986],[77.37466,13.06959]]]]}},{"type":"Feature","properties":{"unitId":105,"unitName":"Nelamangala Rural PS"},"geometry":{"type":"MultiPolygon","coordinates":[[[[77.3762,13.18005],[77.3843,13.17746],[77.38639,13.17741],[77.38898,13.17866],[77.39088,13.17873],[77.39433,13.17741],[77.39685,13.17728],[77.40286,13.17468],[77.41569,13.17226],[77.41882,13.17003],[77.42039,13.16983],[77.42836,13.16558],[77.43248,13.16488],[77.4308,13.15967],[77.42968,13.15882],[77.42062,13.14272],[77.41828,13.13714],[77.41376,13.12955],[77.4128,13.12639],[77.40927,13.1234],[77.40909,13.12263],[77.4061,13.12114],[77.40413,13.12092],[77.40335,13.12096],[77.40416,13.12472],[77.40389,13.12788],[77.39964,13.12753],[77.39898,13.12574],[77.39741,13.11613],[77.40139,13.11506],[77.40188,13.114],[77.40068,13.11034],[77.40116,13.10946],[77.40256,13.10865],[77.401,13.10635],[77.3998,13.10197],[77.40592,13.09878],[77.40534,13.09749],[77.40659,13.09665],[77.407,13.09514],[77.40848,13.09371],[77.40515,13.09085],[77.40319,13.09014],[77.40123,13.0885],[77.40047,13.08676],[77.40011,13.08347],[77.40568,13.08097],[77.40823,13.07868],[77.40846,13.07191],[77.40379,13.07108],[77.39729,13.07162],[77.39691,13.06983],[77.39524,13.06978],[77.39406,13.06922],[77.38984,13.06938],[77.38816,13.06765],[77.38512,13.06743],[77.3841,13.06677],[77.38219,13.05892],[77.38225,13.05578],[77.38693,13.05496],[77.39182,13.05533],[77.39226,13.05428],[77.39386,13.05329],[77.39388,13.05104],[77.3934,13.05091],[77.39198,13.03964],[77.39237,13.03786],[77.3921,13.0347],[77.3906,13.02757],[77.39093,13.02585],[77.38797,13.02598],[77.38402,13.02753],[77.3786,13.02723],[77.37736,13.03003],[77.37692,13.02985],[77.3768,13.02596],[77.37772,13.02391],[77.37679,13.01792],[77.37701,13.01661],[77.37082,13.01624],[77.37095,13.01379],[77.36995,13.0086],[77.37063,13.00616],[77.37141,13.00542],[77.37206,13.00544],[77.37305,13.00422],[77.37243,13.00422],[77.3704,12.9997],[77.3713,12.99565],[77.37227,12.99462],[77.37195,12.99213],[77.37014,12.99133],[77.36736,12.99093],[77.36579,12.98943],[77.36521,12.98789],[77.36427,12.98762],[77.36154,12.98861],[77.3595,12.98854],[77.35752,12.98677],[77.35507,12.98552],[77.3538,12.97826],[77.35203,12.97574],[77.35123,12.97587],[77.35006,12.97441],[77.33899,12.97247],[77.33778,12.97375],[77.33773,12.97835],[77.33332,12.97855],[77.33113,12.97818],[77.32857,12.97691],[77.32592,12.99341],[77.32208,13.00378],[77.32223,13.0046],[77.32115,13.00445],[77.32159,13.00557],[77.32225,13.00532],[77.32172,13.0087],[77.32757,13.00854],[77.32808,13.00938],[77.32659,13.01155],[77.32674,13.0157],[77.3263,13.0164],[77.32629,13.01983],[77.32577,13.02193],[77.32684,13.02451],[77.32816,13.02553],[77.32919,13.02549],[77.3305,13.02768],[77.33006,13.02948],[77.32915,13.03027],[77.32887,13.03123],[77.32986,13.0334],[77.33012,13.03662],[77.32931,13.03971],[77.33103,13.04141],[77.33074,13.04387],[77.33006,13.0447],[77.33059,13.04798],[77.32193,13.04903],[77.31676,13.048],[77.31611,13.04731],[77.31424,13.04752],[77.31301,13.04676],[77.31069,13.04629],[77.3086,13.05676],[77.30914,13.05954],[77.30879,13.0677],[77.30942,13.07544],[77.3089,13.0787],[77.30977,13.08335],[77.30936,13.08333],[77.3102,13.09018],[77.31246,13.09783],[77.31256,13.10143],[77.31373,13.10681],[77.30997,13.10756],[77.30311,13.11073],[77.30385,13.12061],[77.31073,13.12275],[77.31105,13.13693],[77.31192,13.13682],[77.31332,13.13835],[77.31504,13.13822],[77.31724,13.13926],[77.32114,13.14244],[77.3214,13.14738],[77.32481,13.15802],[77.32225,13.16784],[77.32745,13.16774],[77.33376,13.16601],[77.33649,13.16479],[77.34226,13.17246],[77.3432,13.17233],[77.34625,13.17131],[77.34618,13.1691],[77.34673,13.16898],[77.34664,13.1679],[77.34981,13.16585],[77.35471,13.16393],[77.35596,13.16272],[77.3564,13.1613],[77.35996,13.16153],[77.36229,13.16211],[77.36218,13.16482],[77.36316,13.16625],[77.36331,13.16747],[77.36238,13.16793],[77.36204,13.17004],[77.3598,13.17102],[77.3596,13.17534],[77.35376,13.17682],[77.35473,13.18329],[77.35536,13.18434],[77.3655,13.18153],[77.3762,13.18005]],[[77.37793,13.0917],[77.37715,13.09098],[77.37532,13.08718],[77.37473,13.08716],[77.37379,13.0858],[77.37458,13.08411],[77.37798,13.08252],[77.38415,13.08173],[77.38956,13.07801],[77.39274,13.07737],[77.39274,13.08473],[77.39178,13.09152],[77.37994,13.0952],[77.37793,13.0917]],[[77.38733,13.11979],[77.38308,13.1197],[77.38067,13.11444],[77.37857,13.10758],[77.38333,13.10524],[77.38663,13.10467],[77.38711,13.10607],[77.39028,13.10491],[77.39284,13.10627],[77.39355,13.11653],[77.39495,13.12138],[77.39283,13.12208],[77.38733,13.11979]],[[77.37578,13.06587],[77.37602,13.06562],[77.37748,13.06804],[77.37751,13.06888],[77.37364,13.06986],[77.37285,13.06807],[77.37565,13.06672],[77.37535,13.06621],[77.37578,13.06587]]],[[[77.41956,13.0958],[77.41908,13.09559],[77.41885,13.09432],[77.41699,13.09113],[77.41482,13.09246],[77.41648,13.09807],[77.42011,13.09673],[77.41956,13.0958]]]]}},{"type":"Feature","properties":{"unitId":106,"unitName":"Hosahalli PS"},"geometry":{"type":"MultiPolygon","coordinates":[[[[77.38584,13.49908],[77.38789,13.49856],[77.39966,13.49323],[77.40206,13.49354],[77.40249,13.49423],[77.40309,13.49407],[77.40356,13.495],[77.40464,13.49454],[77.40768,13.49591],[77.40931,13.49507],[77.41097,13.49345],[77.41586,13.49103],[77.41528,13.48939],[77.41539,13.48735],[77.41639,13.48465],[77.41732,13.48381],[77.41919,13.48344],[77.42186,13.48409],[77.42483,13.48346],[77.42484,13.48269],[77.42604,13.48209],[77.42628,13.48115],[77.42531,13.48078],[77.42468,13.4793],[77.42057,13.4637],[77.4201,13.46039],[77.42303,13.45851],[77.42869,13.45788],[77.4286,13.4563],[77.42983,13.45583],[77.43002,13.4552],[77.43083,13.45994],[77.43195,13.46295],[77.43438,13.46446],[77.43426,13.4641],[77.43562,13.46341],[77.43966,13.46201],[77.44359,13.46132],[77.44352,13.46188],[77.44842,13.46241],[77.45122,13.46534],[77.45459,13.46581],[77.45447,13.46443],[77.45514,13.46408],[77.45489,13.46857],[77.45693,13.46885],[77.45803,13.46884],[77.46154,13.46296],[77.46406,13.46417],[77.46721,13.46678],[77.47228,13.46438],[77.4791,13.45593],[77.48186,13.45565],[77.48202,13.45602],[77.48463,13.45643],[77.48752,13.45621],[77.48763,13.45548],[77.4928,13.45445],[77.49366,13.45855],[77.49877,13.4578],[77.50229,13.45795],[77.50629,13.45658],[77.50519,13.4514],[77.50587,13.44965],[77.50392,13.44324],[77.50339,13.43959],[77.50227,13.43705],[77.50177,13.43701],[77.50243,13.42466],[77.49522,13.42544],[77.49495,13.42494],[77.49433,13.4256],[77.49402,13.42505],[77.49119,13.42559],[77.48864,13.42497],[77.48852,13.42439],[77.48793,13.42614],[77.48706,13.42603],[77.4868,13.42674],[77.48501,13.42718],[77.48251,13.41947],[77.48339,13.41801],[77.48432,13.41387],[77.47709,13.41322],[77.47517,13.41386],[77.47686,13.40596],[77.46971,13.40538],[77.46979,13.40483],[77.46186,13.4029],[77.44561,13.40512],[77.44544,13.40573],[77.44122,13.40449],[77.42997,13.40368],[77.4277,13.40399],[77.42584,13.40365],[77.4224,13.40449],[77.41238,13.40987],[77.4136,13.41418],[77.41109,13.41854],[77.4075,13.42332],[77.4094,13.42534],[77.40524,13.43065],[77.40093,13.42763],[77.39615,13.42817],[77.39336,13.43306],[77.38263,13.42891],[77.38007,13.42733],[77.3768,13.42482],[77.37398,13.42086],[77.3718,13.42197],[77.36582,13.42282],[77.36421,13.42347],[77.3651,13.42657],[77.36343,13.42911],[77.36375,13.43339],[77.36267,13.43595],[77.35982,13.43836],[77.35853,13.43819],[77.35518,13.43985],[77.35331,13.43911],[77.3491,13.44424],[77.34954,13.4462],[77.34901,13.45723],[77.35166,13.4582],[77.35361,13.45951],[77.35619,13.46206],[77.35977,13.46259],[77.36565,13.46224],[77.36706,13.46982],[77.37361,13.47097],[77.37089,13.47827],[77.37265,13.48408],[77.37626,13.48452],[77.37645,13.49013],[77.37843,13.4932],[77.38499,13.4993],[77.38584,13.49908]]],[[[77.35318,13.41534],[77.35604,13.41484],[77.35633,13.41433],[77.36193,13.41522],[77.36156,13.4109],[77.36184,13.40655],[77.36119,13.40261],[77.35629,13.40246],[77.35255,13.4015],[77.34669,13.40303],[77.34271,13.40282],[77.34548,13.4089],[77.34731,13.41812],[77.35318,13.41534]]]]}},{"type":"Feature","properties":{"unitId":107,"unitName":"Dobbespet PS"},"geometry":{"type":"MultiPolygon","coordinates":[[[[77.33037,13.33028],[77.3303,13.32945],[77.33227,13.32931],[77.33368,13.3284],[77.33864,13.3288],[77.34087,13.32405],[77.3427,13.31601],[77.33741,13.31417],[77.33504,13.3147],[77.33249,13.31651],[77.33007,13.31457],[77.32553,13.30436],[77.32037,13.3034],[77.31807,13.29896],[77.31621,13.298],[77.31675,13.2956],[77.31571,13.29499],[77.31426,13.29504],[77.31396,13.29391],[77.31432,13.29335],[77.31325,13.29143],[77.31295,13.28775],[77.31265,13.28805],[77.31222,13.28724],[77.3103,13.28246],[77.30638,13.2821],[77.3032,13.28078],[77.29976,13.28044],[77.2996,13.2798],[77.29009,13.28109],[77.28919,13.27787],[77.2887,13.2726],[77.28624,13.26394],[77.28593,13.25893],[77.28293,13.25829],[77.28279,13.257],[77.28187,13.25621],[77.28181,13.25313],[77.28099,13.24916],[77.27962,13.24907],[77.27952,13.23408],[77.27535,13.22886],[77.27421,13.22896],[77.27159,13.22644],[77.27099,13.22435],[77.27235,13.22164],[77.27223,13.21615],[77.2734,13.21374],[77.27686,13.21092],[77.27947,13.21033],[77.28054,13.20962],[77.28064,13.20207],[77.28112,13.1997],[77.28796,13.19767],[77.28925,13.19789],[77.29183,13.1966],[77.29035,13.19252],[77.2901,13.18626],[77.28839,13.183],[77.2879,13.18325],[77.28793,13.18403],[77.28229,13.18559],[77.27781,13.1743],[77.27688,13.16878],[77.27734,13.1678],[77.28148,13.16655],[77.28567,13.16608],[77.28615,13.16343],[77.28589,13.1595],[77.28561,13.15903],[77.28504,13.15911],[77.28426,13.15651],[77.28396,13.15083],[77.28295,13.15006],[77.28278,13.14924],[77.27544,13.14814],[77.27439,13.14696],[77.27425,13.15359],[77.27305,13.15403],[77.26984,13.15419],[77.26689,13.15185],[77.26544,13.15169],[77.2598,13.15212],[77.2585,13.15246],[77.25747,13.15345],[77.25434,13.15308],[77.25211,13.15336],[77.25071,13.15261],[77.24673,13.15329],[77.24264,13.14709],[77.24044,13.14569],[77.23353,13.14666],[77.23163,13.14736],[77.23063,13.14515],[77.2216,13.14635],[77.22191,13.14851],[77.21736,13.14913],[77.2155,13.14881],[77.21301,13.15346],[77.21363,13.15717],[77.21653,13.1591],[77.21611,13.16534],[77.21447,13.16791],[77.21029,13.16998],[77.20948,13.17256],[77.20755,13.17336],[77.20683,13.17515],[77.20703,13.17887],[77.20585,13.18106],[77.20283,13.18221],[77.20327,13.18446],[77.20662,13.18843],[77.20729,13.19198],[77.20708,13.19736],[77.2035,13.19708],[77.20364,13.19597],[77.20248,13.19457],[77.20087,13.19469],[77.20064,13.19533],[77.19865,13.19538],[77.19928,13.20258],[77.19776,13.20549],[77.19511,13.20689],[77.19415,13.20944],[77.19471,13.21007],[77.1949,13.2165],[77.19417,13.21945],[77.19454,13.22261],[77.19347,13.22534],[77.19016,13.22488],[77.18844,13.22517],[77.18361,13.23004],[77.18441,13.23493],[77.18424,13.2364],[77.18519,13.23648],[77.18522,13.23823],[77.18972,13.23792],[77.19108,13.24148],[77.19071,13.24598],[77.18933,13.24746],[77.18768,13.25054],[77.1865,13.25583],[77.18485,13.25658],[77.18767,13.27153],[77.18866,13.27468],[77.18878,13.27535],[77.18832,13.2756],[77.18983,13.27592],[77.19067,13.2756],[77.19184,13.27417],[77.1935,13.27353],[77.19348,13.27192],[77.19278,13.27106],[77.19363,13.26923],[77.1983,13.26801],[77.19999,13.26844],[77.20143,13.26534],[77.20493,13.26288],[77.21516,13.2608],[77.21923,13.26174],[77.22228,13.26749],[77.21963,13.27357],[77.22217,13.2843],[77.22189,13.28605],[77.22308,13.29079],[77.22287,13.29638],[77.22446,13.30104],[77.22727,13.30585],[77.22898,13.31417],[77.22977,13.31456],[77.23207,13.31347],[77.2328,13.3112],[77.23411,13.31022],[77.2353,13.31024],[77.23631,13.31115],[77.23727,13.31089],[77.23767,13.30918],[77.23937,13.30902],[77.24062,13.30728],[77.24054,13.30666],[77.24191,13.30582],[77.24152,13.30449],[77.24228,13.30385],[77.24221,13.30257],[77.24353,13.30221],[77.24485,13.30307],[77.24734,13.30179],[77.24946,13.30253],[77.25352,13.30289],[77.25317,13.30306],[77.25338,13.30468],[77.25493,13.30747],[77.25476,13.30884],[77.26589,13.3109],[77.27029,13.31096],[77.26918,13.30869],[77.26951,13.30612],[77.27549,13.29759],[77.28218,13.29718],[77.28078,13.3021],[77.28159,13.31076],[77.28354,13.31119],[77.28527,13.31074],[77.29176,13.31129],[77.29447,13.31062],[77.30098,13.31019],[77.30452,13.31056],[77.30892,13.31009],[77.31039,13.31706],[77.31203,13.32064],[77.32036,13.32374],[77.32405,13.32622],[77.3253,13.32757],[77.32665,13.32757],[77.32753,13.32852],[77.32852,13.32834],[77.32827,13.32941],[77.33037,13.33028]]],[[[77.29295,13.19106],[77.29633,13.1905],[77.29778,13.18958],[77.297,13.18874],[77.29716,13.18714],[77.29458,13.18575],[77.29095,13.18721],[77.29122,13.18923],[77.29244,13.18888],[77.29235,13.18957],[77.29141,13.1897],[77.29148,13.19136],[77.29295,13.19106]]]]}},{"type":"Feature","properties":{"unitId":108,"unitName":"Thyamagondlu PS"},"geometry":{"type":"Polygon","coordinates":[[[77.34522,13.31562],[77.34672,13.31519],[77.346,13.31225],[77.3465,13.31017],[77.34872,13.30604],[77.3491,13.30635],[77.34964,13.30476],[77.34928,13.30437],[77.35013,13.3027],[77.34998,13.30182],[77.35134,13.30173],[77.3519,13.30118],[77.35272,13.29768],[77.35216,13.29769],[77.35181,13.29595],[77.3511,13.29606],[77.35041,13.29142],[77.34764,13.29201],[77.34712,13.28852],[77.34388,13.27987],[77.33939,13.28118],[77.33831,13.28083],[77.33708,13.28154],[77.3372,13.28293],[77.33532,13.28385],[77.33303,13.28446],[77.33167,13.28415],[77.33123,13.28536],[77.32431,13.28632],[77.32435,13.28694],[77.32349,13.28731],[77.32145,13.28723],[77.3213,13.28619],[77.32069,13.28594],[77.31922,13.28647],[77.3167,13.28641],[77.31672,13.28456],[77.32159,13.28111],[77.3227,13.27982],[77.33009,13.27604],[77.33567,13.27479],[77.3355,13.27288],[77.33638,13.26758],[77.33862,13.26406],[77.34244,13.25957],[77.35122,13.25862],[77.35262,13.25757],[77.35552,13.25661],[77.35676,13.25935],[77.36103,13.26122],[77.36348,13.26313],[77.36781,13.26178],[77.36794,13.26139],[77.37383,13.25984],[77.37381,13.25573],[77.3744,13.25373],[77.37288,13.24991],[77.37301,13.24366],[77.37246,13.2395],[77.37278,13.23668],[77.3721,13.22981],[77.37601,13.22533],[77.37647,13.22147],[77.37435,13.21744],[77.37327,13.21176],[77.37307,13.20762],[77.37685,13.20619],[77.3857,13.20426],[77.38986,13.2027],[77.3902,13.19774],[77.38806,13.19202],[77.38959,13.19147],[77.39246,13.18558],[77.39236,13.18471],[77.39306,13.18446],[77.39269,13.17831],[77.38898,13.17866],[77.38735,13.17762],[77.3843,13.17746],[77.37703,13.18004],[77.3655,13.18153],[77.35536,13.18434],[77.35473,13.18329],[77.35376,13.17682],[77.3596,13.17534],[77.3598,13.17102],[77.36204,13.17004],[77.36238,13.16793],[77.36331,13.16747],[77.36316,13.16625],[77.36218,13.16482],[77.36229,13.16211],[77.35996,13.16153],[77.3564,13.1613],[77.35596,13.16272],[77.35471,13.16393],[77.34981,13.16585],[77.34664,13.1679],[77.34673,13.16898],[77.34618,13.1691],[77.34625,13.17131],[77.3432,13.17233],[77.34226,13.17246],[77.33649,13.16479],[77.33376,13.16601],[77.32745,13.16774],[77.32225,13.16784],[77.32481,13.15802],[77.3214,13.14738],[77.32114,13.14244],[77.31724,13.13926],[77.31504,13.13822],[77.31332,13.13835],[77.31192,13.13682],[77.31105,13.13693],[77.31073,13.12275],[77.30385,13.12061],[77.30309,13.11075],[77.30237,13.11017],[77.3,13.10976],[77.29859,13.10867],[77.29495,13.10916],[77.29192,13.11053],[77.29234,13.11228],[77.29096,13.12102],[77.28698,13.12046],[77.28641,13.12408],[77.2867,13.12459],[77.28554,13.12744],[77.28496,13.13374],[77.28083,13.13501],[77.27899,13.13508],[77.27867,13.13077],[77.2781,13.13061],[77.27822,13.12784],[77.27716,13.12496],[77.27696,13.12047],[77.27488,13.11995],[77.27385,13.11868],[77.2724,13.11912],[77.26855,13.11889],[77.2683,13.11946],[77.26681,13.11983],[77.26653,13.12267],[77.26568,13.12294],[77.26597,13.12327],[77.26545,13.12376],[77.26569,13.12477],[77.26519,13.12574],[77.26683,13.12618],[77.26548,13.12874],[77.26555,13.12997],[77.2649,13.13166],[77.26546,13.13307],[77.26639,13.13308],[77.26711,13.13485],[77.26736,13.14343],[77.27142,13.14392],[77.27255,13.14184],[77.2745,13.14294],[77.27439,13.14696],[77.27544,13.14814],[77.28278,13.14924],[77.28295,13.15006],[77.28396,13.15083],[77.28426,13.15651],[77.28504,13.15911],[77.28561,13.15903],[77.28589,13.1595],[77.28615,13.16343],[77.28567,13.16608],[77.28148,13.16655],[77.27734,13.1678],[77.27688,13.16878],[77.27781,13.1743],[77.28229,13.18559],[77.28793,13.18403],[77.2879,13.18325],[77.28839,13.183],[77.2901,13.18626],[77.29035,13.19252],[77.29183,13.1966],[77.28925,13.19789],[77.28796,13.19767],[77.28112,13.1997],[77.28064,13.20207],[77.28054,13.20962],[77.27947,13.21033],[77.27686,13.21092],[77.2734,13.21374],[77.27223,13.21615],[77.27235,13.22164],[77.27099,13.22435],[77.27159,13.22644],[77.27421,13.22896],[77.27535,13.22886],[77.27952,13.23408],[77.27962,13.24907],[77.28099,13.24916],[77.28181,13.25313],[77.28187,13.25621],[77.28279,13.257],[77.28293,13.25829],[77.28593,13.25893],[77.28624,13.26394],[77.2887,13.2726],[77.28919,13.27787],[77.29009,13.28109],[77.2996,13.2798],[77.29976,13.28044],[77.3032,13.28078],[77.30638,13.2821],[77.3103,13.28246],[77.31222,13.28724],[77.31265,13.28805],[77.31295,13.28775],[77.31325,13.29143],[77.31432,13.29335],[77.31396,13.29391],[77.31426,13.29504],[77.31571,13.29499],[77.31675,13.2956],[77.31621,13.298],[77.31807,13.29896],[77.32037,13.3034],[77.32553,13.30436],[77.33007,13.31457],[77.33249,13.31651],[77.33504,13.3147],[77.33741,13.31417],[77.3427,13.31601],[77.34251,13.31685],[77.34403,13.31722],[77.34522,13.31562]],[[77.29236,13.18947],[77.29244,13.18888],[77.29122,13.18923],[77.29095,13.18721],[77.29458,13.18575],[77.29716,13.18714],[77.297,13.18874],[77.29778,13.18958],[77.29633,13.1905],[77.29148,13.19136],[77.29141,13.1897],[77.29236,13.18947]]]}},{"type":"Feature","properties":{"unitId":109,"unitName":"Doddaballapura Town PS"},"geometry":{"type":"Polygon","coordinates":[[[77.54971,13.34812],[77.55194,13.34634],[77.55279,13.34698],[77.55923,13.34704],[77.56489,13.34818],[77.56868,13.34813],[77.57014,13.34755],[77.57286,13.34288],[77.57583,13.34209],[77.575,13.33731],[77.57525,13.33323],[77.58532,13.3306],[77.58512,13.33268],[77.59144,13.33424],[77.59331,13.33637],[77.60653,13.33452],[77.6077,13.33399],[77.60818,13.33469],[77.61282,13.33594],[77.61942,13.33607],[77.61938,13.33507],[77.62069,13.33217],[77.6219,13.33322],[77.62629,13.33434],[77.62802,13.33077],[77.62974,13.32956],[77.62937,13.32572],[77.63013,13.31821],[77.62971,13.31547],[77.62714,13.31531],[77.6219,13.30876],[77.61931,13.30946],[77.61935,13.31055],[77.61482,13.31183],[77.61485,13.31271],[77.61108,13.3126],[77.61029,13.31031],[77.61121,13.30821],[77.61089,13.30644],[77.61147,13.30224],[77.61127,13.29986],[77.60509,13.29822],[77.60192,13.29679],[77.60125,13.29005],[77.60284,13.28724],[77.60467,13.28521],[77.60465,13.28302],[77.60096,13.28195],[77.60093,13.28105],[77.60004,13.28106],[77.59998,13.28043],[77.59894,13.28017],[77.59875,13.27891],[77.59636,13.27875],[77.59547,13.27691],[77.59461,13.27665],[77.59404,13.27577],[77.5915,13.27688],[77.5898,13.27705],[77.5879,13.27602],[77.58169,13.27503],[77.58038,13.27165],[77.57511,13.27045],[77.57534,13.26607],[77.57491,13.26],[77.57436,13.25896],[77.57239,13.25837],[77.57163,13.248],[77.57074,13.24773],[77.56447,13.2486],[77.56393,13.24781],[77.56382,13.24587],[77.57045,13.24401],[77.57148,13.24458],[77.57165,13.24418],[77.5707,13.24071],[77.57014,13.23951],[77.5697,13.2396],[77.56994,13.23804],[77.56959,13.23806],[77.56927,13.23658],[77.56793,13.23439],[77.5642,13.23578],[77.56103,13.23867],[77.55898,13.23208],[77.55307,13.23347],[77.55171,13.23467],[77.54934,13.23152],[77.54375,13.23277],[77.53868,13.23429],[77.53414,13.23627],[77.53508,13.24],[77.53356,13.24046],[77.52809,13.24046],[77.52779,13.2438],[77.52708,13.2451],[77.5276,13.24659],[77.52747,13.2482],[77.52653,13.24859],[77.52633,13.25054],[77.52009,13.25061],[77.51748,13.24973],[77.51538,13.24822],[77.51196,13.24712],[77.50916,13.24668],[77.50606,13.24705],[77.50507,13.24721],[77.50242,13.25046],[77.50057,13.25091],[77.48424,13.25144],[77.47908,13.25392],[77.47604,13.25703],[77.47375,13.25732],[77.47473,13.26044],[77.47491,13.26459],[77.47561,13.26648],[77.47985,13.26999],[77.48176,13.2741],[77.48252,13.27706],[77.48269,13.27797],[77.48185,13.27977],[77.4823,13.2838],[77.48086,13.28578],[77.48236,13.29072],[77.48259,13.29449],[77.48253,13.29554],[77.47759,13.29494],[77.47443,13.29592],[77.46745,13.29544],[77.46848,13.30322],[77.47002,13.30953],[77.46968,13.31331],[77.47189,13.31334],[77.47263,13.3167],[77.47416,13.32034],[77.47226,13.32172],[77.47142,13.32402],[77.46947,13.32373],[77.46936,13.32432],[77.47133,13.32469],[77.47154,13.32434],[77.47222,13.32819],[77.47271,13.32836],[77.47214,13.32875],[77.47316,13.33041],[77.47198,13.33172],[77.47104,13.33201],[77.47025,13.33439],[77.47294,13.33525],[77.47718,13.3351],[77.47644,13.33192],[77.47672,13.32937],[77.47849,13.32972],[77.4786,13.33076],[77.47911,13.33084],[77.47947,13.33031],[77.48123,13.33135],[77.48858,13.33115],[77.49247,13.33215],[77.49228,13.33857],[77.4912,13.34018],[77.48918,13.34013],[77.49015,13.3471],[77.49481,13.34697],[77.49982,13.34853],[77.50278,13.34747],[77.50539,13.34757],[77.50758,13.34653],[77.51255,13.34583],[77.515,13.3411],[77.51781,13.34042],[77.51952,13.34107],[77.52078,13.34094],[77.5238,13.33779],[77.52382,13.34138],[77.52436,13.34315],[77.52754,13.34781],[77.53694,13.34595],[77.53771,13.34613],[77.53768,13.34815],[77.54173,13.34819],[77.54222,13.35002],[77.54971,13.34812]]]}},{"type":"Feature","properties":{"unitId":110,"unitName":"ChannarayapatnaPS"},"geometry":{"type":"Polygon","coordinates":[[[77.72487,13.11239],[77.72541,13.1139],[77.72475,13.12833],[77.7259,13.1352],[77.72059,13.13616],[77.72013,13.14267],[77.72247,13.14374],[77.72253,13.14481],[77.72427,13.14573],[77.72557,13.14914],[77.72845,13.14876],[77.72849,13.15234],[77.72931,13.15402],[77.72721,13.15546],[77.726,13.15815],[77.72592,13.16236],[77.72803,13.16831],[77.72732,13.1692],[77.72982,13.17211],[77.73023,13.17331],[77.72364,13.17741],[77.72898,13.18523],[77.73549,13.18383],[77.73558,13.19797],[77.73708,13.20905],[77.73783,13.2097],[77.74255,13.21113],[77.74284,13.22191],[77.74113,13.22262],[77.74242,13.22583],[77.74267,13.22837],[77.74357,13.22831],[77.74381,13.22918],[77.74817,13.22869],[77.74873,13.22997],[77.7452,13.23268],[77.74403,13.23506],[77.74373,13.23633],[77.74478,13.24007],[77.75046,13.2411],[77.75361,13.24131],[77.75554,13.24085],[77.75581,13.24256],[77.75261,13.24361],[77.75026,13.24373],[77.74875,13.24682],[77.74967,13.24888],[77.74777,13.24915],[77.74795,13.25454],[77.74662,13.25459],[77.74777,13.2599],[77.7513,13.26179],[77.75407,13.26141],[77.75668,13.25951],[77.75696,13.26072],[77.76069,13.26171],[77.76471,13.25988],[77.77142,13.25908],[77.77256,13.25901],[77.7727,13.25945],[77.77304,13.25898],[77.77429,13.26041],[77.77657,13.25963],[77.78147,13.25892],[77.79155,13.25919],[77.79773,13.25529],[77.79913,13.2555],[77.80316,13.25438],[77.80637,13.25963],[77.80767,13.25945],[77.80852,13.26187],[77.81486,13.26096],[77.82194,13.25783],[77.81903,13.25475],[77.81718,13.25534],[77.81305,13.25095],[77.81171,13.24888],[77.81132,13.24649],[77.80937,13.24775],[77.80784,13.2469],[77.80809,13.24561],[77.80628,13.24159],[77.81059,13.24015],[77.81081,13.24053],[77.8116,13.24024],[77.81146,13.23983],[77.814,13.23862],[77.81546,13.24288],[77.81712,13.24557],[77.81772,13.24525],[77.81804,13.24556],[77.8191,13.24755],[77.81987,13.25174],[77.82551,13.2497],[77.82531,13.24905],[77.82683,13.24861],[77.82674,13.24823],[77.82942,13.24793],[77.83387,13.24468],[77.83266,13.23802],[77.83076,13.23605],[77.82683,13.22708],[77.82517,13.22778],[77.82492,13.2271],[77.82392,13.22739],[77.82549,13.22677],[77.82501,13.2255],[77.82425,13.2264],[77.82282,13.22684],[77.82266,13.22788],[77.81878,13.22552],[77.8161,13.22672],[77.81581,13.22643],[77.81579,13.22409],[77.81254,13.2102],[77.81212,13.20618],[77.80665,13.2062],[77.79463,13.20845],[77.78762,13.2106],[77.78695,13.20844],[77.78704,13.20681],[77.78628,13.20493],[77.78658,13.20415],[77.78549,13.1987],[77.78662,13.19728],[77.78668,13.196],[77.78789,13.19395],[77.7866,13.19159],[77.7851,13.19037],[77.78458,13.1872],[77.784,13.18676],[77.78302,13.18725],[77.78107,13.18567],[77.78159,13.18445],[77.78333,13.18363],[77.78268,13.18128],[77.78122,13.18115],[77.78121,13.18037],[77.78216,13.17952],[77.78155,13.17788],[77.78275,13.17697],[77.7825,13.17609],[77.7821,13.17629],[77.78076,13.17444],[77.78314,13.1728],[77.78364,13.17196],[77.78323,13.16941],[77.78087,13.16904],[77.77994,13.16713],[77.78004,13.1659],[77.78084,13.16569],[77.77826,13.16304],[77.77848,13.16085],[77.77763,13.16113],[77.77745,13.16173],[77.77682,13.16119],[77.7764,13.1605],[77.77675,13.15919],[77.7755,13.15836],[77.77412,13.1552],[77.77148,13.15434],[77.77159,13.1531],[77.77073,13.15316],[77.77075,13.15155],[77.76879,13.15059],[77.76672,13.14825],[77.76823,13.14648],[77.76735,13.14554],[77.76734,13.14419],[77.76799,13.14338],[77.76786,13.14261],[77.76632,13.14161],[77.76575,13.13901],[77.76602,13.13732],[77.76729,13.13561],[77.7675,13.13413],[77.76732,13.13364],[77.76504,13.13334],[77.76334,13.13136],[77.76306,13.13049],[77.76386,13.12958],[77.76382,13.1274],[77.76226,13.12712],[77.75905,13.122],[77.76179,13.12186],[77.76179,13.1128],[77.76407,13.10902],[77.75334,13.10928],[77.74939,13.11],[77.74941,13.11045],[77.74571,13.1105],[77.74454,13.1113],[77.73719,13.11211],[77.73631,13.11452],[77.73216,13.11434],[77.72487,13.11239]]]}},{"type":"Feature","properties":{"unitId":111,"unitName":"Doddaballapura Rural PS"},"geometry":{"type":"Polygon","coordinates":[[[77.50665,13.4443],[77.5164,13.44354],[77.5166,13.44103],[77.51618,13.43977],[77.51833,13.43767],[77.51894,13.43646],[77.51936,13.43334],[77.52083,13.43196],[77.52363,13.43165],[77.52572,13.43203],[77.52594,13.43151],[77.5356,13.43055],[77.53813,13.43601],[77.54455,13.43698],[77.55077,13.43471],[77.54978,13.43061],[77.55144,13.42232],[77.55073,13.4184],[77.55184,13.4183],[77.55901,13.41883],[77.56505,13.42011],[77.57171,13.42019],[77.58674,13.4215],[77.58703,13.42013],[77.58778,13.42011],[77.58872,13.41836],[77.59089,13.41809],[77.59089,13.41861],[77.59242,13.41841],[77.59281,13.42173],[77.59043,13.42134],[77.59007,13.42322],[77.58965,13.42835],[77.58904,13.42878],[77.58967,13.43026],[77.58949,13.4324],[77.58997,13.43357],[77.58907,13.43623],[77.59898,13.43609],[77.59935,13.43853],[77.60041,13.44054],[77.60127,13.44065],[77.60238,13.44208],[77.60386,13.44121],[77.60528,13.43713],[77.6079,13.42383],[77.61027,13.42322],[77.61503,13.42002],[77.61609,13.4199],[77.61496,13.41817],[77.6124,13.41615],[77.60892,13.4143],[77.60576,13.41506],[77.60571,13.41597],[77.59978,13.41494],[77.59895,13.41397],[77.59898,13.41102],[77.60141,13.41119],[77.60052,13.40977],[77.60037,13.40805],[77.59866,13.40782],[77.59888,13.40643],[77.59955,13.40534],[77.60118,13.40478],[77.6017,13.39903],[77.60335,13.39752],[77.60667,13.39808],[77.60654,13.39941],[77.60805,13.40033],[77.60834,13.40149],[77.60743,13.40157],[77.60786,13.40314],[77.60703,13.40412],[77.60655,13.40689],[77.60725,13.40781],[77.60782,13.40757],[77.6079,13.40619],[77.60844,13.40567],[77.6125,13.40395],[77.6141,13.40228],[77.61505,13.40203],[77.61589,13.40082],[77.61926,13.40073],[77.62053,13.4023],[77.61727,13.39376],[77.61228,13.3859],[77.61483,13.3844],[77.61858,13.38387],[77.62078,13.38269],[77.62186,13.38056],[77.62184,13.37984],[77.62126,13.37979],[77.62088,13.37525],[77.62564,13.37585],[77.62702,13.3769],[77.62904,13.37571],[77.63275,13.37544],[77.63409,13.37993],[77.63507,13.38045],[77.63603,13.38593],[77.63752,13.38469],[77.63819,13.39404],[77.63884,13.39375],[77.63937,13.39416],[77.63996,13.39354],[77.64045,13.39415],[77.64179,13.39339],[77.64346,13.39356],[77.6446,13.39262],[77.64729,13.39185],[77.6485,13.39245],[77.6486,13.39292],[77.64983,13.39277],[77.64954,13.39348],[77.65055,13.39381],[77.65077,13.39553],[77.65152,13.39562],[77.6533,13.39808],[77.65759,13.39776],[77.6575,13.39232],[77.65107,13.38639],[77.659,13.38233],[77.66117,13.37578],[77.65626,13.37139],[77.65616,13.36847],[77.65649,13.36811],[77.65608,13.36811],[77.65683,13.36543],[77.65684,13.36425],[77.65642,13.36385],[77.6568,13.36223],[77.65631,13.36121],[77.65616,13.35834],[77.65522,13.35704],[77.6615,13.35297],[77.66675,13.35051],[77.66729,13.34645],[77.66237,13.33964],[77.6631,13.33417],[77.66205,13.33019],[77.65712,13.32506],[77.6565,13.3235],[77.65431,13.32281],[77.643,13.32699],[77.64245,13.32851],[77.63839,13.32793],[77.62974,13.32956],[77.62802,13.33077],[77.62629,13.33434],[77.6219,13.33322],[77.62069,13.33217],[77.61938,13.33507],[77.61942,13.33607],[77.61282,13.33594],[77.60818,13.33469],[77.6077,13.33399],[77.60653,13.33452],[77.59331,13.33637],[77.59144,13.33424],[77.58512,13.33268],[77.58532,13.3306],[77.57525,13.33323],[77.575,13.33731],[77.57583,13.34209],[77.57286,13.34288],[77.57014,13.34755],[77.56868,13.34813],[77.56489,13.34818],[77.55923,13.34704],[77.55279,13.34698],[77.55194,13.34634],[77.54984,13.34809],[77.54222,13.35002],[77.54173,13.34819],[77.53768,13.34815],[77.53771,13.34613],[77.53694,13.34595],[77.52754,13.34781],[77.52436,13.34315],[77.52382,13.34138],[77.5238,13.33779],[77.52078,13.34094],[77.51952,13.34107],[77.51781,13.34042],[77.515,13.3411],[77.51255,13.34583],[77.50758,13.34653],[77.50539,13.34757],[77.50278,13.34747],[77.49982,13.34853],[77.49481,13.34697],[77.49015,13.3471],[77.48918,13.34013],[77.4912,13.34018],[77.49228,13.33857],[77.49247,13.33215],[77.48858,13.33115],[77.48123,13.33135],[77.47947,13.33031],[77.47911,13.33084],[77.4786,13.33076],[77.47849,13.32972],[77.47672,13.32937],[77.47644,13.33192],[77.47718,13.3351],[77.4744,13.33539],[77.47145,13.33484],[77.47137,13.33443],[77.46946,13.33451],[77.46944,13.33584],[77.46821,13.33614],[77.46588,13.3386],[77.46533,13.33869],[77.46542,13.34075],[77.4665,13.34205],[77.46762,13.34614],[77.46739,13.34934],[77.46695,13.34993],[77.46626,13.34986],[77.46453,13.35189],[77.46395,13.35338],[77.46328,13.35379],[77.46277,13.35611],[77.46195,13.35697],[77.46122,13.35676],[77.46131,13.35815],[77.44989,13.36023],[77.44752,13.36289],[77.44718,13.36454],[77.44644,13.36505],[77.45287,13.38065],[77.44845,13.3929],[77.44938,13.39361],[77.44962,13.3951],[77.45083,13.39627],[77.46138,13.40181],[77.46132,13.40297],[77.46363,13.40308],[77.46979,13.40483],[77.46971,13.40538],[77.47686,13.40596],[77.47678,13.40535],[77.47867,13.40704],[77.48067,13.40686],[77.48515,13.40955],[77.4881,13.40993],[77.48827,13.40831],[77.50143,13.40789],[77.50245,13.42466],[77.50177,13.43701],[77.50227,13.43705],[77.50339,13.43959],[77.50445,13.44501],[77.50665,13.4443]]]}},{"type":"Feature","properties":{"unitId":112,"unitName":"Vishwanathapura PS"},"geometry":{"type":"MultiPolygon","coordinates":[[[[77.68461,13.35081],[77.68538,13.35007],[77.68704,13.3501],[77.68799,13.34957],[77.68772,13.34842],[77.68911,13.34645],[77.68891,13.34491],[77.69339,13.34292],[77.69516,13.34079],[77.6954,13.3396],[77.69668,13.33828],[77.69665,13.33644],[77.69884,13.33613],[77.69814,13.33493],[77.69953,13.33377],[77.70021,13.33111],[77.70137,13.33094],[77.70281,13.3294],[77.70499,13.32823],[77.7127,13.32728],[77.71167,13.32213],[77.71076,13.32245],[77.7059,13.32165],[77.70203,13.32255],[77.7023,13.31986],[77.70056,13.31909],[77.70057,13.31838],[77.69711,13.31767],[77.69734,13.31417],[77.6986,13.31386],[77.69808,13.31229],[77.69817,13.30799],[77.70018,13.30807],[77.70325,13.3071],[77.70548,13.3072],[77.71132,13.30378],[77.7108,13.30245],[77.71056,13.29689],[77.71173,13.29274],[77.71164,13.28534],[77.71027,13.28276],[77.71026,13.28191],[77.71125,13.28153],[77.71013,13.2791],[77.70837,13.27903],[77.70607,13.2762],[77.70233,13.27606],[77.70205,13.27461],[77.70124,13.27457],[77.70108,13.27379],[77.70186,13.27291],[77.70161,13.27113],[77.70232,13.27093],[77.70225,13.27035],[77.69926,13.25838],[77.69517,13.25928],[77.69089,13.26092],[77.68911,13.25113],[77.68416,13.24308],[77.6817,13.2347],[77.6787,13.23059],[77.67708,13.22914],[77.67163,13.2293],[77.6611,13.23108],[77.6615,13.22977],[77.66055,13.22106],[77.65162,13.21883],[77.65164,13.21925],[77.64922,13.21908],[77.6473,13.21801],[77.64414,13.21728],[77.64417,13.21559],[77.64341,13.21548],[77.64337,13.21806],[77.64038,13.21796],[77.6403,13.21743],[77.63992,13.21752],[77.64016,13.21814],[77.63971,13.2181],[77.63874,13.21439],[77.64285,13.21328],[77.64454,13.2119],[77.64257,13.21186],[77.64017,13.21069],[77.63879,13.21076],[77.63783,13.20487],[77.63244,13.20499],[77.63112,13.20926],[77.63262,13.2153],[77.632,13.21587],[77.63121,13.21494],[77.62938,13.21529],[77.62885,13.21631],[77.62823,13.21631],[77.62851,13.21528],[77.62745,13.21327],[77.62567,13.21426],[77.62498,13.21078],[77.62258,13.20677],[77.61394,13.20559],[77.61629,13.20339],[77.61273,13.20233],[77.60372,13.20259],[77.5995,13.19421],[77.59438,13.19493],[77.59204,13.19609],[77.59045,13.19499],[77.57969,13.19771],[77.57506,13.1984],[77.56748,13.20155],[77.56785,13.20365],[77.56968,13.20753],[77.57147,13.20732],[77.57022,13.2099],[77.56944,13.21587],[77.56437,13.21665],[77.55744,13.2197],[77.55813,13.22142],[77.55856,13.22141],[77.55851,13.22355],[77.55747,13.2234],[77.55762,13.22609],[77.55916,13.23026],[77.5595,13.23192],[77.55898,13.23208],[77.5592,13.23311],[77.56103,13.23867],[77.5642,13.23578],[77.56793,13.23439],[77.56927,13.23658],[77.56959,13.23806],[77.56994,13.23804],[77.5697,13.2396],[77.57014,13.23951],[77.5707,13.24071],[77.57103,13.24288],[77.57148,13.24295],[77.57148,13.24458],[77.57045,13.24401],[77.56382,13.24587],[77.56393,13.24781],[77.56447,13.2486],[77.57074,13.24773],[77.57163,13.248],[77.57239,13.25837],[77.57436,13.25896],[77.57491,13.26],[77.57534,13.26607],[77.57511,13.27045],[77.58038,13.27165],[77.58169,13.27503],[77.5879,13.27602],[77.5898,13.27705],[77.5915,13.27688],[77.59404,13.27577],[77.59461,13.27665],[77.59547,13.27691],[77.59636,13.27875],[77.59875,13.27891],[77.59894,13.28017],[77.59998,13.28043],[77.60004,13.28106],[77.60093,13.28105],[77.60096,13.28195],[77.60465,13.28302],[77.60467,13.28521],[77.60284,13.28724],[77.60125,13.29005],[77.60192,13.29679],[77.60509,13.29822],[77.61127,13.29986],[77.61147,13.30224],[77.61089,13.30644],[77.61121,13.30821],[77.61029,13.31031],[77.61108,13.3126],[77.61485,13.31271],[77.61482,13.31183],[77.61935,13.31055],[77.61931,13.30946],[77.6219,13.30876],[77.62714,13.31531],[77.62971,13.31547],[77.63013,13.31821],[77.62937,13.32572],[77.62964,13.32957],[77.63839,13.32793],[77.64245,13.32851],[77.643,13.32699],[77.65357,13.32299],[77.65431,13.32281],[77.6565,13.3235],[77.65712,13.32506],[77.66205,13.33019],[77.6631,13.33417],[77.66237,13.33964],[77.66729,13.34645],[77.66721,13.34728],[77.68012,13.34498],[77.68182,13.35034],[77.68139,13.35114],[77.68284,13.35277],[77.68461,13.35081]],[[77.68353,13.33145],[77.6848,13.33103],[77.68608,13.33355],[77.68774,13.33298],[77.68786,13.33528],[77.68845,13.33574],[77.68851,13.33678],[77.68723,13.33585],[77.68559,13.33572],[77.68501,13.336],[77.6851,13.33711],[77.68299,13.33815],[77.67746,13.33892],[77.67922,13.33352],[77.68106,13.33288],[77.68084,13.33216],[77.68353,13.33145]]],[[[77.73252,13.27667],[77.73162,13.27405],[77.7295,13.27533],[77.72858,13.27478],[77.72616,13.27588],[77.72121,13.27632],[77.72,13.27878],[77.72181,13.28355],[77.73364,13.27993],[77.73252,13.27667]]]]}},{"type":"Feature","properties":{"unitId":113,"unitName":"Devanahalli PS"},"geometry":{"type":"Polygon","coordinates":[[[77.67784,13.21374],[77.67636,13.21405],[77.67563,13.20819],[77.67458,13.20674],[77.66793,13.20474],[77.66649,13.20387],[77.66513,13.20391],[77.65764,13.19947],[77.6554,13.20447],[77.6539,13.21288],[77.65292,13.21432],[77.65184,13.21492],[77.65144,13.21598],[77.65162,13.21883],[77.66055,13.22106],[77.6615,13.22977],[77.6611,13.23108],[77.67163,13.2293],[77.67708,13.22914],[77.6787,13.23059],[77.6817,13.2347],[77.68416,13.24308],[77.68911,13.25113],[77.69089,13.26092],[77.69517,13.25928],[77.69926,13.25838],[77.70225,13.27035],[77.70232,13.27093],[77.70148,13.27118],[77.70179,13.27303],[77.70108,13.27379],[77.70124,13.27457],[77.70205,13.27461],[77.70206,13.27589],[77.70607,13.2762],[77.70684,13.2777],[77.71061,13.28041],[77.71183,13.27866],[77.71464,13.27817],[77.7147,13.27863],[77.71791,13.27935],[77.71923,13.27901],[77.72012,13.27857],[77.71911,13.27409],[77.72108,13.27296],[77.72364,13.26856],[77.72463,13.26829],[77.72512,13.26739],[77.72833,13.26632],[77.73203,13.27526],[77.73572,13.27438],[77.7394,13.27241],[77.74042,13.27044],[77.7402,13.26913],[77.74159,13.2668],[77.74152,13.26601],[77.74547,13.2632],[77.74583,13.26102],[77.74777,13.2599],[77.74662,13.25459],[77.74795,13.25454],[77.74777,13.24915],[77.74967,13.24888],[77.74875,13.24682],[77.75026,13.24373],[77.75261,13.24361],[77.75581,13.24256],[77.75554,13.24085],[77.75361,13.24131],[77.75046,13.2411],[77.74478,13.24007],[77.74373,13.23633],[77.74403,13.23506],[77.7452,13.23268],[77.74873,13.22997],[77.74817,13.22869],[77.74381,13.22918],[77.74357,13.22831],[77.74267,13.22837],[77.74242,13.22583],[77.74113,13.22262],[77.74284,13.22191],[77.74253,13.21113],[77.73743,13.20944],[77.73676,13.20681],[77.71635,13.21088],[77.68052,13.21127],[77.68102,13.21309],[77.67784,13.21374]]]}},{"type":"Feature","properties":{"unitId":114,"unitName":"kempegowda international Airport PS"},"geometry":{"type":"Polygon","coordinates":[[[77.66531,13.20387],[77.66649,13.20387],[77.66793,13.20474],[77.67458,13.20674],[77.67563,13.20819],[77.67636,13.21405],[77.68102,13.21309],[77.68052,13.21127],[77.71635,13.21088],[77.73676,13.20681],[77.73558,13.19797],[77.73549,13.18383],[77.72555,13.18586],[77.71191,13.18773],[77.69392,13.18793],[77.6939,13.18748],[77.68043,13.18754],[77.67899,13.18721],[77.67542,13.18754],[77.67538,13.19053],[77.67396,13.19033],[77.67124,13.19175],[77.6712,13.18573],[77.66676,13.18573],[77.66652,13.18524],[77.66415,13.18587],[77.66132,13.1845],[77.65048,13.19028],[77.65226,13.1913],[77.65678,13.19904],[77.66531,13.20387]]]}}]}