{"type":"FeatureCollection","features":[{"type":"Feature","properties":{"unitId":278,"unitName":"Chikkaballapura Town PS"},"geometry":{"type":"MultiPolygon","coordinates":[[[[77.71875,13.44558],[77.72045,13.44387],[77.72265,13.43917],[77.72337,13.43873],[77.72352,13.43744],[77.72446,13.43738],[77.72444,13.43678],[77.7249,13.43655],[77.7254,13.43673],[77.7267,13.43552],[77.72632,13.4344],[77.72796,13.43424],[77.72793,13.43384],[77.72894,13.43578],[77.72779,13.43623],[77.72791,13.43705],[77.72676,13.43859],[77.72726,13.44341],[77.72692,13.44373],[77.72737,13.44489],[77.73071,13.44415],[77.73036,13.4431],[77.731,13.44292],[77.73182,13.4455],[77.73262,13.4456],[77.73324,13.44651],[77.73821,13.44481],[77.73774,13.44183],[77.73563,13.43915],[77.73799,13.4368],[77.73805,13.43506],[77.73979,13.43052],[77.74059,13.43005],[77.74112,13.42848],[77.74283,13.42652],[77.74986,13.42401],[77.74967,13.42243],[77.74704,13.42239],[77.74077,13.42099],[77.73557,13.42151],[77.73526,13.42264],[77.73422,13.4225],[77.73206,13.42325],[77.72741,13.42496],[77.72749,13.42545],[77.722,13.42521],[77.72238,13.42816],[77.71164,13.43182],[77.71212,13.43634],[77.70809,13.43802],[77.70823,13.43998],[77.71084,13.44048],[77.71088,13.44212],[77.71148,13.44139],[77.7121,13.44142],[77.71207,13.44247],[77.71611,13.44254],[77.7165,13.44475],[77.71579,13.44485],[77.71536,13.44942],[77.71812,13.44693],[77.71875,13.44558]]],[[[77.71142,13.42198],[77.71995,13.41911],[77.72171,13.41976],[77.72219,13.41845],[77.72373,13.41818],[77.72367,13.41772],[77.72499,13.4179],[77.72495,13.41674],[77.7255,13.41673],[77.72562,13.41781],[77.72741,13.41809],[77.72767,13.41756],[77.72889,13.41723],[77.729,13.4163],[77.73226,13.41594],[77.73143,13.40768],[77.73047,13.40575],[77.72991,13.40309],[77.72813,13.40311],[77.72893,13.40728],[77.72745,13.40798],[77.72774,13.40907],[77.72559,13.40941],[77.7245,13.41061],[77.72319,13.40963],[77.71899,13.40812],[77.71693,13.40831],[77.71675,13.40924],[77.71462,13.40952],[77.7134,13.40801],[77.71176,13.4093],[77.71252,13.41208],[77.71083,13.41286],[77.70981,13.41262],[77.70946,13.41338],[77.7109,13.41319],[77.71209,13.41556],[77.71063,13.41584],[77.71107,13.4181],[77.70918,13.41837],[77.70982,13.42048],[77.71142,13.42198]]]]}},{"type":"Feature","properties":{"unitId":279,"unitName":"Chikkaballapura Rural PS"},"geometry":{"type":"Polygon","coordinates":[[[77.72903,13.54872],[77.72955,13.54626],[77.73873,13.54491],[77.74249,13.54053],[77.74389,13.54616],[77.74706,13.5489],[77.74796,13.55379],[77.7459,13.55761],[77.75086,13.56054],[77.75226,13.56444],[77.75454,13.56405],[77.75454,13.5626],[77.76002,13.5619],[77.75955,13.55949],[77.76061,13.55896],[77.7618,13.55428],[77.76331,13.55418],[77.76763,13.55096],[77.76707,13.54584],[77.76593,13.54483],[77.76672,13.54381],[77.76838,13.54437],[77.77017,13.54399],[77.77265,13.54426],[77.7728,13.54492],[77.7787,13.54762],[77.77906,13.54823],[77.78781,13.55339],[77.78913,13.55364],[77.79145,13.55145],[77.79195,13.55201],[77.79479,13.55242],[77.79677,13.55035],[77.80275,13.54769],[77.80514,13.54602],[77.80771,13.54719],[77.80852,13.54711],[77.80973,13.54432],[77.81274,13.54365],[77.8138,13.54261],[77.81523,13.54237],[77.81479,13.53515],[77.81123,13.53448],[77.81102,13.53371],[77.81405,13.52604],[77.81456,13.51928],[77.81757,13.5151],[77.81936,13.51601],[77.82252,13.51547],[77.82404,13.51224],[77.82748,13.51075],[77.82879,13.51101],[77.8291,13.51043],[77.83036,13.51031],[77.83026,13.50939],[77.82749,13.5095],[77.82923,13.50318],[77.82654,13.49773],[77.82608,13.49579],[77.83106,13.49386],[77.83173,13.48834],[77.82832,13.48775],[77.82868,13.48585],[77.8277,13.48177],[77.83948,13.47281],[77.84356,13.46298],[77.83813,13.4534],[77.8402,13.45213],[77.84399,13.44681],[77.84276,13.44224],[77.84426,13.44089],[77.84318,13.43859],[77.83908,13.43976],[77.835,13.43864],[77.83354,13.4366],[77.83215,13.43626],[77.83105,13.43345],[77.83096,13.43086],[77.82799,13.42609],[77.82855,13.42536],[77.82807,13.42078],[77.82512,13.41431],[77.83041,13.40943],[77.83458,13.40398],[77.83563,13.40096],[77.84169,13.39461],[77.84121,13.38787],[77.8387,13.37868],[77.83061,13.38309],[77.82523,13.38805],[77.82599,13.38957],[77.82412,13.39023],[77.82365,13.38939],[77.82178,13.39051],[77.82086,13.39187],[77.82135,13.39261],[77.82076,13.39307],[77.82104,13.39345],[77.81903,13.39402],[77.81833,13.39729],[77.81763,13.39803],[77.81806,13.39843],[77.81701,13.40021],[77.81547,13.40085],[77.81473,13.40233],[77.81106,13.4048],[77.81118,13.40576],[77.81075,13.40466],[77.80854,13.4053],[77.80812,13.40485],[77.80702,13.40678],[77.80441,13.40919],[77.80404,13.40845],[77.80339,13.40874],[77.80268,13.40763],[77.80353,13.40701],[77.80197,13.4044],[77.80136,13.40437],[77.8012,13.40247],[77.80022,13.40205],[77.79934,13.39712],[77.79617,13.39676],[77.79436,13.39586],[77.7825,13.39799],[77.78214,13.40052],[77.77901,13.39867],[77.77539,13.39853],[77.77441,13.3994],[77.77182,13.39938],[77.76999,13.40031],[77.76685,13.40328],[77.76417,13.40398],[77.75955,13.40738],[77.7541,13.40826],[77.74816,13.40864],[77.74392,13.40304],[77.73826,13.40421],[77.73294,13.40458],[77.73047,13.40575],[77.73143,13.40768],[77.73226,13.41594],[77.729,13.4163],[77.72889,13.41723],[77.72767,13.41756],[77.72741,13.41809],[77.72562,13.41781],[77.7255,13.41673],[77.72495,13.41674],[77.72499,13.4179],[77.72367,13.41772],[77.72373,13.41818],[77.72219,13.41845],[77.72171,13.41976],[77.71995,13.41911],[77.71142,13.42198],[77.70996,13.42045],[77.70881,13.42097],[77.70886,13.42052],[77.70748,13.42037],[77.70609,13.41934],[77.7044,13.41929],[77.70406,13.41853],[77.70229,13.41879],[77.70203,13.41731],[77.70388,13.41675],[77.70254,13.41666],[77.70234,13.41158],[77.70184,13.41058],[77.69979,13.4103],[77.6992,13.40944],[77.69638,13.40883],[77.69604,13.40923],[77.69666,13.4097],[77.69673,13.4106],[77.69618,13.41062],[77.69625,13.4113],[77.69582,13.41124],[77.69598,13.41345],[77.69559,13.41338],[77.69538,13.41493],[77.69401,13.416],[77.66618,13.41761],[77.65742,13.42886],[77.63351,13.42606],[77.62042,13.42646],[77.61059,13.4241],[77.6119,13.4354],[77.61159,13.43795],[77.61198,13.43884],[77.6122,13.44633],[77.61322,13.45033],[77.61352,13.45499],[77.61447,13.45638],[77.614,13.45765],[77.61582,13.45993],[77.61527,13.46182],[77.61345,13.46296],[77.61239,13.46626],[77.60979,13.46643],[77.60862,13.47537],[77.61004,13.47508],[77.6121,13.47953],[77.61328,13.48006],[77.61362,13.4811],[77.61874,13.48109],[77.61896,13.48705],[77.62382,13.49293],[77.62537,13.49391],[77.62734,13.49359],[77.63084,13.49043],[77.63087,13.48973],[77.63015,13.48893],[77.63142,13.48667],[77.63162,13.48425],[77.63426,13.48336],[77.6339,13.48185],[77.6348,13.48153],[77.64796,13.48221],[77.67208,13.48145],[77.67299,13.48574],[77.67585,13.49412],[77.68322,13.50379],[77.67254,13.50927],[77.67009,13.51339],[77.65987,13.52468],[77.66335,13.53135],[77.67512,13.53851],[77.67625,13.54634],[77.68637,13.54914],[77.68771,13.54831],[77.68959,13.55583],[77.68832,13.55806],[77.68807,13.55995],[77.69168,13.56927],[77.69406,13.57286],[77.69507,13.57745],[77.69693,13.57755],[77.7019,13.57601],[77.71335,13.56851],[77.7169,13.56763],[77.71941,13.56536],[77.72419,13.56333],[77.73311,13.56109],[77.73451,13.56033],[77.72848,13.55138],[77.72903,13.54872]],[[77.71611,13.44254],[77.71207,13.44247],[77.7121,13.44142],[77.71148,13.44139],[77.71088,13.44212],[77.71084,13.44048],[77.70823,13.43998],[77.70809,13.43802],[77.71212,13.43634],[77.71164,13.43182],[77.72238,13.42816],[77.722,13.42521],[77.72749,13.42545],[77.72741,13.42496],[77.73206,13.42325],[77.73422,13.4225],[77.73526,13.42264],[77.73557,13.42151],[77.73785,13.42112],[77.74197,13.42109],[77.74704,13.42239],[77.74967,13.42243],[77.74986,13.42401],[77.74283,13.42652],[77.74112,13.42848],[77.74059,13.43005],[77.73979,13.43052],[77.73805,13.43506],[77.73799,13.4368],[77.73563,13.43915],[77.73774,13.44183],[77.73821,13.44481],[77.73324,13.44651],[77.73262,13.4456],[77.73182,13.4455],[77.731,13.44292],[77.73036,13.4431],[77.73071,13.44415],[77.72737,13.44489],[77.72692,13.44373],[77.72726,13.44341],[77.72676,13.43859],[77.72791,13.43705],[77.72779,13.43623],[77.72894,13.43578],[77.72826,13.43387],[77.72632,13.4344],[77.7267,13.43552],[77.7254,13.43673],[77.72444,13.43678],[77.72446,13.43738],[77.72352,13.43744],[77.72337,13.43873],[77.72265,13.43917],[77.72045,13.44387],[77.71907,13.4456],[77.71842,13.4456],[77.71856,13.44638],[77.71812,13.44693],[77.71536,13.44942],[77.71579,13.44485],[77.7165,13.44475],[77.71611,13.44254]]]}},{"type":"Feature","properties":{"unitId":280,"unitName":"Nandi Girighama PS"},"geometry":{"type":"Polygon","coordinates":[[[77.65918,13.42659],[77.66618,13.41761],[77.69401,13.416],[77.69538,13.41493],[77.69559,13.41338],[77.69598,13.41345],[77.69582,13.41124],[77.69625,13.4113],[77.69618,13.41062],[77.69673,13.4106],[77.69666,13.4097],[77.69604,13.40923],[77.69638,13.40883],[77.6992,13.40944],[77.69979,13.4103],[77.70184,13.41058],[77.70234,13.41158],[77.70254,13.41666],[77.70388,13.41675],[77.70203,13.41731],[77.70229,13.41879],[77.70406,13.41853],[77.7044,13.41929],[77.70609,13.41934],[77.70748,13.42037],[77.70886,13.42052],[77.70881,13.42097],[77.70982,13.42048],[77.70918,13.41837],[77.71107,13.4181],[77.71063,13.41584],[77.71209,13.41556],[77.7109,13.41319],[77.70946,13.41338],[77.70981,13.41262],[77.71083,13.41286],[77.71252,13.41208],[77.71176,13.4093],[77.7134,13.40801],[77.71462,13.40952],[77.71675,13.40924],[77.71693,13.40831],[77.71899,13.40812],[77.72319,13.40963],[77.7245,13.41061],[77.72559,13.40941],[77.72774,13.40907],[77.72745,13.40798],[77.72893,13.40728],[77.72813,13.40311],[77.72991,13.40309],[77.73047,13.40575],[77.73408,13.40429],[77.73826,13.40421],[77.74392,13.40304],[77.74816,13.40864],[77.7541,13.40826],[77.75955,13.40738],[77.76417,13.40398],[77.76685,13.40328],[77.76999,13.40031],[77.77182,13.39938],[77.77441,13.3994],[77.77539,13.39853],[77.77901,13.39867],[77.78214,13.40052],[77.7825,13.39799],[77.79436,13.39586],[77.79617,13.39676],[77.79934,13.39712],[77.80022,13.40205],[77.8012,13.40247],[77.80136,13.40437],[77.80197,13.4044],[77.80353,13.40701],[77.80268,13.40763],[77.80339,13.40874],[77.80404,13.40845],[77.80441,13.40919],[77.80702,13.40678],[77.80812,13.40485],[77.80854,13.4053],[77.81075,13.40466],[77.81118,13.40576],[77.81106,13.4048],[77.81473,13.40233],[77.81547,13.40085],[77.81701,13.40021],[77.81806,13.39843],[77.81763,13.39803],[77.81833,13.39729],[77.81903,13.39402],[77.82104,13.39345],[77.82076,13.39307],[77.82135,13.39261],[77.82086,13.39187],[77.82178,13.39051],[77.82365,13.38939],[77.82412,13.39023],[77.82599,13.38957],[77.82522,13.38816],[77.82567,13.38759],[77.83061,13.38309],[77.83642,13.37974],[77.83361,13.3731],[77.82896,13.37148],[77.82571,13.36907],[77.82244,13.37104],[77.81308,13.37433],[77.81296,13.37079],[77.81121,13.37079],[77.80963,13.37],[77.8092,13.3685],[77.80869,13.36823],[77.80333,13.36949],[77.80333,13.3687],[77.80177,13.36679],[77.80126,13.36532],[77.79975,13.36566],[77.79863,13.36709],[77.79786,13.36571],[77.79729,13.36595],[77.79547,13.36424],[77.7949,13.36444],[77.79373,13.36259],[77.79136,13.35711],[77.79111,13.35232],[77.79107,13.35276],[77.78599,13.35243],[77.77977,13.35273],[77.77256,13.3555],[77.77221,13.35733],[77.76681,13.35862],[77.76037,13.36134],[77.75494,13.36479],[77.75325,13.36337],[77.75151,13.36375],[77.751,13.36051],[77.74846,13.35882],[77.74375,13.36137],[77.74338,13.36069],[77.7424,13.3603],[77.74165,13.36088],[77.74092,13.35954],[77.74198,13.35916],[77.74372,13.35742],[77.74337,13.35665],[77.74537,13.35473],[77.74461,13.35362],[77.74009,13.35642],[77.73982,13.35794],[77.73804,13.35905],[77.73685,13.36076],[77.73645,13.3603],[77.73558,13.36049],[77.73606,13.359],[77.73377,13.36048],[77.72978,13.36087],[77.72899,13.36134],[77.72875,13.36268],[77.72735,13.36281],[77.7276,13.36162],[77.72637,13.36187],[77.72631,13.3615],[77.72824,13.36149],[77.72974,13.36071],[77.7277,13.35248],[77.72805,13.35101],[77.71735,13.35179],[77.71586,13.35109],[77.71621,13.35248],[77.71772,13.35324],[77.71776,13.35803],[77.71715,13.35933],[77.71704,13.36224],[77.71714,13.36306],[77.71764,13.36334],[77.7162,13.36507],[77.71575,13.36475],[77.70902,13.3655],[77.70877,13.36422],[77.71043,13.36402],[77.71033,13.36342],[77.70861,13.36364],[77.70773,13.36129],[77.70654,13.36199],[77.70549,13.36197],[77.70515,13.36114],[77.69881,13.35892],[77.69831,13.35726],[77.69858,13.35103],[77.69892,13.35096],[77.69924,13.34741],[77.7037,13.34571],[77.70368,13.34307],[77.70056,13.33992],[77.69937,13.33805],[77.69884,13.33613],[77.69665,13.33644],[77.6969,13.33757],[77.69647,13.33871],[77.6954,13.3396],[77.69516,13.34079],[77.69339,13.34292],[77.68891,13.34491],[77.68911,13.34645],[77.68772,13.34842],[77.68799,13.34957],[77.68704,13.3501],[77.68496,13.35025],[77.68284,13.35277],[77.68139,13.35114],[77.68182,13.35034],[77.68012,13.34498],[77.6782,13.34505],[77.66721,13.34728],[77.66675,13.35051],[77.6615,13.35297],[77.65522,13.35704],[77.65616,13.35834],[77.65631,13.36121],[77.6568,13.36223],[77.65642,13.36385],[77.65684,13.36425],[77.65683,13.36543],[77.65608,13.36811],[77.65649,13.36811],[77.65616,13.36847],[77.65626,13.37139],[77.66117,13.37578],[77.659,13.38233],[77.65107,13.38639],[77.6575,13.39232],[77.65759,13.39776],[77.6533,13.39808],[77.65152,13.39562],[77.65077,13.39553],[77.65055,13.39381],[77.64954,13.39348],[77.64983,13.39277],[77.6486,13.39292],[77.6485,13.39245],[77.64729,13.39185],[77.6446,13.39262],[77.64346,13.39356],[77.64179,13.39339],[77.64045,13.39415],[77.63996,13.39354],[77.63937,13.39416],[77.63884,13.39375],[77.63819,13.39404],[77.63752,13.38469],[77.63603,13.38593],[77.63507,13.38045],[77.63409,13.37993],[77.63275,13.37544],[77.62904,13.37571],[77.62702,13.3769],[77.62564,13.37585],[77.62088,13.37525],[77.62126,13.37979],[77.62184,13.37984],[77.62186,13.38056],[77.62078,13.38269],[77.61858,13.38387],[77.61483,13.3844],[77.61228,13.3859],[77.61727,13.39376],[77.62053,13.4023],[77.61926,13.40073],[77.61589,13.40082],[77.61505,13.40203],[77.6141,13.40228],[77.6125,13.40395],[77.60844,13.40567],[77.6079,13.40619],[77.60761,13.40788],[77.60655,13.40689],[77.60703,13.40412],[77.60786,13.40314],[77.60743,13.40157],[77.60834,13.40149],[77.60805,13.40033],[77.60654,13.39941],[77.60667,13.39808],[77.60335,13.39752],[77.6017,13.39903],[77.60118,13.40478],[77.59955,13.40534],[77.59866,13.40782],[77.60037,13.40805],[77.60052,13.40977],[77.60141,13.41119],[77.59898,13.41102],[77.59895,13.41397],[77.59978,13.41494],[77.60571,13.41597],[77.60576,13.41506],[77.60892,13.4143],[77.6124,13.41615],[77.61496,13.41817],[77.61609,13.4199],[77.61503,13.42002],[77.61026,13.42322],[77.61059,13.4241],[77.62042,13.42646],[77.63351,13.42606],[77.65742,13.42886],[77.65918,13.42659]]]}},{"type":"Feature","properties":{"unitId":281,"unitName":"Gowribidanur Town PS"},"geometry":{"type":"Polygon","coordinates":[[[77.53109,13.64518],[77.54582,13.64413],[77.54744,13.63642],[77.54802,13.63547],[77.55428,13.63407],[77.55849,13.63222],[77.55708,13.63026],[77.54953,13.62364],[77.54415,13.6179],[77.53925,13.61489],[77.52754,13.6105],[77.52735,13.60952],[77.53075,13.60668],[77.53499,13.60096],[77.53562,13.60068],[77.53609,13.59674],[77.53557,13.59154],[77.5344,13.58683],[77.53123,13.58659],[77.52771,13.58701],[77.52727,13.59102],[77.52289,13.59121],[77.52346,13.59242],[77.52174,13.59193],[77.52153,13.59342],[77.52089,13.59358],[77.51848,13.59342],[77.5183,13.58985],[77.51594,13.59045],[77.51575,13.58964],[77.51498,13.58956],[77.51391,13.5904],[77.5131,13.58872],[77.50941,13.58935],[77.50593,13.58765],[77.50247,13.5878],[77.49975,13.59006],[77.49504,13.59083],[77.49326,13.58789],[77.49235,13.58765],[77.48513,13.59629],[77.48377,13.59867],[77.48066,13.59898],[77.48146,13.60397],[77.4861,13.60608],[77.48565,13.60915],[77.488,13.60785],[77.49083,13.60719],[77.49676,13.60722],[77.49995,13.60796],[77.49869,13.61475],[77.49677,13.61877],[77.48813,13.62153],[77.4897,13.62928],[77.49109,13.63228],[77.49785,13.63471],[77.49801,13.63562],[77.49893,13.63606],[77.50174,13.63639],[77.50865,13.63849],[77.50957,13.63783],[77.5117,13.63991],[77.51286,13.64015],[77.51263,13.64192],[77.51347,13.64316],[77.51353,13.64466],[77.51555,13.64509],[77.52099,13.64466],[77.52446,13.64529],[77.53109,13.64518]]]}},{"type":"Feature","properties":{"unitId":282,"unitName":"Gowribidanur Rural PS"},"geometry":{"type":"Polygon","coordinates":[[[77.67982,13.78509],[77.68078,13.77886],[77.67895,13.77241],[77.67838,13.76856],[77.67738,13.76665],[77.67605,13.76633],[77.67442,13.76246],[77.67259,13.76109],[77.67113,13.76088],[77.67072,13.75906],[77.67099,13.75694],[77.66288,13.75475],[77.66003,13.7521],[77.65861,13.7496],[77.65707,13.74509],[77.65982,13.74387],[77.66586,13.7401],[77.67398,13.73883],[77.67533,13.73822],[77.6761,13.73746],[77.67562,13.73704],[77.67737,13.73632],[77.67667,13.73348],[77.68113,13.73058],[77.68074,13.72939],[77.68217,13.72778],[77.6837,13.72735],[77.68599,13.72789],[77.68722,13.72764],[77.68747,13.7281],[77.68928,13.72837],[77.69128,13.7276],[77.69283,13.72825],[77.69511,13.72795],[77.70465,13.72872],[77.71985,13.7252],[77.71801,13.72122],[77.71754,13.71276],[77.71858,13.70953],[77.71801,13.70517],[77.71404,13.70557],[77.71398,13.70454],[77.71052,13.70476],[77.69636,13.7012],[77.68632,13.69683],[77.68832,13.69225],[77.68067,13.68669],[77.68165,13.68555],[77.67909,13.68178],[77.67523,13.68252],[77.66883,13.68281],[77.66772,13.68008],[77.6671,13.68006],[77.6668,13.67876],[77.65723,13.67814],[77.65063,13.68569],[77.64351,13.68311],[77.64017,13.67121],[77.64013,13.66979],[77.61892,13.66592],[77.61899,13.66327],[77.61462,13.66237],[77.61519,13.66111],[77.61447,13.66094],[77.61419,13.66001],[77.61357,13.65983],[77.61406,13.65825],[77.61303,13.65702],[77.61331,13.65627],[77.60919,13.65398],[77.60793,13.65416],[77.60439,13.65687],[77.59934,13.65636],[77.60167,13.65064],[77.59932,13.64552],[77.59841,13.64679],[77.59777,13.64684],[77.59446,13.64589],[77.59288,13.64319],[77.58945,13.64425],[77.58677,13.63556],[77.58918,13.63383],[77.58953,13.63159],[77.59754,13.628],[77.59735,13.62762],[77.59831,13.6269],[77.59803,13.62651],[77.59991,13.62529],[77.5995,13.62361],[77.59904,13.62325],[77.59787,13.62344],[77.59686,13.62095],[77.59615,13.62139],[77.59342,13.6204],[77.5921,13.61754],[77.59115,13.61741],[77.59074,13.61685],[77.59001,13.61371],[77.5852,13.61246],[77.58523,13.61564],[77.58188,13.6162],[77.57585,13.61586],[77.57308,13.61164],[77.57035,13.6099],[77.56734,13.60671],[77.56588,13.60101],[77.56617,13.60064],[77.56374,13.5961],[77.5624,13.59225],[77.55999,13.58214],[77.55976,13.57966],[77.56155,13.57299],[77.56158,13.57086],[77.55853,13.57024],[77.55485,13.57365],[77.55024,13.56685],[77.54981,13.56343],[77.53528,13.56144],[77.53531,13.5577],[77.53292,13.55795],[77.53036,13.56068],[77.53081,13.56109],[77.52781,13.56562],[77.52771,13.57039],[77.52671,13.57329],[77.52033,13.57235],[77.51778,13.57361],[77.50887,13.57324],[77.50917,13.56887],[77.5114,13.56093],[77.51287,13.55784],[77.50452,13.55928],[77.49548,13.55945],[77.48872,13.56062],[77.4888,13.56151],[77.48676,13.56202],[77.48655,13.56071],[77.48591,13.56074],[77.4859,13.55929],[77.48667,13.55721],[77.48749,13.55633],[77.48712,13.55416],[77.48791,13.55307],[77.48789,13.55044],[77.48632,13.54736],[77.48666,13.54467],[77.48414,13.54202],[77.48639,13.5415],[77.48638,13.53889],[77.48534,13.53772],[77.48573,13.53716],[77.48398,13.53552],[77.48255,13.53306],[77.48054,13.52743],[77.48099,13.52736],[77.48109,13.52601],[77.48217,13.52631],[77.48615,13.51382],[77.48462,13.51088],[77.48572,13.505],[77.48395,13.5061],[77.47531,13.50649],[77.47456,13.50359],[77.47262,13.49945],[77.47192,13.49468],[77.46668,13.49519],[77.45981,13.49695],[77.45884,13.50314],[77.45713,13.50666],[77.45404,13.51018],[77.45055,13.51261],[77.4427,13.52247],[77.44241,13.52116],[77.43933,13.51991],[77.43639,13.51977],[77.433,13.51697],[77.42893,13.50376],[77.42437,13.50362],[77.42491,13.50477],[77.42269,13.50594],[77.42006,13.50636],[77.41787,13.50804],[77.41337,13.50155],[77.41077,13.49953],[77.41002,13.49449],[77.40768,13.49591],[77.40464,13.49454],[77.40356,13.495],[77.40309,13.49407],[77.40249,13.49423],[77.40206,13.49354],[77.39873,13.4934],[77.38789,13.49856],[77.38407,13.49942],[77.3826,13.50106],[77.38295,13.50651],[77.38169,13.51478],[77.38277,13.51585],[77.38573,13.51696],[77.3871,13.51879],[77.39063,13.51923],[77.39174,13.52902],[77.39164,13.53433],[77.39062,13.53654],[77.38473,13.53765],[77.38285,13.53687],[77.38289,13.53974],[77.38254,13.53929],[77.38183,13.54296],[77.38067,13.54401],[77.38037,13.54785],[77.38053,13.54948],[77.38335,13.54927],[77.38459,13.55162],[77.3835,13.55819],[77.38296,13.5751],[77.38115,13.57765],[77.37943,13.57809],[77.37748,13.5837],[77.37433,13.58989],[77.3729,13.58855],[77.36982,13.58845],[77.36365,13.59016],[77.36364,13.59417],[77.36476,13.60191],[77.36278,13.6022],[77.36255,13.60553],[77.36159,13.6074],[77.36019,13.61314],[77.36217,13.62494],[77.36253,13.62487],[77.3696,13.63381],[77.36689,13.63586],[77.36682,13.63759],[77.36866,13.64109],[77.36999,13.64206],[77.37391,13.64219],[77.37445,13.64174],[77.3784,13.64511],[77.37682,13.64976],[77.38416,13.66163],[77.39451,13.66564],[77.39616,13.66964],[77.39568,13.67126],[77.39587,13.6723],[77.39721,13.67463],[77.3995,13.67461],[77.4035,13.67636],[77.42424,13.67553],[77.42996,13.6745],[77.43269,13.67344],[77.43541,13.67329],[77.43531,13.6763],[77.43712,13.68416],[77.45339,13.68231],[77.46253,13.68461],[77.4662,13.68446],[77.47233,13.68638],[77.47687,13.68668],[77.48136,13.6863],[77.48208,13.68675],[77.48432,13.68671],[77.48459,13.68584],[77.4883,13.68482],[77.4882,13.68334],[77.48924,13.68265],[77.48882,13.67928],[77.48969,13.67887],[77.48967,13.67804],[77.49376,13.67787],[77.49378,13.68247],[77.49181,13.68594],[77.4906,13.69311],[77.48992,13.69513],[77.48775,13.69786],[77.48866,13.69845],[77.48876,13.70243],[77.48833,13.70454],[77.48789,13.7052],[77.48704,13.7053],[77.48595,13.70725],[77.48641,13.71025],[77.48596,13.71122],[77.48479,13.71227],[77.48319,13.71241],[77.48349,13.71573],[77.48502,13.71515],[77.48806,13.71492],[77.49176,13.71535],[77.49634,13.71471],[77.50085,13.71505],[77.5144,13.71303],[77.51406,13.7124],[77.51417,13.70507],[77.51184,13.69728],[77.51952,13.69644],[77.521,13.69464],[77.52128,13.69051],[77.52879,13.69315],[77.52959,13.69729],[77.53396,13.70694],[77.53551,13.71946],[77.53518,13.72695],[77.5363,13.73079],[77.52799,13.74059],[77.52564,13.74281],[77.52202,13.74498],[77.52406,13.74944],[77.52508,13.75336],[77.52838,13.75423],[77.54201,13.75616],[77.54443,13.75477],[77.54799,13.75086],[77.54911,13.74878],[77.54953,13.74271],[77.54905,13.74087],[77.5537,13.73584],[77.55431,13.73348],[77.55771,13.72669],[77.55895,13.72322],[77.56047,13.72236],[77.56486,13.72637],[77.56977,13.73551],[77.56979,13.73638],[77.57124,13.73839],[77.57593,13.73817],[77.576,13.73849],[77.57734,13.73682],[77.57972,13.73587],[77.58068,13.73429],[77.58401,13.73427],[77.58677,13.73369],[77.595,13.74547],[77.59595,13.74831],[77.59799,13.75049],[77.60005,13.75105],[77.60044,13.75034],[77.60264,13.75035],[77.60469,13.75103],[77.60712,13.75102],[77.60918,13.75195],[77.61335,13.75208],[77.61484,13.74939],[77.6183,13.74566],[77.61888,13.74377],[77.62367,13.73614],[77.62761,13.73464],[77.62893,13.73553],[77.63097,13.73605],[77.63226,13.73888],[77.63384,13.73958],[77.63676,13.7396],[77.64166,13.74235],[77.64243,13.74537],[77.64201,13.74829],[77.64103,13.74912],[77.63946,13.7495],[77.63764,13.74912],[77.63418,13.75027],[77.63335,13.75174],[77.63022,13.75397],[77.62753,13.75432],[77.62684,13.75343],[77.62493,13.75324],[77.62496,13.75357],[77.62359,13.75351],[77.61838,13.75512],[77.61713,13.76194],[77.61888,13.76543],[77.62004,13.76659],[77.6205,13.76819],[77.62671,13.77066],[77.62678,13.77122],[77.62774,13.77113],[77.63187,13.77352],[77.63795,13.77511],[77.64692,13.77893],[77.65171,13.78392],[77.66039,13.78486],[77.66039,13.78516],[77.66653,13.7849],[77.66882,13.78379],[77.6797,13.78707],[77.67982,13.78509]],[[77.53003,13.6453],[77.52655,13.64498],[77.52446,13.64529],[77.52099,13.64466],[77.51555,13.64509],[77.51353,13.64466],[77.51347,13.64316],[77.51263,13.64192],[77.51286,13.64015],[77.5117,13.63991],[77.50957,13.63783],[77.50865,13.63849],[77.50174,13.63639],[77.49893,13.63606],[77.49801,13.63562],[77.49785,13.63471],[77.49109,13.63228],[77.4897,13.62928],[77.48813,13.62153],[77.49677,13.61877],[77.49869,13.61475],[77.49995,13.60796],[77.49676,13.60722],[77.49083,13.60719],[77.488,13.60785],[77.48565,13.60915],[77.4861,13.60608],[77.48146,13.60397],[77.48066,13.59898],[77.48377,13.59867],[77.48513,13.59629],[77.49235,13.58765],[77.49326,13.58789],[77.49504,13.59083],[77.49975,13.59006],[77.50247,13.5878],[77.50593,13.58765],[77.50941,13.58935],[77.5131,13.58872],[77.51391,13.5904],[77.51498,13.58956],[77.51575,13.58964],[77.51594,13.59045],[77.5183,13.58985],[77.51848,13.59342],[77.52089,13.59358],[77.52153,13.59342],[77.52174,13.59193],[77.52346,13.59242],[77.52289,13.59121],[77.52727,13.59102],[77.52771,13.58701],[77.53123,13.58659],[77.5344,13.58683],[77.53557,13.59154],[77.53609,13.59674],[77.53562,13.60068],[77.53499,13.60096],[77.53075,13.60668],[77.52735,13.60952],[77.52754,13.6105],[77.53925,13.61489],[77.54415,13.6179],[77.54953,13.62364],[77.55708,13.63026],[77.55849,13.63222],[77.55428,13.63407],[77.54802,13.63547],[77.54744,13.63642],[77.54582,13.64413],[77.53003,13.6453]]]}},{"type":"Feature","properties":{"unitId":283,"unitName":"ManchenahalliPS"},"geometry":{"type":"Polygon","coordinates":[[[77.64645,13.66258],[77.65366,13.65841],[77.653,13.64912],[77.65631,13.64485],[77.6515,13.62761],[77.65306,13.61506],[77.65109,13.60771],[77.65198,13.59784],[77.64832,13.59563],[77.6411,13.58748],[77.63792,13.58126],[77.66213,13.57685],[77.6546,13.5704],[77.64978,13.54746],[77.64755,13.53955],[77.65987,13.52468],[77.67009,13.51339],[77.67254,13.50927],[77.68322,13.50379],[77.67585,13.49412],[77.67299,13.48574],[77.67208,13.48145],[77.64796,13.48221],[77.6348,13.48153],[77.6339,13.48185],[77.63426,13.48336],[77.63162,13.48425],[77.63142,13.48667],[77.63015,13.48893],[77.63087,13.48973],[77.63084,13.49043],[77.62963,13.49139],[77.62955,13.49197],[77.62734,13.49359],[77.62537,13.49391],[77.62382,13.49293],[77.61896,13.48705],[77.61874,13.48109],[77.61362,13.4811],[77.61328,13.48006],[77.6121,13.47953],[77.61004,13.47508],[77.60862,13.47537],[77.60979,13.46643],[77.61239,13.46626],[77.61345,13.46296],[77.61527,13.46182],[77.61582,13.45993],[77.614,13.45765],[77.61447,13.45638],[77.61352,13.45499],[77.61322,13.45033],[77.6122,13.44633],[77.61198,13.43884],[77.61159,13.43795],[77.6119,13.4354],[77.61026,13.42322],[77.6079,13.42383],[77.60528,13.43713],[77.60394,13.4411],[77.60238,13.44208],[77.60127,13.44065],[77.60041,13.44054],[77.59935,13.43853],[77.59898,13.43609],[77.58907,13.43623],[77.58997,13.43357],[77.58949,13.4324],[77.58967,13.43026],[77.58904,13.42878],[77.58965,13.42835],[77.59007,13.42322],[77.59043,13.42134],[77.59281,13.42173],[77.59242,13.41841],[77.59089,13.41861],[77.59089,13.41809],[77.58872,13.41836],[77.58778,13.42011],[77.58703,13.42013],[77.58674,13.4215],[77.57171,13.42019],[77.56505,13.42011],[77.55901,13.41883],[77.55073,13.4184],[77.55144,13.42232],[77.54978,13.43061],[77.55077,13.43471],[77.54455,13.43698],[77.53813,13.43601],[77.5356,13.43055],[77.52594,13.43151],[77.52572,13.43203],[77.52363,13.43165],[77.52083,13.43196],[77.51936,13.43334],[77.51894,13.43646],[77.51833,13.43767],[77.51618,13.43977],[77.5166,13.44103],[77.5164,13.44354],[77.50694,13.44422],[77.50445,13.44501],[77.50587,13.44965],[77.50519,13.4514],[77.50629,13.45658],[77.50229,13.45795],[77.49877,13.4578],[77.49366,13.45855],[77.48815,13.46159],[77.4856,13.46555],[77.48349,13.4673],[77.47703,13.46647],[77.47176,13.46938],[77.46707,13.46676],[77.46406,13.46417],[77.46154,13.46296],[77.45803,13.46884],[77.45489,13.46857],[77.45514,13.46408],[77.45447,13.46443],[77.45459,13.46581],[77.45122,13.46534],[77.44842,13.46241],[77.44352,13.46188],[77.44359,13.46132],[77.44158,13.46138],[77.43426,13.4641],[77.43479,13.46854],[77.4284,13.47073],[77.42544,13.47081],[77.42277,13.47156],[77.42468,13.4793],[77.42531,13.48078],[77.42628,13.48115],[77.42604,13.48209],[77.42484,13.48269],[77.42483,13.48346],[77.42401,13.48377],[77.42088,13.48408],[77.41919,13.48344],[77.41732,13.48381],[77.41639,13.48465],[77.41539,13.48735],[77.41528,13.48939],[77.41586,13.49103],[77.41006,13.49401],[77.41024,13.49778],[77.41077,13.49953],[77.41337,13.50155],[77.41787,13.50804],[77.42006,13.50636],[77.42269,13.50594],[77.42491,13.50477],[77.42437,13.50362],[77.42893,13.50376],[77.433,13.51697],[77.43639,13.51977],[77.43933,13.51991],[77.44241,13.52116],[77.4427,13.52247],[77.45055,13.51261],[77.45404,13.51018],[77.45713,13.50666],[77.45884,13.50314],[77.45981,13.49695],[77.46668,13.49519],[77.47192,13.49468],[77.47262,13.49945],[77.47456,13.50359],[77.47531,13.50649],[77.48395,13.5061],[77.48572,13.505],[77.48462,13.51088],[77.48615,13.51382],[77.48217,13.52631],[77.48109,13.52601],[77.48099,13.52736],[77.48054,13.52743],[77.48255,13.53306],[77.48398,13.53552],[77.48573,13.53716],[77.48534,13.53772],[77.48638,13.53889],[77.48639,13.5415],[77.48414,13.54202],[77.48666,13.54467],[77.48632,13.54736],[77.48789,13.55044],[77.48791,13.55307],[77.48712,13.55416],[77.48749,13.55633],[77.48667,13.55721],[77.4859,13.55929],[77.48591,13.56074],[77.48655,13.56071],[77.48676,13.56202],[77.4888,13.56151],[77.48872,13.56062],[77.49548,13.55945],[77.50452,13.55928],[77.51287,13.55784],[77.5114,13.56093],[77.50917,13.56887],[77.50887,13.57324],[77.51778,13.57361],[77.52033,13.57235],[77.52671,13.57329],[77.52771,13.57039],[77.52781,13.56562],[77.53081,13.56109],[77.53036,13.56068],[77.53292,13.55795],[77.53531,13.5577],[77.53528,13.56144],[77.54981,13.56343],[77.55024,13.56685],[77.55485,13.57365],[77.55853,13.57024],[77.56158,13.57086],[77.56155,13.57299],[77.55976,13.57966],[77.55999,13.58214],[77.5624,13.59225],[77.56374,13.5961],[77.56617,13.60064],[77.56588,13.60101],[77.56734,13.60671],[77.57035,13.6099],[77.57308,13.61164],[77.57585,13.61586],[77.58188,13.6162],[77.58523,13.61564],[77.5852,13.61246],[77.59001,13.61371],[77.59074,13.61685],[77.59115,13.61741],[77.5921,13.61754],[77.59342,13.6204],[77.59615,13.62139],[77.59686,13.62095],[77.59787,13.62344],[77.59904,13.62325],[77.5995,13.62361],[77.59991,13.62529],[77.59803,13.62651],[77.59831,13.6269],[77.59735,13.62762],[77.59754,13.628],[77.58953,13.63159],[77.58918,13.63383],[77.58677,13.63556],[77.58945,13.64425],[77.59288,13.64319],[77.59446,13.64589],[77.59777,13.64684],[77.59841,13.64679],[77.59932,13.64552],[77.60167,13.65064],[77.59934,13.65636],[77.60439,13.65687],[77.60793,13.65416],[77.60919,13.65398],[77.61331,13.65627],[77.61303,13.65702],[77.61406,13.65825],[77.61357,13.65983],[77.61419,13.66001],[77.61447,13.66094],[77.61519,13.66111],[77.61462,13.66237],[77.61899,13.66327],[77.61892,13.66592],[77.64013,13.66979],[77.64519,13.66331],[77.64645,13.66258]]]}},{"type":"Feature","properties":{"unitId":284,"unitName":"GudibandePS"},"geometry":{"type":"Polygon","coordinates":[[[77.75477,13.77791],[77.75612,13.7737],[77.75517,13.76224],[77.75701,13.75798],[77.75955,13.75706],[77.76271,13.75764],[77.76239,13.75454],[77.76291,13.75445],[77.76367,13.75251],[77.76474,13.74393],[77.76634,13.73805],[77.76596,13.73616],[77.75862,13.73407],[77.75925,13.733],[77.75984,13.73302],[77.75988,13.73255],[77.75929,13.73233],[77.75933,13.73085],[77.76033,13.72871],[77.76261,13.72854],[77.76512,13.7301],[77.76995,13.73062],[77.77352,13.73203],[77.77389,13.73029],[77.77362,13.72743],[77.77542,13.72562],[77.77585,13.72438],[77.77563,13.72285],[77.78138,13.71998],[77.78209,13.71808],[77.78333,13.71832],[77.78574,13.71546],[77.78809,13.71566],[77.78794,13.71728],[77.78975,13.72241],[77.79309,13.72361],[77.7986,13.72862],[77.80221,13.72553],[77.80498,13.72389],[77.80818,13.71972],[77.81026,13.71896],[77.8134,13.71668],[77.81568,13.71708],[77.81635,13.7161],[77.81646,13.71462],[77.81583,13.71221],[77.81606,13.71075],[77.81504,13.70795],[77.81536,13.70699],[77.81798,13.7046],[77.82133,13.69909],[77.8241,13.69741],[77.82572,13.69729],[77.82715,13.69344],[77.82845,13.69197],[77.82809,13.68882],[77.82944,13.68507],[77.829,13.68299],[77.82936,13.68082],[77.83484,13.68166],[77.83945,13.68106],[77.84442,13.67976],[77.84469,13.68037],[77.84631,13.67981],[77.84816,13.67877],[77.84917,13.67581],[77.84905,13.67493],[77.85066,13.67448],[77.85208,13.67233],[77.85585,13.6701],[77.85938,13.66898],[77.86116,13.66729],[77.86182,13.6633],[77.86168,13.65689],[77.86311,13.65332],[77.86249,13.65076],[77.86257,13.6405],[77.85654,13.6412],[77.85351,13.64393],[77.84641,13.64552],[77.84427,13.64515],[77.83933,13.64606],[77.83888,13.64677],[77.8377,13.64643],[77.83925,13.63946],[77.83886,13.63782],[77.8375,13.63556],[77.83872,13.63373],[77.84005,13.63331],[77.84064,13.63185],[77.84311,13.62878],[77.84307,13.62532],[77.84222,13.62489],[77.8429,13.62155],[77.84229,13.62086],[77.83939,13.62104],[77.83802,13.61934],[77.8378,13.61671],[77.83425,13.61597],[77.83259,13.61401],[77.83172,13.61071],[77.83071,13.6098],[77.83051,13.60783],[77.82941,13.60749],[77.83008,13.60566],[77.82833,13.6032],[77.82838,13.60066],[77.82954,13.59925],[77.8316,13.5942],[77.8324,13.58999],[77.83348,13.59043],[77.83463,13.58797],[77.8421,13.58863],[77.84908,13.58851],[77.85289,13.58743],[77.85317,13.58155],[77.8565,13.58271],[77.87025,13.58449],[77.87116,13.57079],[77.87025,13.56666],[77.86591,13.56479],[77.84726,13.56064],[77.84611,13.56178],[77.83852,13.55846],[77.83156,13.55255],[77.83082,13.55142],[77.83005,13.55014],[77.82971,13.5438],[77.82606,13.53798],[77.82273,13.5357],[77.81479,13.53515],[77.81523,13.54237],[77.8138,13.54261],[77.81274,13.54365],[77.80973,13.54432],[77.80852,13.54711],[77.80771,13.54719],[77.80514,13.54602],[77.80275,13.54769],[77.79677,13.55035],[77.79479,13.55242],[77.79195,13.55201],[77.79145,13.55145],[77.78913,13.55364],[77.78781,13.55339],[77.77906,13.54823],[77.7787,13.54762],[77.7728,13.54492],[77.77265,13.54426],[77.77017,13.54399],[77.76838,13.54437],[77.76672,13.54381],[77.76593,13.54483],[77.76707,13.54584],[77.76763,13.55096],[77.76331,13.55418],[77.7618,13.55428],[77.76061,13.55896],[77.75955,13.55949],[77.76002,13.5619],[77.75454,13.5626],[77.75454,13.56405],[77.75226,13.56444],[77.75086,13.56054],[77.7459,13.55761],[77.74796,13.55379],[77.74706,13.5489],[77.74389,13.54616],[77.74249,13.54053],[77.73873,13.54491],[77.72955,13.54626],[77.72848,13.55138],[77.73451,13.56033],[77.73311,13.56109],[77.72419,13.56333],[77.71941,13.56536],[77.7169,13.56763],[77.71335,13.56851],[77.7019,13.57601],[77.69693,13.57755],[77.69507,13.57745],[77.69406,13.57286],[77.69168,13.56927],[77.68807,13.55995],[77.68832,13.55806],[77.68959,13.55583],[77.68771,13.54831],[77.68637,13.54914],[77.67625,13.54634],[77.67512,13.53851],[77.66335,13.53135],[77.65987,13.52468],[77.64755,13.53955],[77.64978,13.54746],[77.6546,13.5704],[77.66213,13.57685],[77.63792,13.58126],[77.6411,13.58748],[77.64832,13.59563],[77.65198,13.59784],[77.65109,13.60771],[77.65306,13.61506],[77.6515,13.62761],[77.65631,13.64485],[77.653,13.64912],[77.65366,13.65841],[77.64519,13.66331],[77.64013,13.66979],[77.64017,13.67121],[77.64351,13.68311],[77.65063,13.68569],[77.65723,13.67814],[77.6668,13.67876],[77.6671,13.68006],[77.66772,13.68008],[77.66883,13.68281],[77.67523,13.68252],[77.67909,13.68178],[77.68165,13.68555],[77.68067,13.68669],[77.68832,13.69225],[77.68632,13.69683],[77.69636,13.7012],[77.71052,13.70476],[77.71398,13.70454],[77.71404,13.70557],[77.71801,13.70517],[77.71858,13.70953],[77.71754,13.71276],[77.71801,13.72122],[77.71985,13.7252],[77.70465,13.72872],[77.69511,13.72795],[77.69283,13.72825],[77.69128,13.7276],[77.68928,13.72837],[77.68747,13.7281],[77.68722,13.72764],[77.68599,13.72789],[77.6837,13.72735],[77.68217,13.72778],[77.68074,13.72939],[77.68113,13.73058],[77.67667,13.73348],[77.67737,13.73632],[77.67562,13.73704],[77.6761,13.73746],[77.67533,13.73822],[77.67398,13.73883],[77.66521,13.7404],[77.65982,13.74387],[77.65707,13.74509],[77.65777,13.7475],[77.65997,13.75202],[77.66288,13.75475],[77.67099,13.75694],[77.67072,13.75906],[77.67112,13.76077],[77.6736,13.76037],[77.67914,13.76225],[77.68166,13.7641],[77.68501,13.76515],[77.68618,13.76633],[77.69009,13.76732],[77.69528,13.77042],[77.70303,13.77295],[77.70313,13.76415],[77.70413,13.7626],[77.70867,13.74074],[77.71739,13.74094],[77.7181,13.75109],[77.71987,13.75193],[77.71914,13.75513],[77.72049,13.75694],[77.7192,13.76027],[77.71948,13.76228],[77.72008,13.7625],[77.71968,13.765],[77.72181,13.76775],[77.72128,13.77014],[77.72413,13.77016],[77.72546,13.77066],[77.72894,13.7742],[77.73586,13.7766],[77.74017,13.77607],[77.74107,13.77756],[77.74222,13.77738],[77.74569,13.77819],[77.75477,13.77791]]]}},{"type":"Feature","properties":{"unitId":285,"unitName":"Bagepalli PS"},"geometry":{"type":"Polygon","coordinates":[[[77.97525,13.95907],[77.97872,13.95895],[77.98245,13.95803],[77.98428,13.95636],[77.98764,13.95572],[77.98583,13.9508],[77.98022,13.92812],[77.98217,13.92417],[77.9845,13.92203],[77.98471,13.90753],[77.98317,13.90612],[77.98271,13.90308],[77.98566,13.90114],[77.98513,13.89865],[77.98284,13.89531],[77.95489,13.88908],[77.95301,13.88819],[77.95166,13.88622],[77.9496,13.88607],[77.94926,13.88695],[77.94826,13.88126],[77.95188,13.85877],[77.95253,13.8559],[77.95306,13.85604],[77.95306,13.8548],[77.95359,13.85434],[77.95305,13.85237],[77.95307,13.8479],[77.95459,13.8414],[77.95374,13.83675],[77.94848,13.83553],[77.94481,13.83717],[77.94052,13.83654],[77.938,13.83504],[77.93504,13.83466],[77.93452,13.83285],[77.92552,13.82779],[77.91603,13.83203],[77.91098,13.83333],[77.90265,13.83428],[77.89991,13.83285],[77.89648,13.82969],[77.8937,13.82384],[77.88283,13.80975],[77.87976,13.81049],[77.88332,13.80684],[77.89892,13.80511],[77.89359,13.79947],[77.90829,13.78772],[77.90544,13.76839],[77.90324,13.75932],[77.90397,13.7546],[77.91206,13.74969],[77.91438,13.73883],[77.9089,13.73471],[77.90715,13.71538],[77.90797,13.71248],[77.91481,13.71286],[77.91111,13.70932],[77.91115,13.70387],[77.91398,13.70047],[77.90967,13.69269],[77.90835,13.68216],[77.90955,13.68224],[77.91577,13.67962],[77.91799,13.67935],[77.91825,13.67588],[77.91566,13.67542],[77.91571,13.67266],[77.91444,13.67218],[77.91279,13.6678],[77.92094,13.65804],[77.92147,13.64931],[77.91969,13.64285],[77.91373,13.64514],[77.913,13.6446],[77.91159,13.64516],[77.91171,13.6456],[77.90965,13.64595],[77.90912,13.64576],[77.9085,13.64127],[77.90548,13.64209],[77.90275,13.64897],[77.90341,13.65763],[77.90273,13.65946],[77.90176,13.65988],[77.90177,13.66067],[77.90039,13.66107],[77.90056,13.6622],[77.89899,13.66484],[77.89057,13.66513],[77.88783,13.66621],[77.88155,13.6675],[77.87955,13.66632],[77.87643,13.66754],[77.87258,13.6666],[77.87168,13.66733],[77.86116,13.66729],[77.85938,13.66898],[77.85585,13.6701],[77.85208,13.67233],[77.85066,13.67448],[77.84905,13.67493],[77.84917,13.67581],[77.84816,13.67877],[77.84631,13.67981],[77.84469,13.68037],[77.84442,13.67976],[77.83945,13.68106],[77.83484,13.68166],[77.82936,13.68082],[77.829,13.68299],[77.82944,13.68507],[77.82809,13.68882],[77.82845,13.69197],[77.82715,13.69344],[77.82572,13.69729],[77.8241,13.69741],[77.82133,13.69909],[77.81798,13.7046],[77.81536,13.70699],[77.81504,13.70795],[77.81606,13.71075],[77.81583,13.71221],[77.81646,13.71462],[77.81635,13.7161],[77.81568,13.71708],[77.8134,13.71668],[77.81026,13.71896],[77.80818,13.71972],[77.80498,13.72389],[77.80221,13.72553],[77.7986,13.72862],[77.79309,13.72361],[77.78975,13.72241],[77.78794,13.71728],[77.78809,13.71566],[77.78574,13.71546],[77.78333,13.71832],[77.78209,13.71808],[77.78138,13.71998],[77.77563,13.72285],[77.77585,13.72438],[77.77542,13.72562],[77.77362,13.72743],[77.77389,13.73029],[77.77352,13.73203],[77.76995,13.73062],[77.76512,13.7301],[77.76261,13.72854],[77.76033,13.72871],[77.75933,13.73085],[77.75929,13.73233],[77.75988,13.73255],[77.75984,13.73302],[77.75925,13.733],[77.75862,13.73407],[77.76596,13.73616],[77.76634,13.73805],[77.76474,13.74393],[77.76367,13.75251],[77.76291,13.75445],[77.76239,13.75454],[77.76271,13.75764],[77.75955,13.75706],[77.75701,13.75798],[77.75517,13.76224],[77.75612,13.7737],[77.75477,13.77791],[77.74569,13.77819],[77.74222,13.77738],[77.74107,13.77756],[77.74017,13.77607],[77.73586,13.7766],[77.72894,13.7742],[77.72546,13.77066],[77.72413,13.77016],[77.72128,13.77014],[77.7201,13.77206],[77.72023,13.77319],[77.71943,13.77516],[77.72015,13.77884],[77.71843,13.78283],[77.71869,13.78575],[77.71933,13.78656],[77.71923,13.78807],[77.72111,13.78832],[77.72138,13.78933],[77.72206,13.78947],[77.72109,13.7928],[77.72151,13.79498],[77.72051,13.79868],[77.71916,13.80049],[77.72504,13.80081],[77.72908,13.80273],[77.72978,13.80355],[77.73111,13.80312],[77.73226,13.80669],[77.73543,13.80995],[77.74086,13.81241],[77.74471,13.81053],[77.74453,13.81252],[77.74123,13.81405],[77.74183,13.81486],[77.74636,13.81386],[77.74542,13.81221],[77.74566,13.8103],[77.74532,13.80952],[77.74685,13.80928],[77.7534,13.81156],[77.7633,13.81738],[77.76873,13.81737],[77.78158,13.81841],[77.78155,13.81929],[77.78565,13.82163],[77.78748,13.8196],[77.78728,13.8205],[77.78911,13.82175],[77.78816,13.82594],[77.78822,13.82778],[77.78906,13.82928],[77.78764,13.83135],[77.78447,13.83351],[77.7837,13.83773],[77.78269,13.8381],[77.78249,13.83902],[77.78235,13.84391],[77.78644,13.84647],[77.78741,13.84689],[77.78826,13.84657],[77.79149,13.84859],[77.79435,13.84782],[77.79542,13.8488],[77.79903,13.8493],[77.81234,13.84749],[77.81412,13.85078],[77.81814,13.85604],[77.81967,13.86237],[77.82255,13.86399],[77.8251,13.86451],[77.82876,13.86417],[77.83671,13.86964],[77.83038,13.87316],[77.82689,13.87454],[77.82648,13.87597],[77.82779,13.87689],[77.83089,13.87732],[77.83546,13.88105],[77.83339,13.88734],[77.83314,13.88944],[77.83183,13.89196],[77.83232,13.89482],[77.83188,13.89573],[77.83092,13.89771],[77.82918,13.89892],[77.82166,13.90067],[77.81989,13.90138],[77.81593,13.90424],[77.81723,13.90814],[77.81685,13.91207],[77.8159,13.91173],[77.81464,13.91524],[77.81396,13.9157],[77.81324,13.91837],[77.8136,13.92536],[77.81454,13.93126],[77.81559,13.93348],[77.81863,13.93598],[77.82232,13.94033],[77.82355,13.94118],[77.82425,13.94214],[77.82421,13.94332],[77.82536,13.94481],[77.82801,13.94337],[77.8362,13.93621],[77.84577,13.9355],[77.84939,13.93697],[77.8566,13.93779],[77.86504,13.93621],[77.89564,13.94422],[77.89831,13.93533],[77.89698,13.92761],[77.89652,13.92167],[77.89591,13.92128],[77.89611,13.92093],[77.89963,13.91663],[77.90516,13.91578],[77.90879,13.91156],[77.911,13.91002],[77.91434,13.90868],[77.91632,13.90873],[77.9171,13.90926],[77.92154,13.90624],[77.9265,13.90532],[77.93833,13.92055],[77.94449,13.93037],[77.94611,13.9355],[77.95499,13.93888],[77.95709,13.93663],[77.96009,13.94062],[77.96205,13.95153],[77.96211,13.95536],[77.96452,13.9558],[77.96764,13.96042],[77.97221,13.96037],[77.9722,13.95979],[77.97525,13.95907]]]}},{"type":"Feature","properties":{"unitId":286,"unitName":"Pathapalya PS"},"geometry":{"type":"MultiPolygon","coordinates":[[[[78.00027,13.87292],[78.00623,13.87186],[78.01289,13.87131],[78.01396,13.87048],[78.01403,13.86907],[78.01576,13.86599],[78.01708,13.86572],[78.01698,13.86538],[78.01937,13.86431],[78.02411,13.86368],[78.02774,13.86425],[78.0296,13.864],[78.03077,13.86447],[78.03204,13.86432],[78.03272,13.8634],[78.03759,13.86224],[78.03757,13.86182],[78.03601,13.86201],[78.03614,13.86062],[78.03144,13.86032],[78.03083,13.85926],[78.0307,13.85655],[78.02938,13.85273],[78.02986,13.85037],[78.03122,13.84999],[78.03638,13.85015],[78.03797,13.85072],[78.03806,13.8516],[78.03883,13.85164],[78.04359,13.8496],[78.04469,13.84687],[78.04602,13.84547],[78.0484,13.84457],[78.04893,13.84537],[78.05113,13.84507],[78.05486,13.84742],[78.06322,13.85104],[78.06285,13.84679],[78.06365,13.84272],[78.06349,13.8398],[78.06525,13.83741],[78.06749,13.83571],[78.07099,13.83544],[78.07297,13.83623],[78.07225,13.83262],[78.07253,13.83186],[78.07339,13.83142],[78.0738,13.82758],[78.07091,13.82062],[78.07047,13.82083],[78.06986,13.81925],[78.06871,13.814],[78.06685,13.8112],[78.068,13.8079],[78.07148,13.8015],[78.07155,13.79859],[78.07037,13.79541],[78.06924,13.79327],[78.064,13.78643],[78.06355,13.78398],[78.05503,13.78332],[78.05192,13.77652],[78.05204,13.77301],[78.05256,13.7719],[78.04447,13.77058],[78.0382,13.7652],[78.03956,13.76343],[78.04086,13.75802],[78.04012,13.75377],[78.0393,13.75235],[78.03626,13.75182],[78.034,13.75027],[78.02749,13.75082],[78.02818,13.75159],[78.02682,13.75256],[78.02609,13.75161],[78.02223,13.75048],[78.01799,13.74989],[78.01698,13.75106],[78.01296,13.74338],[78.0127,13.74021],[78.01074,13.73922],[78.01124,13.73895],[78.01069,13.73869],[78.00787,13.73314],[78.00399,13.73002],[78.00224,13.72975],[78.00216,13.72701],[78.00026,13.72396],[78.0001,13.72296],[77.9982,13.72217],[77.99655,13.72239],[77.99374,13.72188],[77.98727,13.72296],[77.9837,13.71946],[77.97965,13.70904],[77.97449,13.70556],[77.97227,13.69962],[77.96574,13.69925],[77.96594,13.69871],[77.9597,13.66834],[77.95521,13.6653],[77.95495,13.6648],[77.95598,13.66378],[77.95607,13.66308],[77.9543,13.66209],[77.95402,13.66141],[77.95328,13.66137],[77.95361,13.66089],[77.95301,13.65957],[77.95307,13.65733],[77.95449,13.65786],[77.95499,13.65756],[77.95415,13.65602],[77.95362,13.65627],[77.95274,13.65504],[77.95309,13.65333],[77.95232,13.65308],[77.95267,13.6529],[77.95174,13.65028],[77.95456,13.64663],[77.95479,13.64202],[77.95231,13.64206],[77.95391,13.64072],[77.95377,13.64004],[77.95293,13.64012],[77.9528,13.63968],[77.95429,13.63609],[77.95377,13.63225],[77.954,13.63097],[77.95549,13.6307],[77.95541,13.6291],[77.95452,13.62938],[77.95382,13.62852],[77.95331,13.62967],[77.9521,13.63013],[77.94959,13.62881],[77.9475,13.62907],[77.94657,13.62953],[77.94564,13.63117],[77.94413,13.6303],[77.94376,13.62906],[77.94299,13.62957],[77.94154,13.62891],[77.94067,13.62977],[77.93683,13.62942],[77.9323,13.63241],[77.92592,13.63227],[77.92008,13.63642],[77.90866,13.63659],[77.90848,13.64114],[77.90912,13.64576],[77.91171,13.6456],[77.91159,13.64516],[77.913,13.6446],[77.91373,13.64514],[77.91969,13.64285],[77.92147,13.64931],[77.92094,13.65804],[77.91279,13.6678],[77.91444,13.67218],[77.91571,13.67266],[77.91566,13.67542],[77.91825,13.67588],[77.91799,13.67935],[77.91577,13.67962],[77.90955,13.68224],[77.90835,13.68216],[77.90967,13.69269],[77.91398,13.70047],[77.91115,13.70387],[77.91111,13.70932],[77.91481,13.71286],[77.90797,13.71248],[77.90715,13.71538],[77.9089,13.73471],[77.91438,13.73883],[77.91206,13.74969],[77.90397,13.7546],[77.90324,13.75932],[77.90544,13.76839],[77.90829,13.78772],[77.89359,13.79947],[77.89892,13.80511],[77.88332,13.80684],[77.87976,13.81049],[77.88283,13.80975],[77.8937,13.82384],[77.89648,13.82969],[77.89991,13.83285],[77.90265,13.83428],[77.91098,13.83333],[77.91603,13.83203],[77.92552,13.82779],[77.93452,13.83285],[77.93504,13.83466],[77.938,13.83504],[77.94052,13.83654],[77.94481,13.83717],[77.94848,13.83553],[77.95321,13.83681],[77.95598,13.83636],[77.95578,13.83002],[77.95172,13.82848],[77.95232,13.82688],[77.96026,13.82941],[77.97085,13.82859],[77.97284,13.82889],[77.97518,13.83063],[77.97586,13.83071],[77.97656,13.83002],[77.97769,13.83279],[77.97903,13.83884],[77.98077,13.84157],[77.98499,13.85061],[77.98765,13.85386],[77.98885,13.85368],[77.9888,13.85529],[77.9897,13.85876],[77.98929,13.86138],[77.99003,13.86245],[77.9912,13.8628],[77.99216,13.86507],[77.99263,13.8682],[77.99444,13.86858],[77.99667,13.86781],[77.99883,13.86912],[78.00027,13.87292]]],[[[78.0381,13.86138],[78.03829,13.86087],[78.03946,13.86081],[78.03932,13.86047],[78.03723,13.861],[78.0381,13.86138]]]]}},{"type":"Feature","properties":{"unitId":287,"unitName":"Chelur PS"},"geometry":{"type":"Polygon","coordinates":[[[78.05815,13.89288],[78.0608,13.8922],[78.06116,13.89135],[78.06245,13.89054],[78.06201,13.88795],[78.06595,13.88664],[78.06678,13.88583],[78.07255,13.88494],[78.07384,13.88328],[78.07643,13.88277],[78.07875,13.88134],[78.07957,13.87692],[78.08006,13.87641],[78.0804,13.87319],[78.07994,13.86997],[78.08189,13.86491],[78.08235,13.86184],[78.08562,13.86239],[78.08978,13.8646],[78.09361,13.86482],[78.09981,13.86209],[78.10746,13.86206],[78.10966,13.86225],[78.11204,13.86325],[78.11477,13.86328],[78.11552,13.86267],[78.11508,13.86237],[78.11621,13.85919],[78.11718,13.85202],[78.12202,13.84426],[78.12402,13.83304],[78.12508,13.83045],[78.12258,13.82496],[78.11518,13.81348],[78.11377,13.80758],[78.11547,13.8071],[78.11609,13.80611],[78.11857,13.80445],[78.12021,13.80187],[78.12288,13.79925],[78.12578,13.78606],[78.12541,13.78509],[78.12121,13.78048],[78.11984,13.7765],[78.11961,13.77366],[78.11894,13.77295],[78.11777,13.76949],[78.11346,13.76455],[78.11218,13.76338],[78.10673,13.76189],[78.10011,13.75879],[78.09789,13.75495],[78.09752,13.7531],[78.09547,13.74967],[78.09382,13.74491],[78.0922,13.74227],[78.0943,13.74043],[78.09943,13.73774],[78.10462,13.7365],[78.10887,13.73069],[78.11043,13.72625],[78.11146,13.72504],[78.11542,13.72303],[78.11793,13.72011],[78.12014,13.7161],[78.12074,13.71588],[78.11725,13.70792],[78.1154,13.70548],[78.11472,13.70348],[78.11307,13.69284],[78.10658,13.69309],[78.10648,13.6926],[78.09914,13.69207],[78.09849,13.69122],[78.09281,13.69131],[78.09231,13.69154],[78.09254,13.69236],[78.09214,13.6926],[78.08971,13.69198],[78.08595,13.69203],[78.07993,13.69639],[78.07789,13.697],[78.0758,13.69843],[78.07318,13.69858],[78.07258,13.69811],[78.07013,13.69789],[78.06962,13.69757],[78.06911,13.69547],[78.06951,13.694],[78.06926,13.69114],[78.07093,13.68857],[78.07333,13.6882],[78.07276,13.68572],[78.07085,13.68211],[78.0675,13.67986],[78.06637,13.67716],[78.05943,13.67305],[78.05265,13.67006],[78.04613,13.66889],[78.04421,13.66976],[78.0325,13.67147],[78.02727,13.66968],[78.025,13.6669],[78.02174,13.66726],[78.01969,13.66584],[78.01262,13.66576],[78.00388,13.66443],[77.99776,13.64352],[77.99769,13.63936],[77.99563,13.63523],[77.99432,13.63106],[77.984,13.63235],[77.98221,13.63113],[77.98184,13.62915],[77.9805,13.62888],[77.97753,13.62701],[77.97575,13.62476],[77.9722,13.62449],[77.97234,13.62647],[77.97146,13.62657],[77.9694,13.62576],[77.96303,13.62674],[77.96185,13.62876],[77.96039,13.62729],[77.95937,13.62764],[77.95819,13.62731],[77.957,13.6282],[77.95586,13.62832],[77.95541,13.6291],[77.95549,13.6307],[77.954,13.63097],[77.95377,13.63225],[77.95429,13.63609],[77.9528,13.63968],[77.95293,13.64012],[77.95377,13.64004],[77.95391,13.64072],[77.95231,13.64206],[77.95479,13.64202],[77.95461,13.64635],[77.95174,13.65028],[77.95267,13.6529],[77.95232,13.65308],[77.95309,13.65333],[77.95274,13.65504],[77.95362,13.65627],[77.95415,13.65602],[77.95499,13.65756],[77.95449,13.65786],[77.95307,13.65733],[77.95301,13.65957],[77.95361,13.66089],[77.95328,13.66137],[77.95402,13.66141],[77.9543,13.66209],[77.95607,13.66308],[77.95598,13.66378],[77.95495,13.6648],[77.95521,13.6653],[77.9597,13.66834],[77.96594,13.69871],[77.96574,13.69925],[77.97227,13.69962],[77.97449,13.70556],[77.97965,13.70904],[77.9837,13.71946],[77.98727,13.72296],[77.99374,13.72188],[77.99655,13.72239],[77.9982,13.72217],[78.0001,13.72296],[78.00026,13.72396],[78.00216,13.72701],[78.00224,13.72975],[78.00399,13.73002],[78.00787,13.73314],[78.01069,13.73869],[78.01124,13.73895],[78.01074,13.73922],[78.0127,13.74021],[78.01296,13.74338],[78.01698,13.75106],[78.01799,13.74989],[78.02223,13.75048],[78.02609,13.75161],[78.02682,13.75256],[78.02818,13.75159],[78.02749,13.75082],[78.034,13.75027],[78.03626,13.75182],[78.0393,13.75235],[78.04012,13.75377],[78.04086,13.75802],[78.03956,13.76343],[78.0382,13.7652],[78.04447,13.77058],[78.05256,13.7719],[78.05204,13.77301],[78.05192,13.77652],[78.05503,13.78332],[78.06355,13.78398],[78.064,13.78643],[78.06924,13.79327],[78.07037,13.79541],[78.07155,13.79859],[78.07148,13.8015],[78.068,13.8079],[78.06685,13.8112],[78.06871,13.814],[78.06986,13.81925],[78.07047,13.82083],[78.07091,13.82062],[78.0738,13.82758],[78.07339,13.83142],[78.07253,13.83186],[78.07225,13.83262],[78.07297,13.83623],[78.07099,13.83544],[78.06749,13.83571],[78.06525,13.83741],[78.06349,13.8398],[78.06365,13.84272],[78.06285,13.84679],[78.06322,13.85104],[78.05486,13.84742],[78.05113,13.84507],[78.04893,13.84537],[78.0484,13.84457],[78.04602,13.84547],[78.04469,13.84687],[78.04359,13.8496],[78.04202,13.85043],[78.03883,13.85164],[78.03806,13.8516],[78.03797,13.85072],[78.03638,13.85015],[78.03122,13.84999],[78.02986,13.85037],[78.02938,13.85273],[78.0307,13.85655],[78.03083,13.85926],[78.03144,13.86032],[78.03614,13.86062],[78.03601,13.86201],[78.03757,13.86182],[78.03777,13.86222],[78.03822,13.86161],[78.03723,13.861],[78.04138,13.86026],[78.0466,13.86216],[78.04613,13.86317],[78.04679,13.86438],[78.04676,13.86678],[78.04839,13.86884],[78.04899,13.87071],[78.04988,13.87071],[78.05156,13.88172],[78.05007,13.89018],[78.04864,13.89347],[78.04879,13.89621],[78.05318,13.8953],[78.05815,13.89288]]]}},{"type":"Feature","properties":{"unitId":288,"unitName":"Chinthamani TownPS"},"geometry":{"type":"Polygon","coordinates":[[[78.05679,13.51745],[78.05727,13.5182],[78.05916,13.51799],[78.06112,13.51669],[78.06199,13.51508],[78.06449,13.51324],[78.06887,13.51257],[78.07226,13.51127],[78.07804,13.50809],[78.07799,13.50517],[78.07891,13.50021],[78.07636,13.49367],[78.068,13.49391],[78.06625,13.49213],[78.06541,13.48877],[78.06637,13.48345],[78.06579,13.48322],[78.06614,13.48146],[78.06708,13.48046],[78.06809,13.4799],[78.07282,13.47936],[78.0776,13.48102],[78.07899,13.4808],[78.08067,13.48028],[78.08204,13.47596],[78.08091,13.46861],[78.0812,13.45984],[78.07753,13.45722],[78.07637,13.45547],[78.07722,13.45498],[78.07472,13.45371],[78.07415,13.45389],[78.07339,13.45319],[78.07105,13.4503],[78.0706,13.44842],[78.0695,13.44799],[78.06907,13.44428],[78.0702,13.4416],[78.07812,13.43835],[78.08474,13.43894],[78.09364,13.44078],[78.09997,13.44137],[78.10193,13.43847],[78.10469,13.43662],[78.10253,13.4345],[78.10242,13.43387],[78.10438,13.43231],[78.10667,13.42794],[78.10688,13.42663],[78.11204,13.42631],[78.11513,13.42317],[78.11739,13.41986],[78.11892,13.41641],[78.12411,13.41667],[78.12851,13.4092],[78.1332,13.40858],[78.13616,13.40561],[78.13596,13.40347],[78.13368,13.39642],[78.13069,13.39221],[78.12844,13.38641],[78.12446,13.3858],[78.12179,13.37662],[78.12214,13.37571],[78.12806,13.37486],[78.12901,13.37344],[78.13241,13.37383],[78.1437,13.37714],[78.14424,13.37578],[78.14673,13.37384],[78.1462,13.37351],[78.14875,13.36722],[78.14523,13.36165],[78.14872,13.36137],[78.1498,13.35886],[78.15025,13.3505],[78.13142,13.3528],[78.13134,13.35077],[78.13055,13.34924],[78.13125,13.34091],[78.13208,13.33951],[78.13278,13.33942],[78.13517,13.33225],[78.13396,13.33273],[78.13253,13.32902],[78.12729,13.32799],[78.12736,13.32684],[78.12658,13.32667],[78.12601,13.32747],[78.1238,13.3266],[78.11082,13.32483],[78.1097,13.32361],[78.1141,13.3177],[78.11938,13.31662],[78.12031,13.31579],[78.12081,13.31517],[78.12157,13.31104],[78.12284,13.31057],[78.12306,13.30877],[78.13172,13.30705],[78.13582,13.3052],[78.13509,13.30075],[78.13659,13.29994],[78.13601,13.29507],[78.13357,13.28726],[78.12705,13.29025],[78.12603,13.29203],[78.12258,13.29195],[78.12233,13.29341],[78.11968,13.29575],[78.1189,13.29797],[78.11742,13.2985],[78.11506,13.30041],[78.10852,13.30375],[78.10485,13.30411],[78.10477,13.30306],[78.10255,13.3038],[78.09743,13.30901],[78.09214,13.30919],[78.09224,13.31094],[78.09186,13.3112],[78.0912,13.30968],[78.08998,13.30844],[78.08958,13.30387],[78.08717,13.30321],[78.08676,13.30216],[78.0846,13.30193],[78.08375,13.3024],[78.0822,13.30184],[78.07963,13.30278],[78.07958,13.30222],[78.07887,13.30222],[78.07887,13.30153],[78.07809,13.30152],[78.07757,13.30092],[78.07701,13.30085],[78.07718,13.30188],[78.07507,13.30211],[78.07499,13.30107],[78.07313,13.30148],[78.07092,13.30039],[78.06012,13.30103],[78.05855,13.29544],[78.05863,13.2935],[78.05641,13.29435],[78.05378,13.29457],[78.05185,13.29348],[78.05158,13.29096],[78.04872,13.28473],[78.04703,13.27906],[78.03574,13.28099],[78.03441,13.28271],[78.03061,13.28404],[78.02384,13.28297],[78.01696,13.28344],[78.01514,13.28302],[78.01382,13.28543],[78.01476,13.28994],[78.01148,13.29115],[78.01122,13.2951],[78.0114,13.29619],[78.01201,13.29633],[78.01182,13.30076],[78.00586,13.30267],[78.001,13.30554],[78.00092,13.30492],[77.9947,13.30542],[77.98927,13.3046],[77.98857,13.30335],[77.98802,13.30058],[77.98622,13.30105],[77.9863,13.30041],[77.9853,13.30064],[77.98412,13.28628],[77.97941,13.28711],[77.97205,13.28469],[77.9674,13.28258],[77.96423,13.28279],[77.96091,13.28434],[77.95949,13.28198],[77.9576,13.28146],[77.95707,13.27871],[77.95721,13.27677],[77.95923,13.27597],[77.95966,13.27085],[77.95919,13.27057],[77.9592,13.26958],[77.94887,13.2695],[77.94785,13.2702],[77.94709,13.26946],[77.94698,13.27112],[77.9459,13.27104],[77.94545,13.27186],[77.94541,13.27075],[77.94473,13.27043],[77.94426,13.26916],[77.94264,13.26938],[77.94195,13.26736],[77.9384,13.26776],[77.93927,13.27553],[77.93765,13.27572],[77.9378,13.27664],[77.93086,13.27822],[77.93131,13.28179],[77.92556,13.28501],[77.92293,13.28513],[77.92349,13.28913],[77.92087,13.28913],[77.92022,13.28849],[77.91476,13.28972],[77.91522,13.29175],[77.91972,13.29242],[77.9239,13.29086],[77.92571,13.30057],[77.92544,13.30181],[77.92605,13.30527],[77.92391,13.30548],[77.9227,13.30486],[77.9235,13.30756],[77.92076,13.30728],[77.92041,13.31439],[77.92101,13.3184],[77.92078,13.32715],[77.92214,13.32876],[77.92274,13.32848],[77.92433,13.32651],[77.92668,13.32473],[77.92738,13.32343],[77.9327,13.31934],[77.93585,13.31838],[77.93873,13.31611],[77.94014,13.31947],[77.94356,13.32299],[77.95164,13.32527],[77.95199,13.32943],[77.95119,13.32811],[77.94413,13.33008],[77.94531,13.33203],[77.94493,13.33677],[77.94568,13.33795],[77.9465,13.33901],[77.95008,13.34094],[77.95063,13.34195],[77.95374,13.3415],[77.95769,13.3401],[77.96076,13.34978],[77.96161,13.35411],[77.96178,13.36336],[77.96317,13.36704],[77.96307,13.37114],[77.96011,13.37222],[77.96225,13.37658],[77.9645,13.37961],[77.96507,13.38356],[77.96614,13.38486],[77.96169,13.38794],[77.95615,13.39086],[77.95656,13.39153],[77.95958,13.39028],[77.96001,13.39195],[77.95942,13.3934],[77.95931,13.39592],[77.96031,13.39778],[77.96024,13.40031],[77.96114,13.40077],[77.96206,13.40336],[77.96398,13.40445],[77.96739,13.40491],[77.97137,13.40664],[77.97206,13.40733],[77.97287,13.41106],[77.97246,13.41321],[77.96706,13.41391],[77.95475,13.41348],[77.95277,13.41651],[77.94919,13.42572],[77.94986,13.43034],[77.95281,13.43328],[77.95388,13.43605],[77.95384,13.43679],[77.95043,13.43773],[77.95026,13.43835],[77.95131,13.44055],[77.95081,13.44076],[77.95085,13.44127],[77.95296,13.44431],[77.95398,13.44712],[77.9549,13.44695],[77.95548,13.44811],[77.957,13.45396],[77.95791,13.45549],[77.95751,13.46566],[77.96067,13.46901],[77.96189,13.48051],[77.9675,13.47908],[77.97478,13.47489],[77.97903,13.47425],[77.98096,13.47441],[77.98208,13.47354],[77.98439,13.47414],[77.98834,13.47409],[78.00134,13.47257],[78.00498,13.48163],[78.00296,13.48963],[78.00348,13.49172],[78.00357,13.49584],[78.00529,13.49553],[78.00736,13.49607],[78.00869,13.50398],[78.00865,13.50517],[78.00757,13.50605],[78.00815,13.50616],[78.00844,13.50697],[78.00815,13.50916],[78.00861,13.50966],[78.01593,13.51064],[78.01662,13.51396],[78.02629,13.52017],[78.03082,13.52383],[78.0411,13.52238],[78.04938,13.51896],[78.05679,13.51745]],[[78.04166,13.41508],[78.04167,13.4138],[78.04122,13.41326],[78.04511,13.41328],[78.04402,13.41075],[78.04453,13.40782],[78.04332,13.40771],[78.04185,13.4035],[78.04041,13.40377],[78.03898,13.40217],[78.0387,13.39814],[78.03979,13.3967],[78.03781,13.38186],[78.03491,13.38184],[78.0355,13.37901],[78.03952,13.37946],[78.03957,13.37991],[78.04106,13.37992],[78.04338,13.38127],[78.04569,13.38146],[78.04579,13.38182],[78.04981,13.38078],[78.05124,13.38447],[78.05392,13.38373],[78.06139,13.38366],[78.06402,13.3841],[78.06476,13.39127],[78.06327,13.39553],[78.06364,13.40002],[78.06553,13.40134],[78.06643,13.40277],[78.06534,13.40668],[78.06536,13.40881],[78.06462,13.40891],[78.06462,13.41029],[78.06396,13.41097],[78.06417,13.41301],[78.06152,13.41505],[78.06151,13.41676],[78.06095,13.41681],[78.06076,13.41782],[78.05959,13.4179],[78.05897,13.41884],[78.05918,13.41963],[78.05539,13.41989],[78.0526,13.41949],[78.04852,13.42089],[78.04781,13.41912],[78.04584,13.41833],[78.04208,13.41772],[78.04251,13.41674],[78.04214,13.41514],[78.04166,13.41508]]]}},{"type":"Feature","properties":{"unitId":289,"unitName":"KencharlahalliPS"},"geometry":{"type":"MultiPolygon","coordinates":[[[[78.07227,13.67456],[78.07718,13.67342],[78.07815,13.66824],[78.08279,13.66415],[78.08805,13.66082],[78.08725,13.66062],[78.0895,13.65954],[78.08869,13.6552],[78.08732,13.6525],[78.08679,13.64631],[78.0871,13.64365],[78.0943,13.64402],[78.09453,13.6433],[78.09637,13.64281],[78.10801,13.64361],[78.11045,13.64254],[78.11059,13.63612],[78.10736,13.63677],[78.10677,13.63507],[78.1052,13.6361],[78.10146,13.63484],[78.09901,13.63613],[78.0986,13.63424],[78.09866,13.62937],[78.10105,13.62278],[78.10168,13.62259],[78.10239,13.62114],[78.10452,13.62085],[78.10396,13.61718],[78.10476,13.615],[78.10139,13.61319],[78.10089,13.61339],[78.09987,13.6118],[78.09983,13.61052],[78.10266,13.60653],[78.10666,13.60618],[78.10883,13.60475],[78.11052,13.60507],[78.1127,13.60447],[78.11424,13.60505],[78.11518,13.60033],[78.11352,13.60004],[78.10881,13.60046],[78.10416,13.60104],[78.10172,13.60198],[78.10023,13.59812],[78.10033,13.59685],[78.10416,13.59467],[78.10483,13.59282],[78.10681,13.59166],[78.10795,13.58887],[78.10754,13.58866],[78.10432,13.58771],[78.09093,13.58616],[78.08699,13.58204],[78.08267,13.58572],[78.08777,13.57925],[78.08817,13.5773],[78.08957,13.57632],[78.09053,13.56539],[78.095,13.5652],[78.10023,13.56641],[78.10397,13.56575],[78.10476,13.56691],[78.10596,13.56668],[78.10913,13.56747],[78.10998,13.56715],[78.11158,13.56413],[78.11344,13.56278],[78.112,13.55589],[78.11089,13.55477],[78.11056,13.55338],[78.10975,13.55243],[78.10805,13.55169],[78.10777,13.55055],[78.10504,13.55092],[78.0968,13.54945],[78.09012,13.5499],[78.08935,13.54752],[78.10266,13.54506],[78.10319,13.53594],[78.10499,13.53685],[78.10595,13.53617],[78.10737,13.53485],[78.10954,13.53084],[78.11255,13.52973],[78.11438,13.52755],[78.11424,13.51935],[78.11695,13.50876],[78.11845,13.50536],[78.11825,13.49809],[78.11685,13.49583],[78.10972,13.49505],[78.09894,13.49686],[78.09946,13.49493],[78.10023,13.49441],[78.09997,13.49392],[78.10062,13.49334],[78.0994,13.48829],[78.10378,13.48864],[78.1048,13.48815],[78.10618,13.48868],[78.10751,13.48838],[78.10726,13.48772],[78.10759,13.48759],[78.10896,13.48794],[78.10936,13.48776],[78.10938,13.48464],[78.10721,13.48527],[78.10684,13.48581],[78.1062,13.48566],[78.10485,13.48415],[78.10531,13.4807],[78.10575,13.47963],[78.10638,13.47954],[78.10547,13.47892],[78.10284,13.479],[78.0998,13.47722],[78.09824,13.47382],[78.10276,13.47001],[78.10076,13.46654],[78.10161,13.46324],[78.1046,13.46088],[78.10441,13.45576],[78.10645,13.45552],[78.10911,13.4539],[78.11207,13.45436],[78.11222,13.45329],[78.11334,13.45231],[78.11504,13.45205],[78.12276,13.44882],[78.12223,13.45038],[78.13355,13.45102],[78.13402,13.45165],[78.13591,13.45215],[78.13814,13.45364],[78.13905,13.45335],[78.14192,13.45397],[78.14147,13.46105],[78.14199,13.46342],[78.14805,13.46486],[78.15108,13.46614],[78.1535,13.46792],[78.1537,13.46993],[78.15654,13.47498],[78.15849,13.47535],[78.16052,13.4751],[78.16004,13.46932],[78.15907,13.469],[78.15919,13.4674],[78.15811,13.4661],[78.15785,13.46503],[78.1544,13.46539],[78.15351,13.46231],[78.15193,13.46235],[78.15083,13.46063],[78.15094,13.45983],[78.14787,13.45351],[78.15712,13.45476],[78.15835,13.45352],[78.15757,13.45237],[78.15757,13.45015],[78.15659,13.44902],[78.15594,13.44901],[78.15635,13.44808],[78.15083,13.44305],[78.1514,13.44],[78.15396,13.44001],[78.1548,13.43837],[78.15487,13.43603],[78.15316,13.43377],[78.1509,13.4292],[78.15507,13.42793],[78.15449,13.42546],[78.15467,13.4231],[78.15688,13.42332],[78.15581,13.41677],[78.15836,13.41454],[78.15452,13.41052],[78.15212,13.40879],[78.14704,13.40928],[78.141,13.40764],[78.13913,13.4061],[78.13616,13.40561],[78.1332,13.40858],[78.12851,13.4092],[78.12411,13.41667],[78.11892,13.41641],[78.11739,13.41986],[78.11513,13.42317],[78.11204,13.42631],[78.10688,13.42663],[78.10667,13.42794],[78.10438,13.43231],[78.10242,13.43387],[78.10253,13.4345],[78.10469,13.43662],[78.10193,13.43847],[78.09997,13.44137],[78.09364,13.44078],[78.08474,13.43894],[78.07812,13.43835],[78.0702,13.4416],[78.06907,13.44428],[78.0695,13.44799],[78.0706,13.44842],[78.07105,13.4503],[78.07339,13.45319],[78.07415,13.45389],[78.07472,13.45371],[78.07722,13.45498],[78.07637,13.45547],[78.07753,13.45722],[78.0812,13.45984],[78.08091,13.46861],[78.08204,13.47596],[78.08067,13.48028],[78.07899,13.4808],[78.0776,13.48102],[78.07282,13.47936],[78.06809,13.4799],[78.06708,13.48046],[78.06614,13.48146],[78.06579,13.48322],[78.06637,13.48345],[78.06541,13.48877],[78.06625,13.49213],[78.068,13.49391],[78.07636,13.49367],[78.07891,13.50021],[78.07799,13.50517],[78.078,13.50828],[78.06887,13.51257],[78.06449,13.51324],[78.06199,13.51508],[78.06112,13.51669],[78.05916,13.51799],[78.05727,13.5182],[78.05708,13.51738],[78.05382,13.51804],[78.04938,13.51896],[78.0411,13.52238],[78.03082,13.52383],[78.02629,13.52017],[78.01662,13.51396],[78.01593,13.51064],[78.00853,13.50958],[78.00783,13.51098],[78.00671,13.51129],[78.00378,13.51397],[78.00242,13.51422],[78.00101,13.51315],[77.99817,13.50861],[77.9931,13.50828],[77.99236,13.50859],[77.9902,13.51246],[77.9925,13.51928],[77.99326,13.5202],[77.99376,13.52077],[77.99899,13.5217],[78.00116,13.52136],[78.0019,13.52063],[78.00499,13.52255],[78.00453,13.52441],[77.99994,13.5276],[77.99907,13.52997],[77.99753,13.53105],[77.99567,13.5334],[77.99771,13.53729],[77.99717,13.5425],[77.99383,13.54597],[77.99051,13.54589],[77.98718,13.54368],[77.98382,13.54018],[77.9837,13.53863],[77.98326,13.53861],[77.98248,13.5401],[77.97868,13.54041],[77.97779,13.54118],[77.97797,13.54254],[77.976,13.5462],[77.97446,13.54273],[77.96892,13.54595],[77.96805,13.54582],[77.96818,13.55502],[77.96704,13.5556],[77.96713,13.55593],[77.96569,13.55635],[77.96387,13.55534],[77.96176,13.55726],[77.95903,13.55765],[77.96007,13.56154],[77.96073,13.57148],[77.96313,13.57854],[77.9642,13.58472],[77.97017,13.58353],[77.97098,13.5732],[77.97258,13.57363],[77.97654,13.57759],[77.9771,13.58222],[77.98059,13.58144],[77.98244,13.58188],[77.98637,13.58291],[77.98939,13.58514],[77.99465,13.58983],[77.99515,13.59397],[77.99678,13.59419],[78.00221,13.5913],[78.00689,13.59103],[78.01009,13.59159],[78.01411,13.59149],[78.01562,13.59167],[78.01657,13.59256],[78.01598,13.59712],[78.01676,13.60019],[78.00971,13.60254],[78.01217,13.60742],[78.0108,13.60958],[78.01003,13.61556],[78.00916,13.61617],[78.00915,13.62491],[78.00958,13.62811],[78.00362,13.62972],[77.99749,13.62948],[77.99432,13.63106],[77.99563,13.63523],[77.99769,13.63936],[77.99776,13.64352],[78.00388,13.66443],[78.01262,13.66576],[78.01969,13.66584],[78.02174,13.66726],[78.025,13.6669],[78.02727,13.66968],[78.0325,13.67147],[78.04421,13.66976],[78.04613,13.66889],[78.05265,13.67006],[78.05943,13.67305],[78.06637,13.67716],[78.06736,13.67631],[78.07227,13.67456]]],[[[78.18322,13.43289],[78.18253,13.43092],[78.18272,13.42892],[78.18336,13.42791],[78.18321,13.42668],[78.18151,13.42262],[78.18158,13.4203],[78.17951,13.41998],[78.17316,13.41695],[78.16872,13.41362],[78.16284,13.41535],[78.1597,13.41495],[78.15971,13.42186],[78.16044,13.42218],[78.1615,13.42382],[78.1632,13.42344],[78.16397,13.42632],[78.16502,13.42659],[78.16625,13.42846],[78.16854,13.42959],[78.17004,13.42439],[78.17108,13.42407],[78.17171,13.42329],[78.17144,13.42231],[78.17331,13.42177],[78.17466,13.42526],[78.17488,13.43103],[78.17578,13.43156],[78.1757,13.43118],[78.17759,13.43136],[78.17598,13.43136],[78.17603,13.43171],[78.17744,13.43175],[78.17956,13.43279],[78.18328,13.43342],[78.18322,13.43289]]]]}},{"type":"Feature","properties":{"unitId":290,"unitName":"Batalahalli PS"},"geometry":{"type":"Polygon","coordinates":[[[78.13435,13.65995],[78.13751,13.65863],[78.14139,13.65894],[78.1476,13.6568],[78.14738,13.65773],[78.14952,13.65804],[78.15547,13.65759],[78.15556,13.65794],[78.16741,13.65529],[78.16873,13.65309],[78.16792,13.65058],[78.16733,13.64304],[78.16803,13.64307],[78.16882,13.64111],[78.16876,13.63857],[78.16775,13.63762],[78.16853,13.63349],[78.16716,13.63267],[78.17069,13.63144],[78.17703,13.63016],[78.18612,13.63047],[78.19097,13.62937],[78.20395,13.62851],[78.20252,13.62105],[78.20174,13.62009],[78.20367,13.61772],[78.20331,13.61721],[78.20376,13.6169],[78.2035,13.60663],[78.20146,13.60217],[78.19913,13.59919],[78.19208,13.59089],[78.19014,13.59],[78.18959,13.58529],[78.19071,13.58372],[78.1889,13.57355],[78.18954,13.57082],[78.19331,13.56418],[78.20122,13.5636],[78.19827,13.55731],[78.19822,13.55484],[78.19512,13.55166],[78.19397,13.54834],[78.19446,13.54614],[78.19923,13.54468],[78.20157,13.54089],[78.20091,13.53967],[78.20142,13.53275],[78.20289,13.5316],[78.20389,13.5295],[78.20389,13.52836],[78.2045,13.52792],[78.20336,13.52328],[78.19757,13.52061],[78.19097,13.52122],[78.18834,13.51322],[78.1932,13.51209],[78.19427,13.51272],[78.19666,13.51227],[78.198,13.51266],[78.19985,13.50856],[78.19925,13.50598],[78.20032,13.4982],[78.19976,13.49147],[78.20046,13.48252],[78.20254,13.48034],[78.20744,13.47802],[78.21002,13.47122],[78.20941,13.46868],[78.20738,13.46599],[78.20562,13.46469],[78.2056,13.45811],[78.20087,13.44987],[78.19352,13.44818],[78.19436,13.44218],[78.19262,13.43884],[78.18747,13.4344],[78.18514,13.43458],[78.18698,13.43373],[78.18313,13.43406],[78.18328,13.43342],[78.18193,13.43295],[78.17956,13.43279],[78.17744,13.43175],[78.17603,13.43171],[78.17598,13.43136],[78.17759,13.43136],[78.1757,13.43118],[78.17578,13.43156],[78.17536,13.4315],[78.17484,13.43075],[78.17466,13.42526],[78.17331,13.42177],[78.17144,13.42231],[78.17171,13.42329],[78.17108,13.42407],[78.17004,13.42439],[78.16854,13.42959],[78.16625,13.42846],[78.16502,13.42659],[78.16397,13.42632],[78.1632,13.42344],[78.1615,13.42382],[78.16044,13.42218],[78.15971,13.42186],[78.1597,13.41495],[78.15836,13.41454],[78.15581,13.41677],[78.15688,13.42332],[78.15467,13.4231],[78.15449,13.42546],[78.15507,13.42793],[78.1509,13.4292],[78.15316,13.43377],[78.15487,13.43603],[78.1548,13.43837],[78.15396,13.44001],[78.1514,13.44],[78.15083,13.44305],[78.15635,13.44808],[78.15594,13.44901],[78.15659,13.44902],[78.15757,13.45015],[78.15757,13.45237],[78.15835,13.45352],[78.15712,13.45476],[78.14787,13.45351],[78.15094,13.45983],[78.15083,13.46063],[78.15193,13.46235],[78.15351,13.46231],[78.1544,13.46539],[78.15785,13.46503],[78.15811,13.4661],[78.15919,13.4674],[78.15907,13.469],[78.16004,13.46932],[78.16052,13.4751],[78.15849,13.47535],[78.15654,13.47498],[78.1537,13.46993],[78.1535,13.46792],[78.15108,13.46614],[78.14805,13.46486],[78.14199,13.46342],[78.14147,13.46105],[78.14192,13.45397],[78.13905,13.45335],[78.13814,13.45364],[78.13591,13.45215],[78.13402,13.45165],[78.13355,13.45102],[78.12223,13.45038],[78.12276,13.44882],[78.11504,13.45205],[78.11334,13.45231],[78.11222,13.45329],[78.11207,13.45436],[78.10911,13.4539],[78.10645,13.45552],[78.10441,13.45576],[78.1046,13.46088],[78.10161,13.46324],[78.10076,13.46654],[78.10276,13.47001],[78.09824,13.47382],[78.0998,13.47722],[78.10284,13.479],[78.10547,13.47892],[78.10638,13.47954],[78.10575,13.47963],[78.10531,13.4807],[78.10485,13.48415],[78.1065,13.48592],[78.10721,13.48527],[78.10938,13.48464],[78.10936,13.48776],[78.10836,13.48808],[78.10759,13.48759],[78.10726,13.48772],[78.10751,13.48838],[78.10618,13.48868],[78.1048,13.48815],[78.10378,13.48864],[78.0994,13.48829],[78.10062,13.49334],[78.09997,13.49392],[78.10023,13.49441],[78.09946,13.49493],[78.09894,13.49686],[78.10972,13.49505],[78.11685,13.49583],[78.11825,13.49809],[78.11845,13.50536],[78.11695,13.50876],[78.11424,13.51935],[78.11438,13.52755],[78.11255,13.52973],[78.10954,13.53084],[78.10737,13.53485],[78.10595,13.53617],[78.10499,13.53685],[78.10319,13.53594],[78.10266,13.54506],[78.08935,13.54752],[78.09012,13.5499],[78.0968,13.54945],[78.10504,13.55092],[78.10777,13.55055],[78.10805,13.55169],[78.10975,13.55243],[78.11056,13.55338],[78.11089,13.55477],[78.112,13.55589],[78.11344,13.56278],[78.11158,13.56413],[78.10998,13.56715],[78.10913,13.56747],[78.10596,13.56668],[78.10476,13.56691],[78.10397,13.56575],[78.10023,13.56641],[78.095,13.5652],[78.09053,13.56539],[78.08957,13.57632],[78.08817,13.5773],[78.08777,13.57925],[78.08267,13.58572],[78.08699,13.58204],[78.09093,13.58616],[78.10432,13.58771],[78.10754,13.58866],[78.10795,13.58887],[78.10681,13.59166],[78.10483,13.59282],[78.10416,13.59467],[78.10033,13.59685],[78.10023,13.59812],[78.10172,13.60198],[78.10416,13.60104],[78.10881,13.60046],[78.11352,13.60004],[78.11518,13.60033],[78.11424,13.60505],[78.1127,13.60447],[78.11052,13.60507],[78.10883,13.60475],[78.10666,13.60618],[78.10266,13.60653],[78.09983,13.61052],[78.09987,13.6118],[78.10089,13.61339],[78.10139,13.61319],[78.10476,13.615],[78.10396,13.61718],[78.10452,13.62085],[78.10239,13.62114],[78.10168,13.62259],[78.10105,13.62278],[78.09866,13.62937],[78.0986,13.63424],[78.09901,13.63613],[78.10146,13.63484],[78.1052,13.6361],[78.10677,13.63507],[78.10736,13.63677],[78.11067,13.63634],[78.11045,13.64254],[78.10801,13.64361],[78.09858,13.64306],[78.09878,13.64411],[78.10138,13.64744],[78.10226,13.65166],[78.104,13.65144],[78.105,13.65268],[78.10663,13.65239],[78.108,13.65301],[78.10791,13.65364],[78.11003,13.65568],[78.11385,13.65765],[78.11687,13.65779],[78.12102,13.65624],[78.12523,13.65589],[78.12697,13.657],[78.12974,13.65776],[78.13076,13.6599],[78.13435,13.65995]]]}},{"type":"Feature","properties":{"unitId":291,"unitName":"Shidlagatta Town PS"},"geometry":{"type":"Polygon","coordinates":[[[77.87251,13.42176],[77.87276,13.42109],[77.8756,13.4213],[77.87392,13.41815],[77.8725,13.41258],[77.87292,13.41078],[77.87437,13.41035],[77.87629,13.40755],[77.87538,13.40361],[77.87683,13.40321],[77.87543,13.39669],[77.87704,13.3964],[77.87598,13.3939],[77.87456,13.39277],[77.87429,13.39144],[77.87476,13.38617],[77.8642,13.38376],[77.86419,13.38298],[77.86094,13.38136],[77.85618,13.3818],[77.85662,13.3851],[77.85389,13.39176],[77.85055,13.39818],[77.85106,13.40166],[77.85043,13.40323],[77.85134,13.4078],[77.85219,13.40839],[77.85465,13.40874],[77.85517,13.40924],[77.85543,13.41081],[77.85946,13.41082],[77.85954,13.41634],[77.85875,13.41898],[77.86252,13.41973],[77.86454,13.4193],[77.86574,13.42145],[77.86825,13.42153],[77.8686,13.42227],[77.87251,13.42176]]]}},{"type":"Feature","properties":{"unitId":292,"unitName":"Shidlagatta Rural PS"},"geometry":{"type":"Polygon","coordinates":[[[77.95762,13.46533],[77.95791,13.45549],[77.957,13.45396],[77.95548,13.44811],[77.9549,13.44695],[77.95398,13.44712],[77.95296,13.44431],[77.95085,13.44127],[77.95081,13.44076],[77.95131,13.44055],[77.95034,13.43865],[77.95043,13.43773],[77.95384,13.43679],[77.95388,13.43605],[77.95281,13.43328],[77.94986,13.43034],[77.94919,13.42572],[77.9496,13.42413],[77.95116,13.42135],[77.95277,13.41651],[77.95475,13.41348],[77.96706,13.41391],[77.97246,13.41321],[77.97287,13.41106],[77.97206,13.40733],[77.97137,13.40664],[77.96739,13.40491],[77.96398,13.40445],[77.96206,13.40336],[77.96114,13.40077],[77.96024,13.40031],[77.96031,13.39778],[77.95931,13.39592],[77.95942,13.3934],[77.96001,13.39195],[77.95958,13.39028],[77.95656,13.39153],[77.95615,13.39086],[77.96169,13.38794],[77.96614,13.38486],[77.96507,13.38356],[77.9645,13.37961],[77.96225,13.37658],[77.96011,13.37222],[77.96307,13.37114],[77.96317,13.36704],[77.96178,13.36336],[77.96161,13.35411],[77.96076,13.34978],[77.95769,13.3401],[77.95374,13.3415],[77.95063,13.34195],[77.95008,13.34094],[77.9465,13.33901],[77.94568,13.33795],[77.94493,13.33677],[77.94531,13.33203],[77.94413,13.33008],[77.95119,13.32811],[77.95199,13.32943],[77.95164,13.32527],[77.94356,13.32299],[77.94014,13.31947],[77.93873,13.31611],[77.93585,13.31838],[77.9327,13.31934],[77.92738,13.32343],[77.92668,13.32473],[77.92433,13.32651],[77.92274,13.32848],[77.92214,13.32876],[77.92078,13.32715],[77.92101,13.3184],[77.92041,13.31439],[77.92076,13.30728],[77.9235,13.30756],[77.9227,13.30486],[77.92391,13.30548],[77.92605,13.30527],[77.92544,13.30181],[77.92571,13.30057],[77.9239,13.29086],[77.91972,13.29242],[77.91522,13.29175],[77.91476,13.28972],[77.92022,13.28849],[77.92087,13.28913],[77.92349,13.28913],[77.92293,13.28513],[77.92556,13.28501],[77.93131,13.28179],[77.93086,13.27822],[77.9378,13.27664],[77.93765,13.27572],[77.93927,13.27553],[77.9384,13.26776],[77.93727,13.26424],[77.94033,13.26201],[77.94135,13.26062],[77.94117,13.26002],[77.94226,13.25903],[77.93823,13.25102],[77.93787,13.2513],[77.93526,13.25012],[77.93441,13.24828],[77.93498,13.24802],[77.93551,13.24583],[77.93501,13.24471],[77.93179,13.24215],[77.93149,13.24232],[77.93164,13.24193],[77.92952,13.23888],[77.92763,13.23947],[77.92512,13.23949],[77.92315,13.23863],[77.91901,13.23989],[77.91501,13.23975],[77.91516,13.23546],[77.91417,13.23163],[77.9112,13.23172],[77.89183,13.23541],[77.89533,13.23862],[77.90234,13.24218],[77.90511,13.24553],[77.90529,13.25037],[77.90611,13.2523],[77.90431,13.25417],[77.90496,13.25428],[77.90481,13.25459],[77.89997,13.25614],[77.89129,13.25757],[77.88813,13.25008],[77.88704,13.25062],[77.88516,13.2506],[77.885,13.25016],[77.88105,13.25127],[77.8798,13.25217],[77.87693,13.24708],[77.87701,13.24629],[77.87413,13.24439],[77.8733,13.24451],[77.87992,13.2393],[77.87818,13.23748],[77.87678,13.23433],[77.87165,13.23501],[77.86514,13.23697],[77.86335,13.24116],[77.85779,13.22736],[77.85797,13.22146],[77.85957,13.22001],[77.85006,13.21876],[77.84958,13.22013],[77.84852,13.2204],[77.84987,13.23006],[77.8503,13.24133],[77.84665,13.24171],[77.83395,13.24501],[77.83387,13.24468],[77.82942,13.24793],[77.82674,13.24823],[77.82683,13.24861],[77.82531,13.24905],[77.82551,13.2497],[77.81987,13.25174],[77.8191,13.24755],[77.81804,13.24556],[77.81772,13.24525],[77.81712,13.24557],[77.81546,13.24288],[77.814,13.23862],[77.81146,13.23983],[77.8116,13.24024],[77.81081,13.24053],[77.81059,13.24015],[77.80628,13.24159],[77.80809,13.24561],[77.80784,13.2469],[77.80937,13.24775],[77.81132,13.24649],[77.81207,13.24961],[77.81711,13.25528],[77.81903,13.25475],[77.82186,13.25735],[77.82194,13.25783],[77.81486,13.26096],[77.8092,13.26204],[77.81232,13.2723],[77.81185,13.27783],[77.81304,13.28195],[77.81515,13.28491],[77.81606,13.28746],[77.81705,13.29601],[77.82282,13.29572],[77.82219,13.29298],[77.82228,13.29099],[77.82904,13.28952],[77.83013,13.29876],[77.82831,13.29993],[77.82862,13.30381],[77.82302,13.30445],[77.81874,13.30334],[77.81442,13.30376],[77.81509,13.30919],[77.81373,13.30902],[77.81197,13.30984],[77.80505,13.31147],[77.80436,13.31108],[77.80749,13.31439],[77.80922,13.31567],[77.81071,13.31609],[77.81104,13.31681],[77.81365,13.31583],[77.81216,13.31241],[77.81433,13.31003],[77.81763,13.31029],[77.81922,13.31368],[77.82221,13.31268],[77.82276,13.31392],[77.82558,13.31576],[77.82453,13.31606],[77.82381,13.31764],[77.82393,13.31871],[77.82491,13.32153],[77.82719,13.32472],[77.82531,13.32599],[77.82314,13.32633],[77.81631,13.33105],[77.81507,13.33112],[77.80907,13.33338],[77.80985,13.33621],[77.80497,13.33823],[77.79918,13.33882],[77.79458,13.34193],[77.79473,13.34331],[77.7912,13.34583],[77.79158,13.34726],[77.79111,13.35232],[77.79136,13.35711],[77.79206,13.35929],[77.7949,13.36444],[77.79547,13.36424],[77.79729,13.36595],[77.79786,13.36571],[77.79863,13.36709],[77.79975,13.36566],[77.80126,13.36532],[77.80177,13.36679],[77.80333,13.3687],[77.80333,13.36949],[77.80869,13.36823],[77.8092,13.3685],[77.80963,13.37],[77.81121,13.37079],[77.81296,13.37079],[77.81308,13.37433],[77.82244,13.37104],[77.82571,13.36907],[77.82896,13.37148],[77.83361,13.3731],[77.83642,13.37974],[77.8387,13.37868],[77.84121,13.38787],[77.84169,13.39461],[77.83563,13.40096],[77.83458,13.40398],[77.83041,13.40943],[77.82512,13.41431],[77.82807,13.42078],[77.82855,13.42536],[77.82799,13.42609],[77.83096,13.43086],[77.83105,13.43345],[77.83215,13.43626],[77.83354,13.4366],[77.835,13.43864],[77.83908,13.43976],[77.84318,13.43859],[77.84426,13.44089],[77.84276,13.44224],[77.84399,13.44681],[77.8402,13.45213],[77.83813,13.4534],[77.84356,13.46298],[77.84415,13.46306],[77.84695,13.46142],[77.84941,13.46125],[77.85016,13.46373],[77.85196,13.46713],[77.85312,13.46732],[77.85611,13.46647],[77.85824,13.46808],[77.85744,13.46656],[77.85751,13.46331],[77.86588,13.45985],[77.86914,13.45609],[77.87364,13.45299],[77.874,13.45063],[77.88484,13.4488],[77.88707,13.44661],[77.89279,13.44665],[77.89175,13.44939],[77.88373,13.45834],[77.88542,13.46279],[77.88935,13.46385],[77.89271,13.46274],[77.89655,13.46856],[77.89902,13.47342],[77.90369,13.47376],[77.90154,13.48158],[77.90185,13.48402],[77.90133,13.4855],[77.90139,13.48854],[77.90289,13.48937],[77.90262,13.49243],[77.90531,13.49246],[77.90875,13.49144],[77.90801,13.49059],[77.90893,13.48582],[77.90972,13.48551],[77.91491,13.48534],[77.91566,13.49012],[77.91676,13.48998],[77.91657,13.48808],[77.91822,13.48306],[77.91859,13.48016],[77.91957,13.48008],[77.91821,13.47732],[77.91905,13.46801],[77.92156,13.46872],[77.92333,13.47021],[77.92251,13.47268],[77.92472,13.47272],[77.92487,13.4697],[77.92413,13.46833],[77.9244,13.46617],[77.92493,13.46631],[77.92592,13.465],[77.92723,13.46461],[77.92787,13.46245],[77.93069,13.46354],[77.93309,13.46328],[77.9382,13.46487],[77.93783,13.47149],[77.93834,13.47471],[77.94011,13.47515],[77.94506,13.48816],[77.94421,13.49268],[77.95048,13.495],[77.95672,13.49456],[77.96007,13.49337],[77.96329,13.48864],[77.96415,13.48645],[77.96339,13.48541],[77.96189,13.48051],[77.96067,13.46901],[77.95762,13.46533]],[[77.86574,13.42145],[77.86454,13.4193],[77.86252,13.41973],[77.85875,13.41898],[77.85954,13.41634],[77.85946,13.41082],[77.85543,13.41081],[77.85517,13.40924],[77.85465,13.40874],[77.85219,13.40839],[77.85134,13.4078],[77.85043,13.40323],[77.85106,13.40166],[77.85055,13.39818],[77.85389,13.39176],[77.85662,13.3851],[77.85614,13.38189],[77.85729,13.38151],[77.86094,13.38136],[77.86419,13.38298],[77.8642,13.38376],[77.87476,13.38617],[77.87442,13.39242],[77.87598,13.3939],[77.87704,13.3964],[77.87543,13.39669],[77.87683,13.40321],[77.87538,13.40361],[77.87629,13.40755],[77.87437,13.41035],[77.87292,13.41078],[77.8725,13.41258],[77.87392,13.41815],[77.8756,13.4213],[77.87276,13.42109],[77.87251,13.42176],[77.8686,13.42227],[77.86825,13.42153],[77.86574,13.42145]]]}},{"type":"Feature","properties":{"unitId":293,"unitName":"Dibburahalli PS"},"geometry":{"type":"Polygon","coordinates":[[[77.88155,13.6675],[77.88783,13.66621],[77.89057,13.66513],[77.89899,13.66484],[77.90056,13.6622],[77.90039,13.66107],[77.90177,13.66067],[77.90176,13.65988],[77.90273,13.65946],[77.90341,13.65763],[77.90275,13.64897],[77.90548,13.64209],[77.9085,13.64127],[77.90866,13.63659],[77.92008,13.63642],[77.92592,13.63227],[77.9323,13.63241],[77.93683,13.62942],[77.94067,13.62977],[77.94154,13.62891],[77.94299,13.62957],[77.94376,13.62906],[77.94413,13.6303],[77.94564,13.63117],[77.94657,13.62953],[77.9475,13.62907],[77.94959,13.62881],[77.9521,13.63013],[77.95331,13.62967],[77.95382,13.62852],[77.95452,13.62938],[77.95525,13.62927],[77.95586,13.62832],[77.957,13.6282],[77.95819,13.62731],[77.95937,13.62764],[77.96039,13.62729],[77.96185,13.62876],[77.96243,13.62836],[77.96268,13.62687],[77.96576,13.62606],[77.9694,13.62576],[77.97146,13.62657],[77.97234,13.62647],[77.9722,13.62449],[77.97575,13.62476],[77.97753,13.62701],[77.9805,13.62888],[77.98184,13.62915],[77.98221,13.63113],[77.984,13.63235],[77.98497,13.6325],[77.99432,13.63106],[77.99749,13.62948],[78.00362,13.62972],[78.00958,13.62811],[78.00915,13.62491],[78.00916,13.61617],[78.01003,13.61556],[78.0108,13.60958],[78.01217,13.60742],[78.00971,13.60254],[78.01676,13.60019],[78.01598,13.59712],[78.01639,13.59224],[78.01562,13.59167],[78.01411,13.59149],[78.01009,13.59159],[78.00689,13.59103],[78.00221,13.5913],[77.99678,13.59419],[77.99515,13.59397],[77.99465,13.58983],[77.98939,13.58514],[77.98637,13.58291],[77.98244,13.58188],[77.98059,13.58144],[77.9771,13.58222],[77.97654,13.57759],[77.97258,13.57363],[77.97098,13.5732],[77.97017,13.58353],[77.9642,13.58472],[77.96313,13.57854],[77.96073,13.57148],[77.96007,13.56154],[77.95903,13.55765],[77.96176,13.55726],[77.96387,13.55534],[77.96569,13.55635],[77.96713,13.55593],[77.96704,13.5556],[77.96818,13.55502],[77.96805,13.54582],[77.96892,13.54595],[77.97446,13.54273],[77.976,13.5462],[77.97797,13.54254],[77.97779,13.54118],[77.97868,13.54041],[77.98248,13.5401],[77.98326,13.53861],[77.9837,13.53863],[77.98382,13.54018],[77.98718,13.54368],[77.99051,13.54589],[77.99383,13.54597],[77.99717,13.5425],[77.99771,13.53729],[77.99567,13.5334],[77.99753,13.53105],[77.99907,13.52997],[77.99994,13.5276],[78.00453,13.52441],[78.00499,13.52255],[78.0019,13.52063],[78.00116,13.52136],[77.99899,13.5217],[77.99376,13.52077],[77.9925,13.51928],[77.9902,13.51246],[77.99236,13.50859],[77.9931,13.50828],[77.99817,13.50861],[78.00101,13.51315],[78.00315,13.51428],[78.00671,13.51129],[78.00783,13.51098],[78.00853,13.50958],[78.00811,13.50835],[78.00844,13.50697],[78.00815,13.50616],[78.00757,13.50598],[78.00865,13.50517],[78.00868,13.50362],[78.00736,13.49607],[78.00529,13.49553],[78.00357,13.49584],[78.00348,13.49172],[78.00296,13.48963],[78.00498,13.48163],[78.00134,13.47257],[77.98834,13.47409],[77.98439,13.47414],[77.98208,13.47354],[77.98096,13.47441],[77.97903,13.47425],[77.97478,13.47489],[77.9675,13.47908],[77.96189,13.48051],[77.96339,13.48541],[77.96415,13.48645],[77.96329,13.48864],[77.96007,13.49337],[77.95672,13.49456],[77.95048,13.495],[77.94421,13.49268],[77.94506,13.48816],[77.94011,13.47515],[77.93834,13.47471],[77.93783,13.47149],[77.9382,13.46487],[77.93309,13.46328],[77.93069,13.46354],[77.92787,13.46245],[77.92723,13.46461],[77.92592,13.465],[77.92493,13.46631],[77.9244,13.46617],[77.92413,13.46833],[77.92487,13.4697],[77.92472,13.47272],[77.92251,13.47268],[77.92333,13.47021],[77.92156,13.46872],[77.91905,13.46801],[77.91821,13.47732],[77.91957,13.48008],[77.91859,13.48016],[77.91822,13.48306],[77.91657,13.48808],[77.91676,13.48998],[77.91566,13.49012],[77.91491,13.48534],[77.90972,13.48551],[77.90893,13.48582],[77.90801,13.49059],[77.90875,13.49144],[77.90531,13.49246],[77.90262,13.49243],[77.90289,13.48937],[77.90139,13.48854],[77.90133,13.4855],[77.90185,13.48402],[77.90154,13.48158],[77.90369,13.47376],[77.89902,13.47342],[77.89655,13.46856],[77.89271,13.46274],[77.88935,13.46385],[77.88542,13.46279],[77.88373,13.45834],[77.89175,13.44939],[77.89279,13.44665],[77.88707,13.44661],[77.88484,13.4488],[77.874,13.45063],[77.87364,13.45299],[77.86914,13.45609],[77.86588,13.45985],[77.85751,13.46331],[77.85744,13.46656],[77.85824,13.46808],[77.85611,13.46647],[77.85312,13.46732],[77.85196,13.46713],[77.85016,13.46373],[77.84941,13.46125],[77.84695,13.46142],[77.84415,13.46306],[77.84356,13.46298],[77.83948,13.47281],[77.8277,13.48177],[77.82868,13.48585],[77.82832,13.48775],[77.83173,13.48834],[77.83106,13.49386],[77.82608,13.49579],[77.82654,13.49773],[77.82923,13.50318],[77.82749,13.5095],[77.83026,13.50939],[77.83036,13.51031],[77.8291,13.51043],[77.82879,13.51101],[77.82748,13.51075],[77.82404,13.51224],[77.82252,13.51547],[77.81936,13.51601],[77.81757,13.5151],[77.81456,13.51928],[77.81405,13.52604],[77.81102,13.53371],[77.81123,13.53448],[77.82273,13.5357],[77.82606,13.53798],[77.82971,13.5438],[77.83005,13.55014],[77.83082,13.55142],[77.83156,13.55255],[77.83852,13.55846],[77.84611,13.56178],[77.84726,13.56064],[77.86756,13.56531],[77.87025,13.56666],[77.87116,13.57079],[77.87025,13.58449],[77.8565,13.58271],[77.85317,13.58155],[77.85289,13.58743],[77.84908,13.58851],[77.8421,13.58863],[77.83463,13.58797],[77.83348,13.59043],[77.8324,13.58999],[77.8316,13.5942],[77.82954,13.59925],[77.82838,13.60066],[77.82833,13.6032],[77.83008,13.60566],[77.82941,13.60749],[77.83051,13.60783],[77.83071,13.6098],[77.83195,13.6113],[77.83205,13.61293],[77.83425,13.61597],[77.8378,13.61671],[77.83802,13.61934],[77.83939,13.62104],[77.84229,13.62086],[77.8429,13.62155],[77.84222,13.62489],[77.84307,13.62532],[77.84311,13.62878],[77.84064,13.63185],[77.84005,13.63331],[77.83872,13.63373],[77.8375,13.63556],[77.83886,13.63782],[77.83925,13.63946],[77.8377,13.64643],[77.83888,13.64677],[77.83933,13.64606],[77.84427,13.64515],[77.84641,13.64552],[77.85351,13.64393],[77.85654,13.6412],[77.86257,13.6405],[77.86249,13.65076],[77.86311,13.65332],[77.86168,13.65689],[77.86182,13.6633],[77.86116,13.66729],[77.87168,13.66733],[77.87258,13.6666],[77.87643,13.66754],[77.87955,13.66632],[77.88155,13.6675]]]}},{"type":"Feature","properties":{"unitId":294,"unitName":"Thirumani PS"},"geometry":{"type":"MultiPolygon","coordinates":[[[[77.40665,14.33883],[77.41017,14.33743],[77.41101,14.33669],[77.41159,14.33736],[77.41247,14.33735],[77.41476,14.33491],[77.42019,14.33281],[77.42291,14.32974],[77.4229,14.32874],[77.42812,14.32932],[77.42903,14.32754],[77.42758,14.32497],[77.42919,14.32063],[77.43002,14.31988],[77.4301,14.31474],[77.43075,14.31367],[77.43556,14.31517],[77.43787,14.31683],[77.4429,14.3175],[77.44308,14.31806],[77.44665,14.31751],[77.44694,14.3161],[77.44621,14.31277],[77.44698,14.31167],[77.4466,14.30357],[77.4456,14.30145],[77.44479,14.29552],[77.44567,14.29386],[77.4465,14.29341],[77.44685,14.28727],[77.4479,14.28362],[77.45044,14.2832],[77.44993,14.28134],[77.45727,14.28056],[77.46377,14.28234],[77.46619,14.28343],[77.46703,14.28468],[77.46818,14.2849],[77.46912,14.28667],[77.47197,14.28764],[77.47413,14.28988],[77.47999,14.29243],[77.48248,14.29204],[77.48409,14.29],[77.48697,14.28275],[77.48793,14.28176],[77.48926,14.28121],[77.49125,14.28145],[77.49215,14.27769],[77.49869,14.27925],[77.50184,14.2684],[77.50387,14.26603],[77.50428,14.26403],[77.50169,14.26218],[77.50244,14.26153],[77.50325,14.2588],[77.50281,14.25653],[77.50141,14.25347],[77.50055,14.24751],[77.49786,14.24138],[77.49623,14.23632],[77.49198,14.23419],[77.49344,14.23313],[77.49231,14.233],[77.49221,14.23076],[77.49431,14.23169],[77.49491,14.2311],[77.49537,14.23012],[77.49383,14.22467],[77.49443,14.22452],[77.49677,14.21916],[77.4989,14.21617],[77.50291,14.20836],[77.50119,14.2032],[77.50402,14.19244],[77.50991,14.18946],[77.514,14.18668],[77.51573,14.18684],[77.51665,14.18615],[77.51682,14.18226],[77.51473,14.18216],[77.51426,14.18091],[77.51462,14.1795],[77.51396,14.17927],[77.51351,14.17804],[77.51367,14.17625],[77.51207,14.17551],[77.51235,14.17474],[77.50378,14.15772],[77.49981,14.15913],[77.49981,14.15973],[77.49862,14.16029],[77.4901,14.16315],[77.48867,14.16227],[77.48675,14.1622],[77.48104,14.16488],[77.47793,14.16533],[77.46942,14.16514],[77.46751,14.1655],[77.4666,14.16661],[77.46646,14.1677],[77.46691,14.17227],[77.45738,14.17009],[77.44543,14.17216],[77.43767,14.17186],[77.42971,14.17086],[77.42743,14.17197],[77.42575,14.17224],[77.42574,14.17303],[77.42517,14.17281],[77.42393,14.17362],[77.423,14.17365],[77.42269,14.17691],[77.42038,14.17705],[77.419,14.17645],[77.41601,14.17646],[77.41118,14.17453],[77.40832,14.17391],[77.4066,14.17229],[77.40567,14.17219],[77.40185,14.17281],[77.39911,14.17453],[77.39396,14.17442],[77.39596,14.17237],[77.3971,14.1699],[77.39789,14.16422],[77.3974,14.16014],[77.39419,14.16051],[77.38894,14.15969],[77.38876,14.15713],[77.38756,14.15393],[77.38493,14.15339],[77.38406,14.14729],[77.38137,14.13909],[77.37933,14.13627],[77.37533,14.13543],[77.36672,14.1325],[77.36515,14.13261],[77.36469,14.13185],[77.36381,14.13188],[77.36358,14.13232],[77.36342,14.13127],[77.36089,14.13142],[77.35539,14.13009],[77.35008,14.13241],[77.33757,14.13622],[77.33423,14.1385],[77.3292,14.1383],[77.32484,14.1395],[77.32162,14.13958],[77.31966,14.14062],[77.31804,14.14368],[77.3192,14.14856],[77.31899,14.15589],[77.32131,14.16075],[77.32082,14.16289],[77.32103,14.16883],[77.32049,14.17631],[77.31875,14.17838],[77.31922,14.18131],[77.31808,14.18118],[77.31792,14.18171],[77.31292,14.18051],[77.30373,14.17931],[77.29727,14.17902],[77.29694,14.1786],[77.29642,14.1805],[77.29684,14.18232],[77.29473,14.18153],[77.29251,14.18164],[77.29094,14.18367],[77.28842,14.18464],[77.28538,14.18444],[77.28343,14.18358],[77.28131,14.19348],[77.28158,14.20504],[77.27617,14.20305],[77.27117,14.19756],[77.26823,14.19784],[77.26259,14.19657],[77.26136,14.19793],[77.25404,14.19525],[77.25381,14.19455],[77.25036,14.19165],[77.24515,14.1946],[77.24484,14.1974],[77.24297,14.20436],[77.24494,14.20534],[77.24546,14.20817],[77.24623,14.2084],[77.24674,14.20945],[77.25215,14.21032],[77.25213,14.2108],[77.25306,14.21112],[77.25319,14.213],[77.25493,14.21305],[77.2561,14.21408],[77.25642,14.22203],[77.25389,14.23281],[77.25407,14.23571],[77.25313,14.24322],[77.25399,14.24528],[77.25285,14.2562],[77.25346,14.25857],[77.25611,14.25895],[77.25584,14.26055],[77.25808,14.26083],[77.25998,14.27404],[77.26141,14.27437],[77.26158,14.27924],[77.26257,14.28041],[77.26439,14.28088],[77.2656,14.28196],[77.2702,14.2836],[77.27038,14.28506],[77.27291,14.28501],[77.28031,14.28289],[77.28916,14.2817],[77.30157,14.28367],[77.30193,14.28241],[77.30482,14.28356],[77.31342,14.28138],[77.31781,14.28105],[77.32165,14.28138],[77.33036,14.2803],[77.336,14.27897],[77.33836,14.27751],[77.3408,14.27749],[77.34131,14.27813],[77.34161,14.27771],[77.34408,14.27766],[77.34722,14.27805],[77.35479,14.27657],[77.3596,14.27724],[77.36312,14.27623],[77.36124,14.27172],[77.36249,14.26545],[77.3623,14.26089],[77.36466,14.25775],[77.36479,14.2548],[77.36371,14.25079],[77.36216,14.24831],[77.36057,14.24121],[77.36028,14.23447],[77.36352,14.23446],[77.36354,14.23395],[77.3702,14.23138],[77.37584,14.22832],[77.3772,14.22812],[77.3838,14.22082],[77.38373,14.21283],[77.38295,14.20779],[77.38778,14.20247],[77.38745,14.20232],[77.38735,14.19998],[77.38838,14.20018],[77.39245,14.19907],[77.39443,14.19967],[77.39574,14.20082],[77.39917,14.20216],[77.40049,14.20317],[77.40271,14.2033],[77.40968,14.20576],[77.41401,14.20525],[77.41393,14.20648],[77.4162,14.20697],[77.41668,14.20904],[77.41811,14.20932],[77.41869,14.21162],[77.41787,14.21218],[77.41781,14.21917],[77.41678,14.2214],[77.41746,14.22575],[77.41469,14.22615],[77.41177,14.2276],[77.41122,14.23221],[77.40908,14.23167],[77.40874,14.24549],[77.4092,14.25135],[77.40781,14.2556],[77.40895,14.25605],[77.40854,14.26014],[77.40697,14.25995],[77.40504,14.26709],[77.39975,14.26648],[77.39526,14.2666],[77.39522,14.26714],[77.39105,14.26923],[77.38803,14.26992],[77.38674,14.27271],[77.38751,14.27283],[77.38787,14.27467],[77.38906,14.27483],[77.3898,14.27917],[77.38832,14.28244],[77.38663,14.28209],[77.38632,14.28489],[77.38572,14.28577],[77.38593,14.28733],[77.38545,14.28867],[77.38513,14.2884],[77.3845,14.29109],[77.38473,14.29289],[77.38385,14.29602],[77.38296,14.29689],[77.38188,14.29919],[77.37946,14.29941],[77.3788,14.30104],[77.37745,14.30164],[77.37748,14.30317],[77.37679,14.30444],[77.37654,14.30671],[77.37813,14.30981],[77.3786,14.3133],[77.37821,14.31385],[77.37792,14.31865],[77.37921,14.32173],[77.38299,14.32667],[77.38459,14.32803],[77.38595,14.32803],[77.38758,14.33121],[77.38952,14.33353],[77.39432,14.33671],[77.39602,14.3373],[77.39761,14.33717],[77.39969,14.33826],[77.40665,14.33883]]],[[[77.29754,14.137],[77.29977,14.12799],[77.2996,14.12475],[77.29749,14.12454],[77.29332,14.12507],[77.2823,14.124],[77.28182,14.12623],[77.28494,14.13524],[77.28784,14.13686],[77.2897,14.13697],[77.28974,14.13862],[77.29528,14.14256],[77.29754,14.137]]]]}},{"type":"Feature","properties":{"unitId":295,"unitName":"Chinthamani Rural PS"},"geometry":{"type":"Polygon","coordinates":[[[78.04852,13.42089],[78.0526,13.41949],[78.05539,13.41989],[78.05918,13.41963],[78.05897,13.41884],[78.05959,13.4179],[78.06076,13.41782],[78.06095,13.41681],[78.06151,13.41676],[78.06152,13.41505],[78.06417,13.41301],[78.06396,13.41097],[78.06462,13.41029],[78.06462,13.40891],[78.06536,13.40881],[78.06534,13.40668],[78.06643,13.40277],[78.06553,13.40134],[78.06364,13.40002],[78.06327,13.39553],[78.06476,13.39127],[78.06402,13.3841],[78.06139,13.38366],[78.05392,13.38373],[78.05124,13.38447],[78.04981,13.38078],[78.04579,13.38182],[78.04569,13.38146],[78.04338,13.38127],[78.04106,13.37992],[78.03957,13.37991],[78.03952,13.37946],[78.0355,13.37901],[78.03491,13.38184],[78.03781,13.38186],[78.03979,13.3967],[78.0387,13.39814],[78.03898,13.40217],[78.04041,13.40377],[78.04185,13.4035],[78.04332,13.40771],[78.04453,13.40782],[78.04402,13.41075],[78.04511,13.41328],[78.04122,13.41326],[78.04251,13.41674],[78.04208,13.41772],[78.04584,13.41833],[78.04781,13.41912],[78.04852,13.42089]]]}}]}